[{"street":"Manufacturers","city":"Beicang","zip":4721,"name":"Corythornis cristata","area":1336},
{"street":"Forest Run","city":"Pangawaren","zip":8832,"name":"Pteronura brasiliensis","area":987},
{"street":"Lakewood","city":"Nagbukel","zip":9359,"name":"Columba palumbus","area":605},
{"street":"Autumn Leaf","city":"Itacarambi","zip":1178,"name":"Gopherus agassizii","area":1454},
{"street":"Ludington","city":"Kisesa","zip":6251,"name":"Cereopsis novaehollandiae","area":399},
{"street":"Forest Dale","city":"Las Lajas","zip":9820,"name":"Raphicerus campestris","area":507},
{"street":"Harper","city":"Santo Rosario","zip":4412,"name":"Psophia viridis","area":1221},
{"street":"Sauthoff","city":"La Esperanza","zip":9281,"name":"Larus dominicanus","area":999},
{"street":"Ruskin","city":"Shuidong","zip":3219,"name":"Agama sp.","area":1264},
{"street":"Mockingbird","city":"Klwów","zip":7579,"name":"Eumetopias jubatus","area":1184},
{"street":"Petterle","city":"Tongbang","zip":7268,"name":"Mustela nigripes","area":1217},
{"street":"Green Ridge","city":"Lae","zip":8125,"name":"Uraeginthus granatina","area":537},
{"street":"Menomonie","city":"Bengtsfors","zip":3727,"name":"Paroaria gularis","area":1341},
{"street":"Crescent Oaks","city":"Kuala Lumpur","zip":5624,"name":"Aonyx capensis","area":1077},
{"street":"Kingsford","city":"Newark","zip":3804,"name":"Phoenicopterus ruber","area":330},
{"street":"Old Shore","city":"Djibo","zip":3247,"name":"Macropus agilis","area":1272},
{"street":"School","city":"Saint-Claude","zip":4196,"name":"Alopex lagopus","area":690},
{"street":"Meadow Vale","city":"Sharjah","zip":3327,"name":"Spilogale gracilis","area":1203},
{"street":"Thompson","city":"Keti Bandar","zip":2809,"name":"Gopherus agassizii","area":1606},
{"street":"Ridgeway","city":"Urus-Martan","zip":5816,"name":"Equus hemionus","area":1880},
{"street":"Mallard","city":"Jukui","zip":3295,"name":"Tyto novaehollandiae","area":974},
{"street":"Ridgeview","city":"Uppsala","zip":2052,"name":"Antidorcas marsupialis","area":2000},
{"street":"Arkansas","city":"Pader Palwo","zip":1403,"name":"Ctenophorus ornatus","area":1122},
{"street":"New Castle","city":"Babakanloa","zip":6115,"name":"Leptoptilus dubius","area":615},
{"street":"Acker","city":"Néa Péramos","zip":6679,"name":"Libellula quadrimaculata","area":1882},
{"street":"Troy","city":"Sawara","zip":2867,"name":"Streptopelia senegalensis","area":842},
{"street":"Burrows","city":"La Esmeralda","zip":4175,"name":"Turtur chalcospilos","area":682},
{"street":"Vermont","city":"Ormstown","zip":4574,"name":"Spizaetus coronatus","area":1006},
{"street":"Packers","city":"Jiangxiangzhen","zip":6607,"name":"Papio cynocephalus","area":1485},
{"street":"Golf Course","city":"Oakland","zip":7848,"name":"Papio cynocephalus","area":1860},
{"street":"Carpenter","city":"Mandaluyong City","zip":6719,"name":"Phascogale tapoatafa","area":1566},
{"street":"Lake View","city":"Piru","zip":1063,"name":"Paradoxurus hermaphroditus","area":709},
{"street":"Tennyson","city":"Baclayon","zip":7489,"name":"Colobus guerza","area":1503},
{"street":"Lindbergh","city":"Cincinnati","zip":9132,"name":"Phalaropus fulicarius","area":1963},
{"street":"Hayes","city":"Khombole","zip":9518,"name":"Sula nebouxii","area":543},
{"street":"Nobel","city":"Cerinza","zip":5433,"name":"Morelia spilotes variegata","area":1850},
{"street":"Del Sol","city":"Chengxiang","zip":2650,"name":"Pseudoleistes virescens","area":582},
{"street":"Pine View","city":"La Loma","zip":7948,"name":"Petaurus breviceps","area":420},
{"street":"Annamark","city":"San Isidro","zip":4291,"name":"Butorides striatus","area":233},
{"street":"Redwing","city":"Gachalá","zip":3239,"name":"Papio cynocephalus","area":147},
{"street":"Carey","city":"Krasnorechenskiy","zip":2914,"name":"Hippotragus equinus","area":1508},
{"street":"Milwaukee","city":"Uruzgān","zip":7002,"name":"Acrobates pygmaeus","area":770},
{"street":"Manufacturers","city":"Winong","zip":2906,"name":"Camelus dromedarius","area":843},
{"street":"Huxley","city":"Asan Kumbang","zip":4315,"name":"Grus canadensis","area":1933},
{"street":"Cherokee","city":"Caucaguita","zip":7713,"name":"Haematopus ater","area":1213},
{"street":"Meadow Valley","city":"Pulap","zip":3807,"name":"Ovis dalli stonei","area":329},
{"street":"7th","city":"Kayan","zip":8356,"name":"Gyps bengalensis","area":1378},
{"street":"Orin","city":"Novosil’","zip":4561,"name":"Psittacula krameri","area":439},
{"street":"Express","city":"Rudna Mała","zip":2050,"name":"Sarkidornis melanotos","area":1420},
{"street":"Harbort","city":"Cabannungan Second","zip":7946,"name":"Uraeginthus bengalus","area":956},
{"street":"Buell","city":"Dahu","zip":2135,"name":"Dendrocitta vagabunda","area":176},
{"street":"Petterle","city":"Gromnik","zip":3006,"name":"Stercorarius longicausus","area":1719},
{"street":"Farragut","city":"Majie","zip":7335,"name":"Alligator mississippiensis","area":1535},
{"street":"Sage","city":"Virginia","zip":6077,"name":"Phascogale calura","area":1771},
{"street":"Farwell","city":"Tonota","zip":7755,"name":"Nyctanassa violacea","area":404},
{"street":"Grasskamp","city":"Rasūlnagar","zip":7574,"name":"Canis aureus","area":828},
{"street":"Doe Crossing","city":"Kaulon","zip":4737,"name":"Mephitis mephitis","area":1602},
{"street":"Sheridan","city":"San Antonio","zip":8820,"name":"Oryx gazella","area":1658},
{"street":"Ramsey","city":"Shanmuqiao","zip":6865,"name":"Lepus arcticus","area":1372},
{"street":"Hansons","city":"Horodok","zip":8854,"name":"Mycteria leucocephala","area":1051},
{"street":"Dakota","city":"Pop Shahri","zip":6334,"name":"Macaca radiata","area":648},
{"street":"Oriole","city":"Toluviejo","zip":8443,"name":"Sterna paradisaea","area":328},
{"street":"Kingsford","city":"Qiuchuan","zip":1591,"name":"Ictalurus furcatus","area":1582},
{"street":"Saint Paul","city":"Mitsuke","zip":8913,"name":"Haliaetus leucogaster","area":558},
{"street":"Hauk","city":"Stulovo","zip":6067,"name":"Butorides striatus","area":1031},
{"street":"Lakewood","city":"Thymianá","zip":4701,"name":"Axis axis","area":563},
{"street":"Brentwood","city":"Kedungtulup","zip":5406,"name":"Equus hemionus","area":995},
{"street":"Bobwhite","city":"Casselman","zip":1571,"name":"Mabuya spilogaster","area":501},
{"street":"Southridge","city":"Saga","zip":5068,"name":"Caiman crocodilus","area":1520},
{"street":"Sutherland","city":"Helsingborg","zip":4366,"name":"Nyctanassa violacea","area":238},
{"street":"Emmet","city":"Casais de Vera Cruz","zip":8157,"name":"Lasiodora parahybana","area":1337},
{"street":"Ryan","city":"Ciburial","zip":6097,"name":"Dusicyon thous","area":266},
{"street":"Toban","city":"Nanjie","zip":9087,"name":"Myrmecophaga tridactyla","area":454},
{"street":"Pond","city":"Río Sereno","zip":1226,"name":"Redunca redunca","area":121},
{"street":"Meadow Ridge","city":"Ćićevac","zip":4694,"name":"Tyto novaehollandiae","area":1204},
{"street":"Di Loreto","city":"Laironja","zip":2404,"name":"Anastomus oscitans","area":609},
{"street":"Harper","city":"Baliton","zip":8415,"name":"Chloephaga melanoptera","area":1443},
{"street":"Pierstorff","city":"Shīrvān","zip":7753,"name":"Didelphis virginiana","area":413},
{"street":"Packers","city":"Usman’","zip":1185,"name":"Mabuya spilogaster","area":263},
{"street":"Lakewood Gardens","city":"Lumbangan","zip":3316,"name":"Odocoileus hemionus","area":998},
{"street":"Utah","city":"Rosmaninhal","zip":9960,"name":"Paraxerus cepapi","area":450},
{"street":"Maple Wood","city":"Shevchenkove","zip":2034,"name":"Cercatetus concinnus","area":466},
{"street":"Clyde Gallagher","city":"Mirzāpur","zip":4032,"name":"Macaca mulatta","area":102},
{"street":"Barby","city":"Diavatós","zip":6182,"name":"Suricata suricatta","area":476},
{"street":"Ronald Regan","city":"Demuk","zip":6546,"name":"Eubalaena australis","area":1039},
{"street":"Michigan","city":"Leksand","zip":1123,"name":"Oxybelis fulgidus","area":582},
{"street":"1st","city":"Wiślica","zip":8449,"name":"Larus dominicanus","area":1815},
{"street":"Cardinal","city":"Tynne","zip":2203,"name":"Lorythaixoides concolor","area":536},
{"street":"Logan","city":"Arcoverde","zip":5155,"name":"Lamprotornis sp.","area":1002},
{"street":"Magdeline","city":"Weishanzhuang","zip":6979,"name":"Spermophilus parryii","area":1668},
{"street":"Golden Leaf","city":"Kavarna","zip":6500,"name":"Carduelis uropygialis","area":1233},
{"street":"Marcy","city":"Bachuan","zip":5054,"name":"Bettongia penicillata","area":685},
{"street":"Judy","city":"Alcalá","zip":9275,"name":"Felis serval","area":1820},
{"street":"Shasta","city":"Chaiyaphum","zip":7237,"name":"Dasyurus viverrinus","area":852},
{"street":"Eggendart","city":"Cilolongokan","zip":9567,"name":"Merops nubicus","area":895},
{"street":"Sloan","city":"Rancharia","zip":3386,"name":"Himantopus himantopus","area":1819},
{"street":"Old Gate","city":"Staroyur’yevo","zip":3193,"name":"Spermophilus lateralis","area":1911},
{"street":"Warrior","city":"Quitilipi","zip":7768,"name":"Kobus defassa","area":1463},
{"street":"Messerschmidt","city":"Oebai","zip":1866,"name":"Neotis denhami","area":931},
{"street":"Russell","city":"Donghe","zip":2732,"name":"Microcebus murinus","area":758}]