[{"hours":23,"wage":1522,"qualification":"Personal Trainer","svnr":5545058583,"street":"Manufacturers","city":"Beicang","zip":4721,"role":"trainer"},{"hours":37,"wage":2389,"qualification":"Personal Trainer","svnr":5324474200,"street":"Forest Run","city":"Pangawaren","zip":8832,"role":"trainer"},{"hours":32,"wage":4021,"qualification":"Functional Strength Trainer","svnr":1211887829,"street":"Lakewood","city":"Nagbukel","zip":9359,"role":"trainer"},{"hours":26,"wage":1176,"qualification":"Fitness Trainer","svnr":3493877954,"street":"Autumn Leaf","city":"Itacarambi","zip":1178,"role":"trainer"},{"hours":18,"wage":1974,"qualification":"Personal Trainer","svnr":8128505099,"street":"Ludington","city":"Kisesa","zip":6251,"role":"trainer"},{"hours":25,"wage":1398,"qualification":"Personal Trainer","svnr":6302744462,"street":"Forest Dale","city":"Las Lajas","zip":9820,"role":"trainer"},{"hours":27,"wage":4169,"qualification":"Functional Strength Trainer","svnr":2299437815,"street":"Harper","city":"Santo Rosario","zip":4412,"role":"trainer"},{"hours":18,"wage":2161,"qualification":"Fitness Trainer","svnr":5236522852,"street":"Sauthoff","city":"La Esperanza","zip":9281,"role":"trainer"},{"hours":15,"wage":4738,"qualification":"Functional Strength Trainer","svnr":5143189231,"street":"Ruskin","city":"Shuidong","zip":3219,"role":"trainer"},{"hours":31,"wage":3374,"qualification":"Pilates Trainer","svnr":9126861784,"street":"Mockingbird","city":"Klwów","zip":7579,"role":"trainer"},{"hours":14,"wage":2421,"qualification":"Fitness Trainer","svnr":5877425294,"street":"Manufacturers","city":"Beicang","zip":4721,"role":"trainer"},{"hours":24,"wage":1539,"qualification":"Functional Strength Trainer","svnr":7897669934,"street":"Forest Run","city":"Pangawaren","zip":8832,"role":"trainer"},{"hours":15,"wage":2924,"qualification":"Functional Strength Trainer","svnr":4010968005,"street":"Lakewood","city":"Nagbukel","zip":9359,"role":"trainer"},{"hours":12,"wage":3859,"qualification":"Fitness Trainer","svnr":3487736466,"street":"Autumn Leaf","city":"Itacarambi","zip":1178,"role":"trainer"},{"hours":39,"wage":2397,"qualification":"Fitness Trainer","svnr":3949567860,"street":"Ludington","city":"Kisesa","zip":6251,"role":"trainer"},{"hours":32,"wage":1013,"qualification":"Functional Strength Trainer","svnr":9982563116,"street":"Forest Dale","city":"Las Lajas","zip":9820,"role":"trainer"},{"hours":35,"wage":2395,"qualification":"Fitness Trainer","svnr":5191656285,"street":"Harper","city":"Santo Rosario","zip":4412,"role":"trainer"},{"hours":28,"wage":2086,"qualification":"Functional Strength Trainer","svnr":2034321985,"street":"Sauthoff","city":"La Esperanza","zip":9281,"role":"trainer"},{"hours":38,"wage":2124,"qualification":"Pilates Trainer","svnr":8609838243,"street":"Ruskin","city":"Shuidong","zip":3219,"role":"trainer"},{"hours":33,"wage":2251,"qualification":"Pilates Trainer","svnr":9189816144,"street":"Mockingbird","city":"Klwów","zip":7579,"role":"trainer"},{"hours":13,"wage":3909,"qualification":"Functional Strength Trainer","svnr":1139426602,"street":"Manufacturers","city":"Beicang","zip":4721,"role":"trainer"},{"hours":19,"wage":2552,"qualification":"Yoga Trainer","svnr":3800373047,"street":"Forest Run","city":"Pangawaren","zip":8832,"role":"trainer"},{"hours":32,"wage":4319,"qualification":"Fitness Trainer","svnr":6801703860,"street":"Lakewood","city":"Nagbukel","zip":9359,"role":"trainer"},{"hours":17,"wage":3907,"qualification":"Fitness Trainer","svnr":1447156115,"street":"Autumn Leaf","city":"Itacarambi","zip":1178,"role":"trainer"},{"hours":38,"wage":4637,"qualification":"Pilates Trainer","svnr":4879762047,"street":"Ludington","city":"Kisesa","zip":6251,"role":"trainer"},{"hours":40,"wage":3393,"qualification":"Fitness Trainer","svnr":3744369570,"street":"Forest Dale","city":"Las Lajas","zip":9820,"role":"trainer"},{"hours":15,"wage":3177,"qualification":"Yoga Trainer","svnr":6668106042,"street":"Harper","city":"Santo Rosario","zip":4412,"role":"trainer"},{"hours":34,"wage":4735,"qualification":"Personal Trainer","svnr":5680893638,"street":"Sauthoff","city":"La Esperanza","zip":9281,"role":"trainer"},{"hours":18,"wage":2014,"qualification":"Yoga Trainer","svnr":4825408378,"street":"Ruskin","city":"Shuidong","zip":3219,"role":"trainer"},{"hours":32,"wage":2473,"qualification":"Personal Trainer","svnr":7802272564,"street":"Mockingbird","city":"Klwów","zip":7579,"role":"trainer"},{"hours":33,"wage":1465,"qualification":"Pilates Trainer","svnr":9370753915,"street":"Manufacturers","city":"Beicang","zip":4721,"role":"trainer"},{"hours":33,"wage":4833,"qualification":"Personal Trainer","svnr":6765973957,"street":"Forest Run","city":"Pangawaren","zip":8832,"role":"trainer"},{"hours":16,"wage":4807,"qualification":"Yoga Trainer","svnr":8934741937,"street":"Lakewood","city":"Nagbukel","zip":9359,"role":"trainer"},{"hours":27,"wage":4049,"qualification":"Yoga Trainer","svnr":2287669384,"street":"Autumn Leaf","city":"Itacarambi","zip":1178,"role":"trainer"},{"hours":20,"wage":4218,"qualification":"Yoga Trainer","svnr":4076638987,"street":"Ludington","city":"Kisesa","zip":6251,"role":"trainer"},{"hours":31,"wage":1095,"qualification":"Pilates Trainer","svnr":8134772758,"street":"Forest Dale","city":"Las Lajas","zip":9820,"role":"trainer"},{"hours":25,"wage":3955,"qualification":"Personal Trainer","svnr":6453605402,"street":"Harper","city":"Santo Rosario","zip":4412,"role":"trainer"},{"hours":26,"wage":4237,"qualification":"Pilates Trainer","svnr":8019383505,"street":"Sauthoff","city":"La Esperanza","zip":9281,"role":"trainer"},{"hours":14,"wage":3755,"qualification":"Yoga Trainer","svnr":2962815794,"street":"Ruskin","city":"Shuidong","zip":3219,"role":"trainer"},{"hours":22,"wage":3933,"qualification":"Yoga Trainer","svnr":8334736400,"street":"Mockingbird","city":"Klwów","zip":7579,"role":"trainer"},{"hours":36,"wage":2871,"qualification":"Fitness Trainer","svnr":3565511081,"street":"Manufacturers","city":"Beicang","zip":4721,"role":"trainer"},{"hours":32,"wage":2284,"qualification":"Yoga Trainer","svnr":3177637248,"street":"Forest Run","city":"Pangawaren","zip":8832,"role":"trainer"},{"hours":16,"wage":1104,"qualification":"Pilates Trainer","svnr":7805590668,"street":"Lakewood","city":"Nagbukel","zip":9359,"role":"trainer"},{"hours":37,"wage":4364,"qualification":"Personal Trainer","svnr":8838407234,"street":"Autumn Leaf","city":"Itacarambi","zip":1178,"role":"trainer"},{"hours":32,"wage":4729,"qualification":"Functional Strength Trainer","svnr":9435553114,"street":"Ludington","city":"Kisesa","zip":6251,"role":"trainer"},{"hours":30,"wage":3651,"qualification":"Personal Trainer","svnr":7518142082,"street":"Forest Dale","city":"Las Lajas","zip":9820,"role":"trainer"},{"hours":33,"wage":2585,"qualification":"Personal Trainer","svnr":7315195893,"street":"Harper","city":"Santo Rosario","zip":4412,"role":"trainer"},{"hours":10,"wage":4266,"qualification":"Functional Strength Trainer","svnr":9109817093,"street":"Sauthoff","city":"La Esperanza","zip":9281,"role":"trainer"},{"hours":39,"wage":3447,"qualification":"Pilates Trainer","svnr":6637962958,"street":"Ruskin","city":"Shuidong","zip":3219,"role":"trainer"},{"hours":36,"wage":2110,"qualification":"Fitness Trainer","svnr":6014722777,"street":"Mockingbird","city":"Klwów","zip":7579,"role":"trainer"},{"hours":34,"wage":3227,"qualification":"Personal Trainer","svnr":4366297969,"street":"Manufacturers","city":"Beicang","zip":4721,"role":"trainer"},{"hours":36,"wage":4766,"qualification":"Fitness Trainer","svnr":1716131560,"street":"Forest Run","city":"Pangawaren","zip":8832,"role":"trainer"},{"hours":36,"wage":4540,"qualification":"Functional Strength Trainer","svnr":3802423755,"street":"Lakewood","city":"Nagbukel","zip":9359,"role":"trainer"},{"hours":16,"wage":1940,"qualification":"Functional Strength Trainer","svnr":5482951499,"street":"Autumn Leaf","city":"Itacarambi","zip":1178,"role":"trainer"},{"hours":19,"wage":1142,"qualification":"Personal Trainer","svnr":5507055836,"street":"Ludington","city":"Kisesa","zip":6251,"role":"trainer"},{"hours":14,"wage":1777,"qualification":"Pilates Trainer","svnr":9967217826,"street":"Forest Dale","city":"Las Lajas","zip":9820,"role":"trainer"},{"hours":39,"wage":1773,"qualification":"Pilates Trainer","svnr":6666566772,"street":"Harper","city":"Santo Rosario","zip":4412,"role":"trainer"},{"hours":20,"wage":3379,"qualification":"Yoga Trainer","svnr":5212047736,"street":"Sauthoff","city":"La Esperanza","zip":9281,"role":"trainer"},{"hours":31,"wage":1531,"qualification":"Fitness Trainer","svnr":2910096698,"street":"Ruskin","city":"Shuidong","zip":3219,"role":"trainer"},{"hours":19,"wage":4869,"qualification":"Yoga Trainer","svnr":4823169456,"street":"Mockingbird","city":"Klwów","zip":7579,"role":"trainer"},{"hours":18,"wage":3467,"qualification":"Yoga Trainer","svnr":4453730812,"street":"Manufacturers","city":"Beicang","zip":4721,"role":"trainer"},{"hours":28,"wage":3539,"qualification":"Functional Strength Trainer","svnr":1176078954,"street":"Forest Run","city":"Pangawaren","zip":8832,"role":"trainer"},{"hours":34,"wage":2789,"qualification":"Yoga Trainer","svnr":9584678775,"street":"Lakewood","city":"Nagbukel","zip":9359,"role":"trainer"},{"hours":34,"wage":1856,"qualification":"Personal Trainer","svnr":1727502081,"street":"Autumn Leaf","city":"Itacarambi","zip":1178,"role":"trainer"},{"hours":12,"wage":4249,"qualification":"Pilates Trainer","svnr":7964075649,"street":"Ludington","city":"Kisesa","zip":6251,"role":"trainer"},{"hours":22,"wage":4515,"qualification":"Personal Trainer","svnr":3490130704,"street":"Forest Dale","city":"Las Lajas","zip":9820,"role":"trainer"},{"hours":32,"wage":2302,"qualification":"Personal Trainer","svnr":3286463383,"street":"Harper","city":"Santo Rosario","zip":4412,"role":"trainer"},{"hours":17,"wage":2474,"qualification":"Functional Strength Trainer","svnr":5231698646,"street":"Sauthoff","city":"La Esperanza","zip":9281,"role":"trainer"},{"hours":22,"wage":2239,"qualification":"Functional Strength Trainer","svnr":3083859828,"street":"Ruskin","city":"Shuidong","zip":3219,"role":"trainer"},{"hours":11,"wage":1735,"qualification":"Personal Trainer","svnr":4150771534,"street":"Mockingbird","city":"Klwów","zip":7579,"role":"trainer"},{"hours":37,"wage":4153,"qualification":"Yoga Trainer","svnr":3988556157,"street":"Manufacturers","city":"Beicang","zip":4721,"role":"trainer"},{"hours":28,"wage":4946,"qualification":"Personal Trainer","svnr":9428950525,"street":"Forest Run","city":"Pangawaren","zip":8832,"role":"trainer"},{"hours":19,"wage":1950,"qualification":"Fitness Trainer","svnr":9167291328,"street":"Lakewood","city":"Nagbukel","zip":9359,"role":"trainer"},{"hours":28,"wage":2994,"qualification":"Functional Strength Trainer","svnr":2932460517,"street":"Autumn Leaf","city":"Itacarambi","zip":1178,"role":"trainer"},{"hours":14,"wage":1267,"qualification":"Yoga Trainer","svnr":6120888541,"street":"Ludington","city":"Kisesa","zip":6251,"role":"trainer"},{"hours":27,"wage":3492,"qualification":"Functional Strength Trainer","svnr":2427737371,"street":"Forest Dale","city":"Las Lajas","zip":9820,"role":"trainer"},{"hours":11,"wage":1576,"qualification":"Yoga Trainer","svnr":4710858725,"street":"Harper","city":"Santo Rosario","zip":4412,"role":"trainer"},{"hours":37,"wage":2733,"qualification":"Fitness Trainer","svnr":3619158679,"street":"Sauthoff","city":"La Esperanza","zip":9281,"role":"trainer"},{"hours":17,"wage":1761,"qualification":"Personal Trainer","svnr":9927009021,"street":"Ruskin","city":"Shuidong","zip":3219,"role":"trainer"},{"hours":10,"wage":2372,"qualification":"Functional Strength Trainer","svnr":5252590761,"street":"Mockingbird","city":"Klwów","zip":7579,"role":"trainer"},{"hours":39,"wage":3049,"qualification":"Functional Strength Trainer","svnr":2426744001,"street":"Manufacturers","city":"Beicang","zip":4721,"role":"trainer"},{"hours":34,"wage":3409,"qualification":"Functional Strength Trainer","svnr":8168092942,"street":"Forest Run","city":"Pangawaren","zip":8832,"role":"trainer"},{"hours":11,"wage":2826,"qualification":"Pilates Trainer","svnr":4382224323,"street":"Lakewood","city":"Nagbukel","zip":9359,"role":"trainer"},{"hours":38,"wage":4968,"qualification":"Personal Trainer","svnr":7298423589,"street":"Autumn Leaf","city":"Itacarambi","zip":1178,"role":"trainer"},{"hours":34,"wage":3070,"qualification":"Yoga Trainer","svnr":1815152848,"street":"Ludington","city":"Kisesa","zip":6251,"role":"trainer"},{"hours":33,"wage":2318,"qualification":"Yoga Trainer","svnr":2005205952,"street":"Forest Dale","city":"Las Lajas","zip":9820,"role":"trainer"},{"hours":27,"wage":1074,"qualification":"Personal Trainer","svnr":7968046452,"street":"Harper","city":"Santo Rosario","zip":4412,"role":"trainer"},{"hours":39,"wage":3867,"qualification":"Personal Trainer","svnr":3894188425,"street":"Sauthoff","city":"La Esperanza","zip":9281,"role":"trainer"},{"hours":26,"wage":3406,"qualification":"Pilates Trainer","svnr":8008242188,"street":"Ruskin","city":"Shuidong","zip":3219,"role":"trainer"},{"hours":33,"wage":2122,"qualification":"Functional Strength Trainer","svnr":4114881912,"street":"Mockingbird","city":"Klwów","zip":7579,"role":"trainer"},{"hours":11,"wage":1290,"qualification":"Functional Strength Trainer","svnr":3413565708,"street":"Manufacturers","city":"Beicang","zip":4721,"role":"trainer"},{"hours":37,"wage":4600,"qualification":"Pilates Trainer","svnr":1753688129,"street":"Forest Run","city":"Pangawaren","zip":8832,"role":"trainer"},{"hours":24,"wage":1342,"qualification":"Personal Trainer","svnr":7085666736,"street":"Lakewood","city":"Nagbukel","zip":9359,"role":"trainer"},{"hours":28,"wage":1478,"qualification":"Functional Strength Trainer","svnr":3834848959,"street":"Autumn Leaf","city":"Itacarambi","zip":1178,"role":"trainer"},{"hours":35,"wage":1839,"qualification":"Fitness Trainer","svnr":3994323116,"street":"Ludington","city":"Kisesa","zip":6251,"role":"trainer"},{"hours":14,"wage":1912,"qualification":"Functional Strength Trainer","svnr":5133939561,"street":"Forest Dale","city":"Las Lajas","zip":9820,"role":"trainer"},{"hours":24,"wage":2901,"qualification":"Yoga Trainer","svnr":4541294778,"street":"Harper","city":"Santo Rosario","zip":4412,"role":"trainer"},{"hours":11,"wage":3556,"qualification":"Functional Strength Trainer","svnr":7365702236,"street":"Sauthoff","city":"La Esperanza","zip":9281,"role":"trainer"},{"hours":30,"wage":3630,"qualification":"Pilates Trainer","svnr":1802979969,"street":"Ruskin","city":"Shuidong","zip":3219,"role":"trainer"},{"hours":34,"wage":2951,"qualification":"Fitness Trainer","svnr":9110547589,"street":"Mockingbird","city":"Klwów","zip":7579,"role":"trainer"}]