[{"street":"Manufacturers","city":"Beicang","zip":4721,"roomNumber":1,"name":"Spinning Room","interior":"Spinning bikes"},
{"street":"Forest Run","city":"Pangawaren","zip":8832,"roomNumber":1,"name":"Spinning Room","interior":"Spinning bikes"},
{"street":"Lakewood","city":"Nagbukel","zip":9359,"roomNumber":1,"name":"Spinning Room","interior":"Spinning bikes"},
{"street":"Autumn Leaf","city":"Itacarambi","zip":1178,"roomNumber":1,"name":"Spinning Room","interior":"Spinning bikes"},
{"street":"Ludington","city":"Kisesa","zip":6251,"roomNumber":1,"name":"Spinning Room","interior":"Spinning bikes"},
{"street":"Forest Dale","city":"Las Lajas","zip":9820,"roomNumber":1,"name":"Spinning Room","interior":"Spinning bikes"},
{"street":"Harper","city":"Santo Rosario","zip":4412,"roomNumber":1,"name":"Spinning Room","interior":"Spinning bikes"},
{"street":"Sauthoff","city":"La Esperanza","zip":9281,"roomNumber":1,"name":"Spinning Room","interior":"Spinning bikes"},
{"street":"Ruskin","city":"Shuidong","zip":3219,"roomNumber":1,"name":"Spinning Room","interior":"Spinning bikes"},
{"street":"Mockingbird","city":"Klw√≥w","zip":7579,"roomNumber":1,"name":"Spinning Room","interior":"Spinning bikes"}]
