[{"street":"Manufacturers","city":"Beicang","zip":4721,"svnr":4084445590},{"street":"Forest Run","city":"Pangawaren","zip":8832,"svnr":7209342797},{"street":"Lakewood","city":"Nagbukel","zip":9359,"svnr":5240645647},{"street":"Autumn Leaf","city":"Itacarambi","zip":1178,"svnr":4084445590},{"street":"Ludington","city":"Kisesa","zip":6251,"svnr":1757721053},{"street":"Forest Dale","city":"Las Lajas","zip":9820,"svnr":9036503848},{"street":"Harper","city":"Santo Rosario","zip":4412,"svnr":3763533987},{"street":"Sauthoff","city":"La Esperanza","zip":9281,"svnr":3557040112},{"street":"Ruskin","city":"Shuidong","zip":3219,"svnr":1243433583},{"street":"Mockingbird","city":"Klwów","zip":7579,"svnr":1991659361},{"street":"Manufacturers","city":"Beicang","zip":4721,"svnr":1577642542},{"street":"Forest Run","city":"Pangawaren","zip":8832,"svnr":5858515856},{"street":"Lakewood","city":"Nagbukel","zip":9359,"svnr":8035288912},{"street":"Autumn Leaf","city":"Itacarambi","zip":1178,"svnr":6626236450},{"street":"Ludington","city":"Kisesa","zip":6251,"svnr":8340024150},{"street":"Forest Dale","city":"Las Lajas","zip":9820,"svnr":4970305326},{"street":"Harper","city":"Santo Rosario","zip":4412,"svnr":7054187618},{"street":"Sauthoff","city":"La Esperanza","zip":9281,"svnr":3840233634},{"street":"Ruskin","city":"Shuidong","zip":3219,"svnr":8981079499},{"street":"Mockingbird","city":"Klwów","zip":7579,"svnr":8949042914},{"street":"Manufacturers","city":"Beicang","zip":4721,"svnr":2277415045},{"street":"Forest Run","city":"Pangawaren","zip":8832,"svnr":5317033095},{"street":"Lakewood","city":"Nagbukel","zip":9359,"svnr":3831156679},{"street":"Autumn Leaf","city":"Itacarambi","zip":1178,"svnr":4613179826},{"street":"Ludington","city":"Kisesa","zip":6251,"svnr":8724523295},{"street":"Forest Dale","city":"Las Lajas","zip":9820,"svnr":4210392161},{"street":"Harper","city":"Santo Rosario","zip":4412,"svnr":8424365646},{"street":"Sauthoff","city":"La Esperanza","zip":9281,"svnr":2694477705},{"street":"Ruskin","city":"Shuidong","zip":3219,"svnr":7884199384},{"street":"Mockingbird","city":"Klwów","zip":7579,"svnr":6348010578},{"street":"Manufacturers","city":"Beicang","zip":4721,"svnr":7239763093},{"street":"Forest Run","city":"Pangawaren","zip":8832,"svnr":9894468657},{"street":"Lakewood","city":"Nagbukel","zip":9359,"svnr":2266661035},{"street":"Autumn Leaf","city":"Itacarambi","zip":1178,"svnr":8565889579},{"street":"Ludington","city":"Kisesa","zip":6251,"svnr":3343359106},{"street":"Forest Dale","city":"Las Lajas","zip":9820,"svnr":7056411304},{"street":"Harper","city":"Santo Rosario","zip":4412,"svnr":7155083263},{"street":"Sauthoff","city":"La Esperanza","zip":9281,"svnr":2572138667},{"street":"Ruskin","city":"Shuidong","zip":3219,"svnr":8594128765},{"street":"Mockingbird","city":"Klwów","zip":7579,"svnr":3997274857},{"street":"Manufacturers","city":"Beicang","zip":4721,"svnr":1599412151},{"street":"Forest Run","city":"Pangawaren","zip":8832,"svnr":5837822298},{"street":"Lakewood","city":"Nagbukel","zip":9359,"svnr":5252701574},{"street":"Autumn Leaf","city":"Itacarambi","zip":1178,"svnr":3766352788},{"street":"Ludington","city":"Kisesa","zip":6251,"svnr":5673202882},{"street":"Forest Dale","city":"Las Lajas","zip":9820,"svnr":6290414048},{"street":"Harper","city":"Santo Rosario","zip":4412,"svnr":3542562022},{"street":"Sauthoff","city":"La Esperanza","zip":9281,"svnr":4824946967},{"street":"Ruskin","city":"Shuidong","zip":3219,"svnr":8741465415},{"street":"Mockingbird","city":"Klwów","zip":7579,"svnr":7700538802},{"street":"Manufacturers","city":"Beicang","zip":4721,"svnr":1304182851},{"street":"Forest Run","city":"Pangawaren","zip":8832,"svnr":2666736461},{"street":"Lakewood","city":"Nagbukel","zip":9359,"svnr":6183430973},{"street":"Autumn Leaf","city":"Itacarambi","zip":1178,"svnr":9250903942},{"street":"Ludington","city":"Kisesa","zip":6251,"svnr":9647170515},{"street":"Forest Dale","city":"Las Lajas","zip":9820,"svnr":4269284048},{"street":"Harper","city":"Santo Rosario","zip":4412,"svnr":5898009912},{"street":"Sauthoff","city":"La Esperanza","zip":9281,"svnr":4912867705},{"street":"Ruskin","city":"Shuidong","zip":3219,"svnr":5436521972},{"street":"Mockingbird","city":"Klwów","zip":7579,"svnr":9982813250},{"street":"Manufacturers","city":"Beicang","zip":4721,"svnr":1880877036},{"street":"Forest Run","city":"Pangawaren","zip":8832,"svnr":4772104885},{"street":"Lakewood","city":"Nagbukel","zip":9359,"svnr":8149518554},{"street":"Autumn Leaf","city":"Itacarambi","zip":1178,"svnr":9912616695},{"street":"Ludington","city":"Kisesa","zip":6251,"svnr":4153949836},{"street":"Forest Dale","city":"Las Lajas","zip":9820,"svnr":3557040112},{"street":"Harper","city":"Santo Rosario","zip":4412,"svnr":2369597398},{"street":"Sauthoff","city":"La Esperanza","zip":9281,"svnr":8895163268},{"street":"Ruskin","city":"Shuidong","zip":3219,"svnr":8439106183},{"street":"Mockingbird","city":"Klwów","zip":7579,"svnr":8183942720},{"street":"Manufacturers","city":"Beicang","zip":4721,"svnr":8217523348},{"street":"Forest Run","city":"Pangawaren","zip":8832,"svnr":7205405306},{"street":"Lakewood","city":"Nagbukel","zip":9359,"svnr":1099547534},{"street":"Autumn Leaf","city":"Itacarambi","zip":1178,"svnr":2481358945},{"street":"Ludington","city":"Kisesa","zip":6251,"svnr":8593486887},{"street":"Forest Dale","city":"Las Lajas","zip":9820,"svnr":8957936226},{"street":"Harper","city":"Santo Rosario","zip":4412,"svnr":2666754664},{"street":"Sauthoff","city":"La Esperanza","zip":9281,"svnr":3764750245},{"street":"Ruskin","city":"Shuidong","zip":3219,"svnr":7863952329},{"street":"Mockingbird","city":"Klwów","zip":7579,"svnr":9278505788},{"street":"Manufacturers","city":"Beicang","zip":4721,"svnr":6778997430},{"street":"Forest Run","city":"Pangawaren","zip":8832,"svnr":9091297661},{"street":"Lakewood","city":"Nagbukel","zip":9359,"svnr":5887467054},{"street":"Autumn Leaf","city":"Itacarambi","zip":1178,"svnr":2613051397},{"street":"Ludington","city":"Kisesa","zip":6251,"svnr":7964715779},{"street":"Forest Dale","city":"Las Lajas","zip":9820,"svnr":5141172486},{"street":"Harper","city":"Santo Rosario","zip":4412,"svnr":4995095508},{"street":"Sauthoff","city":"La Esperanza","zip":9281,"svnr":1577642542},{"street":"Ruskin","city":"Shuidong","zip":3219,"svnr":7715626751},{"street":"Mockingbird","city":"Klwów","zip":7579,"svnr":2720358720},{"street":"Manufacturers","city":"Beicang","zip":4721,"svnr":8360546729},{"street":"Forest Run","city":"Pangawaren","zip":8832,"svnr":9921869825},{"street":"Lakewood","city":"Nagbukel","zip":9359,"svnr":1056080306},{"street":"Autumn Leaf","city":"Itacarambi","zip":1178,"svnr":6801978924},{"street":"Ludington","city":"Kisesa","zip":6251,"svnr":8105311783},{"street":"Forest Dale","city":"Las Lajas","zip":9820,"svnr":3782529615},{"street":"Harper","city":"Santo Rosario","zip":4412,"svnr":4096267226},{"street":"Sauthoff","city":"La Esperanza","zip":9281,"svnr":1491638537},{"street":"Ruskin","city":"Shuidong","zip":3219,"svnr":5785277506},{"street":"Mockingbird","city":"Klwów","zip":7579,"svnr":4485474593},{"street":"Manufacturers","city":"Beicang","zip":4721,"svnr":3280362040},{"street":"Forest Run","city":"Pangawaren","zip":8832,"svnr":2315033508},{"street":"Lakewood","city":"Nagbukel","zip":9359,"svnr":5601845619},{"street":"Autumn Leaf","city":"Itacarambi","zip":1178,"svnr":5529385830},{"street":"Ludington","city":"Kisesa","zip":6251,"svnr":5665788140},{"street":"Forest Dale","city":"Las Lajas","zip":9820,"svnr":7262939591},{"street":"Harper","city":"Santo Rosario","zip":4412,"svnr":9073444877},{"street":"Sauthoff","city":"La Esperanza","zip":9281,"svnr":1378377498},{"street":"Ruskin","city":"Shuidong","zip":3219,"svnr":9842749039},{"street":"Mockingbird","city":"Klwów","zip":7579,"svnr":8625765531},{"street":"Manufacturers","city":"Beicang","zip":4721,"svnr":9789599882},{"street":"Forest Run","city":"Pangawaren","zip":8832,"svnr":5109250715},{"street":"Lakewood","city":"Nagbukel","zip":9359,"svnr":1082730050},{"street":"Autumn Leaf","city":"Itacarambi","zip":1178,"svnr":4691134478},{"street":"Ludington","city":"Kisesa","zip":6251,"svnr":1617578731},{"street":"Forest Dale","city":"Las Lajas","zip":9820,"svnr":9722987056},{"street":"Harper","city":"Santo Rosario","zip":4412,"svnr":8992437325},{"street":"Sauthoff","city":"La Esperanza","zip":9281,"svnr":3564984026},{"street":"Ruskin","city":"Shuidong","zip":3219,"svnr":1079035411},{"street":"Mockingbird","city":"Klwów","zip":7579,"svnr":5185854462},{"street":"Manufacturers","city":"Beicang","zip":4721,"svnr":6029933153},{"street":"Forest Run","city":"Pangawaren","zip":8832,"svnr":1389017967},{"street":"Lakewood","city":"Nagbukel","zip":9359,"svnr":8624014022},{"street":"Autumn Leaf","city":"Itacarambi","zip":1178,"svnr":5989897789},{"street":"Ludington","city":"Kisesa","zip":6251,"svnr":6417686955},{"street":"Forest Dale","city":"Las Lajas","zip":9820,"svnr":1185303848},{"street":"Harper","city":"Santo Rosario","zip":4412,"svnr":6133713328},{"street":"Sauthoff","city":"La Esperanza","zip":9281,"svnr":1093850606},{"street":"Ruskin","city":"Shuidong","zip":3219,"svnr":3669939598},{"street":"Mockingbird","city":"Klwów","zip":7579,"svnr":7466734245},{"street":"Manufacturers","city":"Beicang","zip":4721,"svnr":8593486887},{"street":"Forest Run","city":"Pangawaren","zip":8832,"svnr":2093492502},{"street":"Lakewood","city":"Nagbukel","zip":9359,"svnr":4342793611},{"street":"Autumn Leaf","city":"Itacarambi","zip":1178,"svnr":6283849324},{"street":"Ludington","city":"Kisesa","zip":6251,"svnr":2639687207},{"street":"Forest Dale","city":"Las Lajas","zip":9820,"svnr":4898801076},{"street":"Harper","city":"Santo Rosario","zip":4412,"svnr":8011317395},{"street":"Sauthoff","city":"La Esperanza","zip":9281,"svnr":9240476130},{"street":"Ruskin","city":"Shuidong","zip":3219,"svnr":7511774690},{"street":"Mockingbird","city":"Klwów","zip":7579,"svnr":1973925955},{"street":"Manufacturers","city":"Beicang","zip":4721,"svnr":7932381743},{"street":"Forest Run","city":"Pangawaren","zip":8832,"svnr":3065975848},{"street":"Lakewood","city":"Nagbukel","zip":9359,"svnr":4829848895},{"street":"Autumn Leaf","city":"Itacarambi","zip":1178,"svnr":4649094525},{"street":"Ludington","city":"Kisesa","zip":6251,"svnr":9324900062},{"street":"Forest Dale","city":"Las Lajas","zip":9820,"svnr":4111007771},{"street":"Harper","city":"Santo Rosario","zip":4412,"svnr":3679845741},{"street":"Sauthoff","city":"La Esperanza","zip":9281,"svnr":6901537291},{"street":"Ruskin","city":"Shuidong","zip":3219,"svnr":7012695888},{"street":"Mockingbird","city":"Klwów","zip":7579,"svnr":2397088614},{"street":"Manufacturers","city":"Beicang","zip":4721,"svnr":8181704842},{"street":"Forest Run","city":"Pangawaren","zip":8832,"svnr":6527247440},{"street":"Lakewood","city":"Nagbukel","zip":9359,"svnr":7258890952},{"street":"Autumn Leaf","city":"Itacarambi","zip":1178,"svnr":4111380581},{"street":"Ludington","city":"Kisesa","zip":6251,"svnr":1460078582},{"street":"Forest Dale","city":"Las Lajas","zip":9820,"svnr":9625892987},{"street":"Harper","city":"Santo Rosario","zip":4412,"svnr":2891296931},{"street":"Sauthoff","city":"La Esperanza","zip":9281,"svnr":2984168681},{"street":"Ruskin","city":"Shuidong","zip":3219,"svnr":8431034487},{"street":"Mockingbird","city":"Klwów","zip":7579,"svnr":7917114752},{"street":"Manufacturers","city":"Beicang","zip":4721,"svnr":8475158888},{"street":"Forest Run","city":"Pangawaren","zip":8832,"svnr":9625892987},{"street":"Lakewood","city":"Nagbukel","zip":9359,"svnr":7256067870},{"street":"Autumn Leaf","city":"Itacarambi","zip":1178,"svnr":3432966071},{"street":"Ludington","city":"Kisesa","zip":6251,"svnr":7306066225},{"street":"Forest Dale","city":"Las Lajas","zip":9820,"svnr":4661891800},{"street":"Harper","city":"Santo Rosario","zip":4412,"svnr":7185479884},{"street":"Sauthoff","city":"La Esperanza","zip":9281,"svnr":5623530908},{"street":"Ruskin","city":"Shuidong","zip":3219,"svnr":9457750470},{"street":"Mockingbird","city":"Klwów","zip":7579,"svnr":2481358945},{"street":"Manufacturers","city":"Beicang","zip":4721,"svnr":6266545843},{"street":"Forest Run","city":"Pangawaren","zip":8832,"svnr":7692775044},{"street":"Lakewood","city":"Nagbukel","zip":9359,"svnr":1060498290},{"street":"Autumn Leaf","city":"Itacarambi","zip":1178,"svnr":5109614131},{"street":"Ludington","city":"Kisesa","zip":6251,"svnr":4793223845},{"street":"Forest Dale","city":"Las Lajas","zip":9820,"svnr":2167726917},{"street":"Harper","city":"Santo Rosario","zip":4412,"svnr":4061453602},{"street":"Sauthoff","city":"La Esperanza","zip":9281,"svnr":9038507715},{"street":"Ruskin","city":"Shuidong","zip":3219,"svnr":5372090301},{"street":"Mockingbird","city":"Klwów","zip":7579,"svnr":5784746362},{"street":"Manufacturers","city":"Beicang","zip":4721,"svnr":2354967938},{"street":"Forest Run","city":"Pangawaren","zip":8832,"svnr":7014654617},{"street":"Lakewood","city":"Nagbukel","zip":9359,"svnr":3125806051},{"street":"Autumn Leaf","city":"Itacarambi","zip":1178,"svnr":1502297382},{"street":"Ludington","city":"Kisesa","zip":6251,"svnr":2283676772},{"street":"Forest Dale","city":"Las Lajas","zip":9820,"svnr":2381320197},{"street":"Harper","city":"Santo Rosario","zip":4412,"svnr":2156215807},{"street":"Sauthoff","city":"La Esperanza","zip":9281,"svnr":1640685106},{"street":"Ruskin","city":"Shuidong","zip":3219,"svnr":2195598899},{"street":"Mockingbird","city":"Klwów","zip":7579,"svnr":6998177364},{"street":"Manufacturers","city":"Beicang","zip":4721,"svnr":8431034487},{"street":"Forest Run","city":"Pangawaren","zip":8832,"svnr":3592917795},{"street":"Lakewood","city":"Nagbukel","zip":9359,"svnr":1729676769},{"street":"Autumn Leaf","city":"Itacarambi","zip":1178,"svnr":7887904503},{"street":"Ludington","city":"Kisesa","zip":6251,"svnr":3391551462},{"street":"Harper","city":"Santo Rosario","zip":4412,"svnr":2906356928},{"street":"Sauthoff","city":"La Esperanza","zip":9281,"svnr":5416549518},{"street":"Ruskin","city":"Shuidong","zip":3219,"svnr":7746554012},{"street":"Mockingbird","city":"Klwów","zip":7579,"svnr":3669939598},{"street":"Manufacturers","city":"Beicang","zip":4721,"svnr":6319442779},{"street":"Forest Run","city":"Pangawaren","zip":8832,"svnr":7834555550},{"street":"Lakewood","city":"Nagbukel","zip":9359,"svnr":2901035495},{"street":"Autumn Leaf","city":"Itacarambi","zip":1178,"svnr":5629524805},{"street":"Ludington","city":"Kisesa","zip":6251,"svnr":9213379213},{"street":"Forest Dale","city":"Las Lajas","zip":9820,"svnr":1000835662},{"street":"Harper","city":"Santo Rosario","zip":4412,"svnr":7192752132},{"street":"Sauthoff","city":"La Esperanza","zip":9281,"svnr":6030731848},{"street":"Ruskin","city":"Shuidong","zip":3219,"svnr":9825174633},{"street":"Mockingbird","city":"Klwów","zip":7579,"svnr":4730005323},{"street":"Manufacturers","city":"Beicang","zip":4721,"svnr":4425429705},{"street":"Forest Run","city":"Pangawaren","zip":8832,"svnr":9052273611},{"street":"Lakewood","city":"Nagbukel","zip":9359,"svnr":4425429705},{"street":"Autumn Leaf","city":"Itacarambi","zip":1178,"svnr":8475158888},{"street":"Ludington","city":"Kisesa","zip":6251,"svnr":7754710996},{"street":"Forest Dale","city":"Las Lajas","zip":9820,"svnr":5141024805},{"street":"Harper","city":"Santo Rosario","zip":4412,"svnr":2378180514},{"street":"Sauthoff","city":"La Esperanza","zip":9281,"svnr":6772478740},{"street":"Ruskin","city":"Shuidong","zip":3219,"svnr":5350752458},{"street":"Mockingbird","city":"Klwów","zip":7579,"svnr":9154972050},{"street":"Manufacturers","city":"Beicang","zip":4721,"svnr":3999322804},{"street":"Forest Run","city":"Pangawaren","zip":8832,"svnr":2099072966},{"street":"Lakewood","city":"Nagbukel","zip":9359,"svnr":5272095221},{"street":"Autumn Leaf","city":"Itacarambi","zip":1178,"svnr":5582214725},{"street":"Ludington","city":"Kisesa","zip":6251,"svnr":3186869332},{"street":"Forest Dale","city":"Las Lajas","zip":9820,"svnr":7012203631},{"street":"Harper","city":"Santo Rosario","zip":4412,"svnr":4485474593},{"street":"Sauthoff","city":"La Esperanza","zip":9281,"svnr":6298831467},{"street":"Ruskin","city":"Shuidong","zip":3219,"svnr":6500381058},{"street":"Mockingbird","city":"Klwów","zip":7579,"svnr":9324900062},{"street":"Manufacturers","city":"Beicang","zip":4721,"svnr":8306722264},{"street":"Forest Run","city":"Pangawaren","zip":8832,"svnr":4052581378},{"street":"Autumn Leaf","city":"Itacarambi","zip":1178,"svnr":1153002887},{"street":"Ludington","city":"Kisesa","zip":6251,"svnr":9933070078},{"street":"Forest Dale","city":"Las Lajas","zip":9820,"svnr":1436670717},{"street":"Harper","city":"Santo Rosario","zip":4412,"svnr":8264011437},{"street":"Sauthoff","city":"La Esperanza","zip":9281,"svnr":3069705100},{"street":"Ruskin","city":"Shuidong","zip":3219,"svnr":3264740786},{"street":"Mockingbird","city":"Klwów","zip":7579,"svnr":1828378686},{"street":"Manufacturers","city":"Beicang","zip":4721,"svnr":2481358945},{"street":"Forest Run","city":"Pangawaren","zip":8832,"svnr":9036503848},{"street":"Lakewood","city":"Nagbukel","zip":9359,"svnr":7986121689},{"street":"Autumn Leaf","city":"Itacarambi","zip":1178,"svnr":4147015565},{"street":"Ludington","city":"Kisesa","zip":6251,"svnr":8511990291},{"street":"Forest Dale","city":"Las Lajas","zip":9820,"svnr":3442065671},{"street":"Harper","city":"Santo Rosario","zip":4412,"svnr":4298294430},{"street":"Sauthoff","city":"La Esperanza","zip":9281,"svnr":2962401879},{"street":"Ruskin","city":"Shuidong","zip":3219,"svnr":2869506988},{"street":"Mockingbird","city":"Klwów","zip":7579,"svnr":6271163383},{"street":"Manufacturers","city":"Beicang","zip":4721,"svnr":4898801076},{"street":"Forest Run","city":"Pangawaren","zip":8832,"svnr":3132261476},{"street":"Lakewood","city":"Nagbukel","zip":9359,"svnr":7475024330},{"street":"Autumn Leaf","city":"Itacarambi","zip":1178,"svnr":6396026187},{"street":"Ludington","city":"Kisesa","zip":6251,"svnr":5584906944},{"street":"Forest Dale","city":"Las Lajas","zip":9820,"svnr":5417654583},{"street":"Harper","city":"Santo Rosario","zip":4412,"svnr":5681024204},{"street":"Sauthoff","city":"La Esperanza","zip":9281,"svnr":1989095682},{"street":"Ruskin","city":"Shuidong","zip":3219,"svnr":3614575863},{"street":"Mockingbird","city":"Klwów","zip":7579,"svnr":5213788807},{"street":"Manufacturers","city":"Beicang","zip":4721,"svnr":8357019868},{"street":"Forest Run","city":"Pangawaren","zip":8832,"svnr":2720358720},{"street":"Lakewood","city":"Nagbukel","zip":9359,"svnr":2447278371},{"street":"Autumn Leaf","city":"Itacarambi","zip":1178,"svnr":4661891800},{"street":"Ludington","city":"Kisesa","zip":6251,"svnr":3085754979},{"street":"Forest Dale","city":"Las Lajas","zip":9820,"svnr":6251253132},{"street":"Harper","city":"Santo Rosario","zip":4412,"svnr":4855616815},{"street":"Sauthoff","city":"La Esperanza","zip":9281,"svnr":5584906944},{"street":"Ruskin","city":"Shuidong","zip":3219,"svnr":8014795360},{"street":"Mockingbird","city":"Klwów","zip":7579,"svnr":4768638109},{"street":"Forest Run","city":"Pangawaren","zip":8832,"svnr":8516507652},{"street":"Lakewood","city":"Nagbukel","zip":9359,"svnr":3280362040},{"street":"Autumn Leaf","city":"Itacarambi","zip":1178,"svnr":9114190364},{"street":"Ludington","city":"Kisesa","zip":6251,"svnr":6200380167},{"street":"Forest Dale","city":"Las Lajas","zip":9820,"svnr":5756238271},{"street":"Harper","city":"Santo Rosario","zip":4412,"svnr":8132102964},{"street":"Sauthoff","city":"La Esperanza","zip":9281,"svnr":8086310009},{"street":"Ruskin","city":"Shuidong","zip":3219,"svnr":6928829415},{"street":"Mockingbird","city":"Klwów","zip":7579,"svnr":3798949471},{"street":"Manufacturers","city":"Beicang","zip":4721,"svnr":9858566819},{"street":"Forest Run","city":"Pangawaren","zip":8832,"svnr":6667119108},{"street":"Lakewood","city":"Nagbukel","zip":9359,"svnr":1127137836},{"street":"Autumn Leaf","city":"Itacarambi","zip":1178,"svnr":8424056772},{"street":"Ludington","city":"Kisesa","zip":6251,"svnr":8632461235},{"street":"Forest Dale","city":"Las Lajas","zip":9820,"svnr":8474641705},{"street":"Harper","city":"Santo Rosario","zip":4412,"svnr":7607252404},{"street":"Sauthoff","city":"La Esperanza","zip":9281,"svnr":2168234286},{"street":"Ruskin","city":"Shuidong","zip":3219,"svnr":1465086439},{"street":"Mockingbird","city":"Klwów","zip":7579,"svnr":9707546460},{"street":"Manufacturers","city":"Beicang","zip":4721,"svnr":3679845741},{"street":"Forest Run","city":"Pangawaren","zip":8832,"svnr":6271769933},{"street":"Lakewood","city":"Nagbukel","zip":9359,"svnr":3840233634},{"street":"Autumn Leaf","city":"Itacarambi","zip":1178,"svnr":2195598899},{"street":"Ludington","city":"Kisesa","zip":6251,"svnr":4378504500},{"street":"Forest Dale","city":"Las Lajas","zip":9820,"svnr":2284604093},{"street":"Harper","city":"Santo Rosario","zip":4412,"svnr":2866242366},{"street":"Sauthoff","city":"La Esperanza","zip":9281,"svnr":9495742981},{"street":"Ruskin","city":"Shuidong","zip":3219,"svnr":9465950855},{"street":"Mockingbird","city":"Klwów","zip":7579,"svnr":6385514929},{"street":"Manufacturers","city":"Beicang","zip":4721,"svnr":7727424076},{"street":"Forest Run","city":"Pangawaren","zip":8832,"svnr":6748789426},{"street":"Lakewood","city":"Nagbukel","zip":9359,"svnr":3259909905},{"street":"Autumn Leaf","city":"Itacarambi","zip":1178,"svnr":5333073988},{"street":"Ludington","city":"Kisesa","zip":6251,"svnr":5623530908},{"street":"Forest Dale","city":"Las Lajas","zip":9820,"svnr":2562743209},{"street":"Harper","city":"Santo Rosario","zip":4412,"svnr":7449723166},{"street":"Sauthoff","city":"La Esperanza","zip":9281,"svnr":9942554804},{"street":"Ruskin","city":"Shuidong","zip":3219,"svnr":5873954441},{"street":"Mockingbird","city":"Klwów","zip":7579,"svnr":7007220741},{"street":"Manufacturers","city":"Beicang","zip":4721,"svnr":3742276304},{"street":"Forest Run","city":"Pangawaren","zip":8832,"svnr":2937739981},{"street":"Lakewood","city":"Nagbukel","zip":9359,"svnr":8041282085},{"street":"Autumn Leaf","city":"Itacarambi","zip":1178,"svnr":7912384686},{"street":"Ludington","city":"Kisesa","zip":6251,"svnr":8011317395},{"street":"Forest Dale","city":"Las Lajas","zip":9820,"svnr":9283136274},{"street":"Harper","city":"Santo Rosario","zip":4412,"svnr":4568591142},{"street":"Sauthoff","city":"La Esperanza","zip":9281,"svnr":6668790416},{"street":"Ruskin","city":"Shuidong","zip":3219,"svnr":8041282085},{"street":"Mockingbird","city":"Klwów","zip":7579,"svnr":3679845741},{"street":"Manufacturers","city":"Beicang","zip":4721,"svnr":4850349152},{"street":"Forest Run","city":"Pangawaren","zip":8832,"svnr":8784187762},{"street":"Lakewood","city":"Nagbukel","zip":9359,"svnr":5815016599},{"street":"Autumn Leaf","city":"Itacarambi","zip":1178,"svnr":5116575796},{"street":"Ludington","city":"Kisesa","zip":6251,"svnr":6667045486},{"street":"Forest Dale","city":"Las Lajas","zip":9820,"svnr":5082518518},{"street":"Harper","city":"Santo Rosario","zip":4412,"svnr":8081470981},{"street":"Sauthoff","city":"La Esperanza","zip":9281,"svnr":7256067870},{"street":"Ruskin","city":"Shuidong","zip":3219,"svnr":3540508726},{"street":"Mockingbird","city":"Klwów","zip":7579,"svnr":3466833815},{"street":"Manufacturers","city":"Beicang","zip":4721,"svnr":8264011437},{"street":"Forest Run","city":"Pangawaren","zip":8832,"svnr":7107784034},{"street":"Lakewood","city":"Nagbukel","zip":9359,"svnr":7491165957},{"street":"Autumn Leaf","city":"Itacarambi","zip":1178,"svnr":5372090301},{"street":"Ludington","city":"Kisesa","zip":6251,"svnr":1020850280},{"street":"Forest Dale","city":"Las Lajas","zip":9820,"svnr":2397088614},{"street":"Harper","city":"Santo Rosario","zip":4412,"svnr":5422261384},{"street":"Sauthoff","city":"La Esperanza","zip":9281,"svnr":5472902117},{"street":"Ruskin","city":"Shuidong","zip":3219,"svnr":2898934923},{"street":"Mockingbird","city":"Klwów","zip":7579,"svnr":9842749039},{"street":"Manufacturers","city":"Beicang","zip":4721,"svnr":4517801414},{"street":"Forest Run","city":"Pangawaren","zip":8832,"svnr":1116241069},{"street":"Lakewood","city":"Nagbukel","zip":9359,"svnr":1443992714},{"street":"Autumn Leaf","city":"Itacarambi","zip":1178,"svnr":4568591142},{"street":"Ludington","city":"Kisesa","zip":6251,"svnr":6801978924},{"street":"Forest Dale","city":"Las Lajas","zip":9820,"svnr":3999322804},{"street":"Harper","city":"Santo Rosario","zip":4412,"svnr":2467777372},{"street":"Sauthoff","city":"La Esperanza","zip":9281,"svnr":6385514929},{"street":"Ruskin","city":"Shuidong","zip":3219,"svnr":8357019868},{"street":"Mockingbird","city":"Klwów","zip":7579,"svnr":5194828264},{"street":"Manufacturers","city":"Beicang","zip":4721,"svnr":9283136274},{"street":"Forest Run","city":"Pangawaren","zip":8832,"svnr":7641506231},{"street":"Lakewood","city":"Nagbukel","zip":9359,"svnr":9714743434},{"street":"Autumn Leaf","city":"Itacarambi","zip":1178,"svnr":8944864901},{"street":"Ludington","city":"Kisesa","zip":6251,"svnr":3592917795},{"street":"Forest Dale","city":"Las Lajas","zip":9820,"svnr":5553321323},{"street":"Harper","city":"Santo Rosario","zip":4412,"svnr":8211789101},{"street":"Sauthoff","city":"La Esperanza","zip":9281,"svnr":2585429171},{"street":"Ruskin","city":"Shuidong","zip":3219,"svnr":3397318458},{"street":"Mockingbird","city":"Klwów","zip":7579,"svnr":7443682045},{"street":"Manufacturers","city":"Beicang","zip":4721,"svnr":1367120677},{"street":"Forest Run","city":"Pangawaren","zip":8832,"svnr":5999309970},{"street":"Autumn Leaf","city":"Itacarambi","zip":1178,"svnr":1391492874},{"street":"Ludington","city":"Kisesa","zip":6251,"svnr":8264011437},{"street":"Forest Dale","city":"Las Lajas","zip":9820,"svnr":2002722668},{"street":"Harper","city":"Santo Rosario","zip":4412,"svnr":8562243895},{"street":"Sauthoff","city":"La Esperanza","zip":9281,"svnr":6416745101},{"street":"Ruskin","city":"Shuidong","zip":3219,"svnr":3564984026},{"street":"Mockingbird","city":"Klwów","zip":7579,"svnr":2962401879},{"street":"Manufacturers","city":"Beicang","zip":4721,"svnr":3669939598},{"street":"Forest Run","city":"Pangawaren","zip":8832,"svnr":2447278371},{"street":"Lakewood","city":"Nagbukel","zip":9359,"svnr":1571259602},{"street":"Autumn Leaf","city":"Itacarambi","zip":1178,"svnr":9359009187},{"street":"Ludington","city":"Kisesa","zip":6251,"svnr":5109614131},{"street":"Forest Dale","city":"Las Lajas","zip":9820,"svnr":6920632560},{"street":"Harper","city":"Santo Rosario","zip":4412,"svnr":5914718834},{"street":"Sauthoff","city":"La Esperanza","zip":9281,"svnr":7535587535},{"street":"Ruskin","city":"Shuidong","zip":3219,"svnr":6051296787},{"street":"Mockingbird","city":"Klwów","zip":7579,"svnr":1592877654},{"street":"Manufacturers","city":"Beicang","zip":4721,"svnr":8883152981},{"street":"Forest Run","city":"Pangawaren","zip":8832,"svnr":2755655932},{"street":"Autumn Leaf","city":"Itacarambi","zip":1178,"svnr":8485671917},{"street":"Ludington","city":"Kisesa","zip":6251,"svnr":8211789101},{"street":"Forest Dale","city":"Las Lajas","zip":9820,"svnr":5141227813},{"street":"Harper","city":"Santo Rosario","zip":4412,"svnr":4832134138},{"street":"Sauthoff","city":"La Esperanza","zip":9281,"svnr":4661891800},{"street":"Ruskin","city":"Shuidong","zip":3219,"svnr":4646022279},{"street":"Mockingbird","city":"Klwów","zip":7579,"svnr":5424240701},{"street":"Manufacturers","city":"Beicang","zip":4721,"svnr":4208479562},{"street":"Forest Run","city":"Pangawaren","zip":8832,"svnr":1733949370},{"street":"Lakewood","city":"Nagbukel","zip":9359,"svnr":8474910106},{"street":"Autumn Leaf","city":"Itacarambi","zip":1178,"svnr":5469995084},{"street":"Ludington","city":"Kisesa","zip":6251,"svnr":2807337211},{"street":"Forest Dale","city":"Las Lajas","zip":9820,"svnr":7449723166},{"street":"Harper","city":"Santo Rosario","zip":4412,"svnr":5324616173},{"street":"Sauthoff","city":"La Esperanza","zip":9281,"svnr":4958827026},{"street":"Ruskin","city":"Shuidong","zip":3219,"svnr":6744871732},{"street":"Mockingbird","city":"Klwów","zip":7579,"svnr":6835245292},{"street":"Manufacturers","city":"Beicang","zip":4721,"svnr":3218410558},{"street":"Forest Run","city":"Pangawaren","zip":8832,"svnr":5066643991},{"street":"Lakewood","city":"Nagbukel","zip":9359,"svnr":8374705949},{"street":"Autumn Leaf","city":"Itacarambi","zip":1178,"svnr":2147788060},{"street":"Ludington","city":"Kisesa","zip":6251,"svnr":1753906497},{"street":"Forest Dale","city":"Las Lajas","zip":9820,"svnr":8160278856},{"street":"Harper","city":"Santo Rosario","zip":4412,"svnr":4011446454},{"street":"Sauthoff","city":"La Esperanza","zip":9281,"svnr":8562456544},{"street":"Ruskin","city":"Shuidong","zip":3219,"svnr":2156215807},{"street":"Mockingbird","city":"Klwów","zip":7579,"svnr":8404758544},{"street":"Forest Run","city":"Pangawaren","zip":8832,"svnr":2459174820},{"street":"Lakewood","city":"Nagbukel","zip":9359,"svnr":9528277759},{"street":"Autumn Leaf","city":"Itacarambi","zip":1178,"svnr":6003283680},{"street":"Ludington","city":"Kisesa","zip":6251,"svnr":4260305718},{"street":"Forest Dale","city":"Las Lajas","zip":9820,"svnr":2891296931},{"street":"Harper","city":"Santo Rosario","zip":4412,"svnr":9722987056},{"street":"Sauthoff","city":"La Esperanza","zip":9281,"svnr":8306722264},{"street":"Ruskin","city":"Shuidong","zip":3219,"svnr":6963595157},{"street":"Mockingbird","city":"Klwów","zip":7579,"svnr":4994379891},{"street":"Forest Run","city":"Pangawaren","zip":8832,"svnr":5584906944},{"street":"Lakewood","city":"Nagbukel","zip":9359,"svnr":3477364446},{"street":"Autumn Leaf","city":"Itacarambi","zip":1178,"svnr":7058600130},{"street":"Ludington","city":"Kisesa","zip":6251,"svnr":6470889219},{"street":"Forest Dale","city":"Las Lajas","zip":9820,"svnr":2844661448},{"street":"Harper","city":"Santo Rosario","zip":4412,"svnr":9983982450},{"street":"Sauthoff","city":"La Esperanza","zip":9281,"svnr":4392308122},{"street":"Ruskin","city":"Shuidong","zip":3219,"svnr":1342407829},{"street":"Mockingbird","city":"Klwów","zip":7579,"svnr":2467777372},{"street":"Manufacturers","city":"Beicang","zip":4721,"svnr":4011446454},{"street":"Forest Run","city":"Pangawaren","zip":8832,"svnr":6800862679},{"street":"Lakewood","city":"Nagbukel","zip":9359,"svnr":8537071985},{"street":"Autumn Leaf","city":"Itacarambi","zip":1178,"svnr":9177139746},{"street":"Ludington","city":"Kisesa","zip":6251,"svnr":1391492874},{"street":"Forest Dale","city":"Las Lajas","zip":9820,"svnr":2195937482},{"street":"Harper","city":"Santo Rosario","zip":4412,"svnr":5229650634},{"street":"Sauthoff","city":"La Esperanza","zip":9281,"svnr":1487404731},{"street":"Ruskin","city":"Shuidong","zip":3219,"svnr":7555770796},{"street":"Mockingbird","city":"Klwów","zip":7579,"svnr":6186208581},{"street":"Manufacturers","city":"Beicang","zip":4721,"svnr":2517534202},{"street":"Forest Run","city":"Pangawaren","zip":8832,"svnr":2476015020},{"street":"Lakewood","city":"Nagbukel","zip":9359,"svnr":9278505788},{"street":"Autumn Leaf","city":"Itacarambi","zip":1178,"svnr":5302458826},{"street":"Ludington","city":"Kisesa","zip":6251,"svnr":2249990890},{"street":"Forest Dale","city":"Las Lajas","zip":9820,"svnr":3592917795},{"street":"Harper","city":"Santo Rosario","zip":4412,"svnr":6626236450},{"street":"Sauthoff","city":"La Esperanza","zip":9281,"svnr":9187847721},{"street":"Ruskin","city":"Shuidong","zip":3219,"svnr":3347657335},{"street":"Mockingbird","city":"Klwów","zip":7579,"svnr":6614545013},{"street":"Manufacturers","city":"Beicang","zip":4721,"svnr":4353573558},{"street":"Forest Run","city":"Pangawaren","zip":8832,"svnr":4558422421},{"street":"Lakewood","city":"Nagbukel","zip":9359,"svnr":3391551462},{"street":"Autumn Leaf","city":"Itacarambi","zip":1178,"svnr":6511372092},{"street":"Ludington","city":"Kisesa","zip":6251,"svnr":4851100559},{"street":"Forest Dale","city":"Las Lajas","zip":9820,"svnr":5156324004},{"street":"Harper","city":"Santo Rosario","zip":4412,"svnr":8146602218},{"street":"Sauthoff","city":"La Esperanza","zip":9281,"svnr":7803427619},{"street":"Ruskin","city":"Shuidong","zip":3219,"svnr":5883701980},{"street":"Mockingbird","city":"Klwów","zip":7579,"svnr":3995530168},{"street":"Manufacturers","city":"Beicang","zip":4721,"svnr":3421301199},{"street":"Forest Run","city":"Pangawaren","zip":8832,"svnr":7496171012},{"street":"Lakewood","city":"Nagbukel","zip":9359,"svnr":6591715571},{"street":"Autumn Leaf","city":"Itacarambi","zip":1178,"svnr":8745561370},{"street":"Ludington","city":"Kisesa","zip":6251,"svnr":3997274857},{"street":"Forest Dale","city":"Las Lajas","zip":9820,"svnr":8488663130},{"street":"Harper","city":"Santo Rosario","zip":4412,"svnr":3031763725},{"street":"Sauthoff","city":"La Esperanza","zip":9281,"svnr":3610625659},{"street":"Mockingbird","city":"Klwów","zip":7579,"svnr":5681024204},{"street":"Manufacturers","city":"Beicang","zip":4721,"svnr":6772478740},{"street":"Forest Run","city":"Pangawaren","zip":8832,"svnr":8564968176},{"street":"Lakewood","city":"Nagbukel","zip":9359,"svnr":3341784325},{"street":"Autumn Leaf","city":"Itacarambi","zip":1178,"svnr":9864099898},{"street":"Ludington","city":"Kisesa","zip":6251,"svnr":9709168953},{"street":"Forest Dale","city":"Las Lajas","zip":9820,"svnr":6374365813},{"street":"Harper","city":"Santo Rosario","zip":4412,"svnr":9528277759},{"street":"Sauthoff","city":"La Esperanza","zip":9281,"svnr":4058773050},{"street":"Ruskin","city":"Shuidong","zip":3219,"svnr":6667119108},{"street":"Manufacturers","city":"Beicang","zip":4721,"svnr":7511774690},{"street":"Forest Run","city":"Pangawaren","zip":8832,"svnr":7986121689},{"street":"Lakewood","city":"Nagbukel","zip":9359,"svnr":4511287242},{"street":"Autumn Leaf","city":"Itacarambi","zip":1178,"svnr":8575315922},{"street":"Ludington","city":"Kisesa","zip":6251,"svnr":6183430973},{"street":"Forest Dale","city":"Las Lajas","zip":9820,"svnr":2476015020},{"street":"Harper","city":"Santo Rosario","zip":4412,"svnr":3280362040},{"street":"Sauthoff","city":"La Esperanza","zip":9281,"svnr":4378504500},{"street":"Ruskin","city":"Shuidong","zip":3219,"svnr":8537071985},{"street":"Mockingbird","city":"Klwów","zip":7579,"svnr":5252681144},{"street":"Manufacturers","city":"Beicang","zip":4721,"svnr":1640685106},{"street":"Forest Run","city":"Pangawaren","zip":8832,"svnr":4153949836},{"street":"Lakewood","city":"Nagbukel","zip":9359,"svnr":4851100559},{"street":"Autumn Leaf","city":"Itacarambi","zip":1178,"svnr":4260305718},{"street":"Ludington","city":"Kisesa","zip":6251,"svnr":3491343920},{"street":"Forest Dale","city":"Las Lajas","zip":9820,"svnr":8756475084},{"street":"Harper","city":"Santo Rosario","zip":4412,"svnr":5194828264},{"street":"Sauthoff","city":"La Esperanza","zip":9281,"svnr":9907006856},{"street":"Ruskin","city":"Shuidong","zip":3219,"svnr":8097155367},{"street":"Mockingbird","city":"Klwów","zip":7579,"svnr":8558564293},{"street":"Manufacturers","city":"Beicang","zip":4721,"svnr":9154972050},{"street":"Forest Run","city":"Pangawaren","zip":8832,"svnr":7837080549},{"street":"Lakewood","city":"Nagbukel","zip":9359,"svnr":5529385830},{"street":"Autumn Leaf","city":"Itacarambi","zip":1178,"svnr":2005819197},{"street":"Ludington","city":"Kisesa","zip":6251,"svnr":1082730050},{"street":"Forest Dale","city":"Las Lajas","zip":9820,"svnr":7466734245},{"street":"Harper","city":"Santo Rosario","zip":4412,"svnr":6131056079},{"street":"Sauthoff","city":"La Esperanza","zip":9281,"svnr":2793659570},{"street":"Ruskin","city":"Shuidong","zip":3219,"svnr":6241380075},{"street":"Mockingbird","city":"Klwów","zip":7579,"svnr":1099547534},{"street":"Manufacturers","city":"Beicang","zip":4721,"svnr":9278093706},{"street":"Forest Run","city":"Pangawaren","zip":8832,"svnr":9240476130},{"street":"Lakewood","city":"Nagbukel","zip":9359,"svnr":7336551179},{"street":"Autumn Leaf","city":"Itacarambi","zip":1178,"svnr":5828129062},{"street":"Ludington","city":"Kisesa","zip":6251,"svnr":1276474318},{"street":"Forest Dale","city":"Las Lajas","zip":9820,"svnr":1079035411},{"street":"Harper","city":"Santo Rosario","zip":4412,"svnr":8394807428},{"street":"Sauthoff","city":"La Esperanza","zip":9281,"svnr":9213379213},{"street":"Ruskin","city":"Shuidong","zip":3219,"svnr":6730641128},{"street":"Mockingbird","city":"Klwów","zip":7579,"svnr":2216435068},{"street":"Manufacturers","city":"Beicang","zip":4721,"svnr":6425045392},{"street":"Forest Run","city":"Pangawaren","zip":8832,"svnr":8886225985},{"street":"Lakewood","city":"Nagbukel","zip":9359,"svnr":3913740511},{"street":"Autumn Leaf","city":"Itacarambi","zip":1178,"svnr":6744871732},{"street":"Ludington","city":"Kisesa","zip":6251,"svnr":9971942177},{"street":"Forest Dale","city":"Las Lajas","zip":9820,"svnr":1510914571},{"street":"Harper","city":"Santo Rosario","zip":4412,"svnr":1378377498},{"street":"Sauthoff","city":"La Esperanza","zip":9281,"svnr":7715626751},{"street":"Ruskin","city":"Shuidong","zip":3219,"svnr":2354967938},{"street":"Mockingbird","city":"Klwów","zip":7579,"svnr":1093850606},{"street":"Manufacturers","city":"Beicang","zip":4721,"svnr":6835245292},{"street":"Forest Run","city":"Pangawaren","zip":8832,"svnr":5000022041},{"street":"Autumn Leaf","city":"Itacarambi","zip":1178,"svnr":4229116431},{"street":"Ludington","city":"Kisesa","zip":6251,"svnr":1111141522},{"street":"Forest Dale","city":"Las Lajas","zip":9820,"svnr":2931002164},{"street":"Harper","city":"Santo Rosario","zip":4412,"svnr":9335095713},{"street":"Ruskin","city":"Shuidong","zip":3219,"svnr":3946075959},{"street":"Mockingbird","city":"Klwów","zip":7579,"svnr":2087904122},{"street":"Manufacturers","city":"Beicang","zip":4721,"svnr":8995658212},{"street":"Forest Run","city":"Pangawaren","zip":8832,"svnr":8374705949},{"street":"Autumn Leaf","city":"Itacarambi","zip":1178,"svnr":7629496753},{"street":"Ludington","city":"Kisesa","zip":6251,"svnr":6998177364},{"street":"Forest Dale","city":"Las Lajas","zip":9820,"svnr":3468152324},{"street":"Harper","city":"Santo Rosario","zip":4412,"svnr":2391401568},{"street":"Sauthoff","city":"La Esperanza","zip":9281,"svnr":6463292652},{"street":"Ruskin","city":"Shuidong","zip":3219,"svnr":9332708523},{"street":"Mockingbird","city":"Klwów","zip":7579,"svnr":1436670717},{"street":"Manufacturers","city":"Beicang","zip":4721,"svnr":2901035495},{"street":"Forest Run","city":"Pangawaren","zip":8832,"svnr":9649873585},{"street":"Lakewood","city":"Nagbukel","zip":9359,"svnr":3682196449},{"street":"Autumn Leaf","city":"Itacarambi","zip":1178,"svnr":1618127013},{"street":"Ludington","city":"Kisesa","zip":6251,"svnr":1153002887},{"street":"Harper","city":"Santo Rosario","zip":4412,"svnr":2385506131},{"street":"Sauthoff","city":"La Esperanza","zip":9281,"svnr":9668330967},{"street":"Ruskin","city":"Shuidong","zip":3219,"svnr":5341697543},{"street":"Mockingbird","city":"Klwów","zip":7579,"svnr":7036682617},{"street":"Manufacturers","city":"Beicang","zip":4721,"svnr":3902852716},{"street":"Forest Run","city":"Pangawaren","zip":8832,"svnr":5582214725},{"street":"Lakewood","city":"Nagbukel","zip":9359,"svnr":4229116431},{"street":"Autumn Leaf","city":"Itacarambi","zip":1178,"svnr":5837822298},{"street":"Ludington","city":"Kisesa","zip":6251,"svnr":4804809435},{"street":"Forest Dale","city":"Las Lajas","zip":9820,"svnr":4392308122},{"street":"Harper","city":"Santo Rosario","zip":4412,"svnr":2606905065},{"street":"Sauthoff","city":"La Esperanza","zip":9281,"svnr":6012976144},{"street":"Ruskin","city":"Shuidong","zip":3219,"svnr":2666754664},{"street":"Mockingbird","city":"Klwów","zip":7579,"svnr":7452384328},{"street":"Manufacturers","city":"Beicang","zip":4721,"svnr":6511372092},{"street":"Forest Run","city":"Pangawaren","zip":8832,"svnr":5629524805},{"street":"Lakewood","city":"Nagbukel","zip":9359,"svnr":6366681116},{"street":"Autumn Leaf","city":"Itacarambi","zip":1178,"svnr":3016318386},{"street":"Ludington","city":"Kisesa","zip":6251,"svnr":9050004742},{"street":"Forest Dale","city":"Las Lajas","zip":9820,"svnr":7863952329},{"street":"Harper","city":"Santo Rosario","zip":4412,"svnr":8469642228},{"street":"Sauthoff","city":"La Esperanza","zip":9281,"svnr":4558422421},{"street":"Ruskin","city":"Shuidong","zip":3219,"svnr":7918804193},{"street":"Mockingbird","city":"Klwów","zip":7579,"svnr":9421534700},{"street":"Manufacturers","city":"Beicang","zip":4721,"svnr":1753906497},{"street":"Forest Run","city":"Pangawaren","zip":8832,"svnr":4834209887},{"street":"Lakewood","city":"Nagbukel","zip":9359,"svnr":7014654617},{"street":"Autumn Leaf","city":"Itacarambi","zip":1178,"svnr":7306066225},{"street":"Ludington","city":"Kisesa","zip":6251,"svnr":3432966071},{"street":"Harper","city":"Santo Rosario","zip":4412,"svnr":4603002693},{"street":"Sauthoff","city":"La Esperanza","zip":9281,"svnr":6946784707},{"street":"Ruskin","city":"Shuidong","zip":3219,"svnr":6103681609},{"street":"Mockingbird","city":"Klwów","zip":7579,"svnr":3268759403},{"street":"Manufacturers","city":"Beicang","zip":4721,"svnr":8814195720},{"street":"Forest Run","city":"Pangawaren","zip":8832,"svnr":1093850606},{"street":"Lakewood","city":"Nagbukel","zip":9359,"svnr":7659115790},{"street":"Autumn Leaf","city":"Itacarambi","zip":1178,"svnr":3070237554},{"street":"Ludington","city":"Kisesa","zip":6251,"svnr":9091297661},{"street":"Forest Dale","city":"Las Lajas","zip":9820,"svnr":3389907260},{"street":"Harper","city":"Santo Rosario","zip":4412,"svnr":6467888694},{"street":"Sauthoff","city":"La Esperanza","zip":9281,"svnr":7879747183},{"street":"Ruskin","city":"Shuidong","zip":3219,"svnr":5973825972},{"street":"Mockingbird","city":"Klwów","zip":7579,"svnr":7607252404},{"street":"Manufacturers","city":"Beicang","zip":4721,"svnr":7258890952},{"street":"Forest Run","city":"Pangawaren","zip":8832,"svnr":4797263265},{"street":"Lakewood","city":"Nagbukel","zip":9359,"svnr":1342407829},{"street":"Autumn Leaf","city":"Itacarambi","zip":1178,"svnr":7882398225},{"street":"Ludington","city":"Kisesa","zip":6251,"svnr":1491638537},{"street":"Forest Dale","city":"Las Lajas","zip":9820,"svnr":4335071151},{"street":"Harper","city":"Santo Rosario","zip":4412,"svnr":4725828680},{"street":"Sauthoff","city":"La Esperanza","zip":9281,"svnr":8379492792},{"street":"Ruskin","city":"Shuidong","zip":3219,"svnr":8132102964},{"street":"Mockingbird","city":"Klwów","zip":7579,"svnr":5629176501},{"street":"Manufacturers","city":"Beicang","zip":4721,"svnr":8026934313},{"street":"Forest Run","city":"Pangawaren","zip":8832,"svnr":8360546729},{"street":"Lakewood","city":"Nagbukel","zip":9359,"svnr":4898801076},{"street":"Autumn Leaf","city":"Itacarambi","zip":1178,"svnr":5115085646},{"street":"Ludington","city":"Kisesa","zip":6251,"svnr":4185725878},{"street":"Forest Dale","city":"Las Lajas","zip":9820,"svnr":2385506131},{"street":"Harper","city":"Santo Rosario","zip":4412,"svnr":3421301199},{"street":"Sauthoff","city":"La Esperanza","zip":9281,"svnr":6419040035},{"street":"Ruskin","city":"Shuidong","zip":3219,"svnr":1096544099},{"street":"Mockingbird","city":"Klwów","zip":7579,"svnr":7056411304},{"street":"Manufacturers","city":"Beicang","zip":4721,"svnr":6014185652},{"street":"Forest Run","city":"Pangawaren","zip":8832,"svnr":3953810966},{"street":"Lakewood","city":"Nagbukel","zip":9359,"svnr":1508211535},{"street":"Autumn Leaf","city":"Itacarambi","zip":1178,"svnr":3029765962},{"street":"Ludington","city":"Kisesa","zip":6251,"svnr":6756075293},{"street":"Forest Dale","city":"Las Lajas","zip":9820,"svnr":5727732652},{"street":"Harper","city":"Santo Rosario","zip":4412,"svnr":9114190364},{"street":"Ruskin","city":"Shuidong","zip":3219,"svnr":6290414048},{"street":"Mockingbird","city":"Klwów","zip":7579,"svnr":3964560475},{"street":"Manufacturers","city":"Beicang","zip":4721,"svnr":2087904122},{"street":"Forest Run","city":"Pangawaren","zip":8832,"svnr":2266661035},{"street":"Lakewood","city":"Nagbukel","zip":9359,"svnr":3844141633},{"street":"Autumn Leaf","city":"Itacarambi","zip":1178,"svnr":2647910357},{"street":"Ludington","city":"Kisesa","zip":6251,"svnr":1770030897},{"street":"Forest Dale","city":"Las Lajas","zip":9820,"svnr":5681024204},{"street":"Harper","city":"Santo Rosario","zip":4412,"svnr":4147015565},{"street":"Ruskin","city":"Shuidong","zip":3219,"svnr":3831156679},{"street":"Mockingbird","city":"Klwów","zip":7579,"svnr":1885274112},{"street":"Manufacturers","city":"Beicang","zip":4721,"svnr":3792710177},{"street":"Forest Run","city":"Pangawaren","zip":8832,"svnr":7179441576},{"street":"Lakewood","city":"Nagbukel","zip":9359,"svnr":3432966071},{"street":"Autumn Leaf","city":"Itacarambi","zip":1178,"svnr":8713846703},{"street":"Ludington","city":"Kisesa","zip":6251,"svnr":7201161275},{"street":"Forest Dale","city":"Las Lajas","zip":9820,"svnr":7205405306},{"street":"Harper","city":"Santo Rosario","zip":4412,"svnr":4958827026},{"street":"Sauthoff","city":"La Esperanza","zip":9281,"svnr":6998216099},{"street":"Ruskin","city":"Shuidong","zip":3219,"svnr":5464593035},{"street":"Mockingbird","city":"Klwów","zip":7579,"svnr":5244146548},{"street":"Manufacturers","city":"Beicang","zip":4721,"svnr":5297521906},{"street":"Forest Run","city":"Pangawaren","zip":8832,"svnr":3614575863},{"street":"Lakewood","city":"Nagbukel","zip":9359,"svnr":1179496603},{"street":"Autumn Leaf","city":"Itacarambi","zip":1178,"svnr":2627089746},{"street":"Ludington","city":"Kisesa","zip":6251,"svnr":5601845619},{"street":"Forest Dale","city":"Las Lajas","zip":9820,"svnr":4081964737},{"street":"Harper","city":"Santo Rosario","zip":4412,"svnr":7877545440},{"street":"Sauthoff","city":"La Esperanza","zip":9281,"svnr":7205405306},{"street":"Ruskin","city":"Shuidong","zip":3219,"svnr":7193413635},{"street":"Mockingbird","city":"Klwów","zip":7579,"svnr":6311297504},{"street":"Manufacturers","city":"Beicang","zip":4721,"svnr":7367405838},{"street":"Forest Run","city":"Pangawaren","zip":8832,"svnr":7274727641},{"street":"Lakewood","city":"Nagbukel","zip":9359,"svnr":1325858772},{"street":"Autumn Leaf","city":"Itacarambi","zip":1178,"svnr":7834555550},{"street":"Ludington","city":"Kisesa","zip":6251,"svnr":2931002164},{"street":"Forest Dale","city":"Las Lajas","zip":9820,"svnr":1116241069},{"street":"Harper","city":"Santo Rosario","zip":4412,"svnr":9982813250},{"street":"Sauthoff","city":"La Esperanza","zip":9281,"svnr":1635956395},{"street":"Ruskin","city":"Shuidong","zip":3219,"svnr":9503848330},{"street":"Mockingbird","city":"Klwów","zip":7579,"svnr":6135298190},{"street":"Manufacturers","city":"Beicang","zip":4721,"svnr":4375326489},{"street":"Forest Run","city":"Pangawaren","zip":8832,"svnr":4298294430},{"street":"Lakewood","city":"Nagbukel","zip":9359,"svnr":8593486887},{"street":"Autumn Leaf","city":"Itacarambi","zip":1178,"svnr":7467648408},{"street":"Ludington","city":"Kisesa","zip":6251,"svnr":2972745107},{"street":"Harper","city":"Santo Rosario","zip":4412,"svnr":6425045392},{"street":"Sauthoff","city":"La Esperanza","zip":9281,"svnr":3125806051},{"street":"Ruskin","city":"Shuidong","zip":3219,"svnr":7364475003},{"street":"Mockingbird","city":"Klwów","zip":7579,"svnr":5553321323},{"street":"Manufacturers","city":"Beicang","zip":4721,"svnr":9359009187},{"street":"Forest Run","city":"Pangawaren","zip":8832,"svnr":5116575796},{"street":"Lakewood","city":"Nagbukel","zip":9359,"svnr":6730641128},{"street":"Autumn Leaf","city":"Itacarambi","zip":1178,"svnr":5756238271},{"street":"Ludington","city":"Kisesa","zip":6251,"svnr":8981079499},{"street":"Forest Dale","city":"Las Lajas","zip":9820,"svnr":6177870349},{"street":"Harper","city":"Santo Rosario","zip":4412,"svnr":2376017879},{"street":"Sauthoff","city":"La Esperanza","zip":9281,"svnr":4389609080},{"street":"Ruskin","city":"Shuidong","zip":3219,"svnr":1753906497},{"street":"Mockingbird","city":"Klwów","zip":7579,"svnr":2460489896},{"street":"Manufacturers","city":"Beicang","zip":4721,"svnr":1996742375},{"street":"Forest Run","city":"Pangawaren","zip":8832,"svnr":1880877036},{"street":"Lakewood","city":"Nagbukel","zip":9359,"svnr":5372090301},{"street":"Autumn Leaf","city":"Itacarambi","zip":1178,"svnr":9213379213},{"street":"Ludington","city":"Kisesa","zip":6251,"svnr":3727257101},{"street":"Forest Dale","city":"Las Lajas","zip":9820,"svnr":9464333622},{"street":"Harper","city":"Santo Rosario","zip":4412,"svnr":6416745101},{"street":"Sauthoff","city":"La Esperanza","zip":9281,"svnr":5785277506},{"street":"Ruskin","city":"Shuidong","zip":3219,"svnr":8120939121},{"street":"Mockingbird","city":"Klwów","zip":7579,"svnr":3374451704},{"street":"Manufacturers","city":"Beicang","zip":4721,"svnr":5229650634},{"street":"Forest Run","city":"Pangawaren","zip":8832,"svnr":2167726917},{"street":"Lakewood","city":"Nagbukel","zip":9359,"svnr":5115085646},{"street":"Autumn Leaf","city":"Itacarambi","zip":1178,"svnr":9154972050},{"street":"Ludington","city":"Kisesa","zip":6251,"svnr":5854974701},{"street":"Forest Dale","city":"Las Lajas","zip":9820,"svnr":2156215807},{"street":"Harper","city":"Santo Rosario","zip":4412,"svnr":4941508849},{"street":"Sauthoff","city":"La Esperanza","zip":9281,"svnr":4927600223},{"street":"Ruskin","city":"Shuidong","zip":3219,"svnr":3854703382},{"street":"Mockingbird","city":"Klwów","zip":7579,"svnr":4342793611},{"street":"Manufacturers","city":"Beicang","zip":4721,"svnr":3240336358},{"street":"Forest Run","city":"Pangawaren","zip":8832,"svnr":3288029802},{"street":"Lakewood","city":"Nagbukel","zip":9359,"svnr":8360546729},{"street":"Autumn Leaf","city":"Itacarambi","zip":1178,"svnr":8639172911},{"street":"Ludington","city":"Kisesa","zip":6251,"svnr":1519766610},{"street":"Forest Dale","city":"Las Lajas","zip":9820,"svnr":3763533987},{"street":"Sauthoff","city":"La Esperanza","zip":9281,"svnr":1250570308},{"street":"Mockingbird","city":"Klwów","zip":7579,"svnr":5727732652},{"street":"Manufacturers","city":"Beicang","zip":4721,"svnr":6766882338},{"street":"Forest Run","city":"Pangawaren","zip":8832,"svnr":9736718704},{"street":"Lakewood","city":"Nagbukel","zip":9359,"svnr":9187847721},{"street":"Autumn Leaf","city":"Itacarambi","zip":1178,"svnr":4850349152},{"street":"Ludington","city":"Kisesa","zip":6251,"svnr":7256067870},{"street":"Forest Dale","city":"Las Lajas","zip":9820,"svnr":8260304854},{"street":"Harper","city":"Santo Rosario","zip":4412,"svnr":1179496603},{"street":"Sauthoff","city":"La Esperanza","zip":9281,"svnr":9927230957},{"street":"Ruskin","city":"Shuidong","zip":3219,"svnr":8078766982},{"street":"Mockingbird","city":"Klwów","zip":7579,"svnr":6889185055},{"street":"Manufacturers","city":"Beicang","zip":4721,"svnr":8023555266},{"street":"Forest Run","city":"Pangawaren","zip":8832,"svnr":6904688639},{"street":"Lakewood","city":"Nagbukel","zip":9359,"svnr":3557040112},{"street":"Autumn Leaf","city":"Itacarambi","zip":1178,"svnr":4877714428},{"street":"Ludington","city":"Kisesa","zip":6251,"svnr":3942956078},{"street":"Forest Dale","city":"Las Lajas","zip":9820,"svnr":7367405838},{"street":"Harper","city":"Santo Rosario","zip":4412,"svnr":4018397593},{"street":"Sauthoff","city":"La Esperanza","zip":9281,"svnr":8026934313},{"street":"Ruskin","city":"Shuidong","zip":3219,"svnr":6463292652},{"street":"Mockingbird","city":"Klwów","zip":7579,"svnr":3027510266},{"street":"Manufacturers","city":"Beicang","zip":4721,"svnr":8390861504},{"street":"Forest Run","city":"Pangawaren","zip":8832,"svnr":8485671917},{"street":"Lakewood","city":"Nagbukel","zip":9359,"svnr":1299079811},{"street":"Autumn Leaf","city":"Itacarambi","zip":1178,"svnr":4578398335},{"street":"Ludington","city":"Kisesa","zip":6251,"svnr":7012203631},{"street":"Forest Dale","city":"Las Lajas","zip":9820,"svnr":9789599882},{"street":"Harper","city":"Santo Rosario","zip":4412,"svnr":5674233710},{"street":"Sauthoff","city":"La Esperanza","zip":9281,"svnr":7621993915},{"street":"Ruskin","city":"Shuidong","zip":3219,"svnr":7155083263},{"street":"Mockingbird","city":"Klwów","zip":7579,"svnr":6131026472},{"street":"Manufacturers","city":"Beicang","zip":4721,"svnr":2639687207},{"street":"Forest Run","city":"Pangawaren","zip":8832,"svnr":9073444877},{"street":"Lakewood","city":"Nagbukel","zip":9359,"svnr":6249013308},{"street":"Autumn Leaf","city":"Itacarambi","zip":1178,"svnr":5729885355},{"street":"Ludington","city":"Kisesa","zip":6251,"svnr":1618127013},{"street":"Forest Dale","city":"Las Lajas","zip":9820,"svnr":9495742981},{"street":"Harper","city":"Santo Rosario","zip":4412,"svnr":7573062320},{"street":"Sauthoff","city":"La Esperanza","zip":9281,"svnr":8549633926},{"street":"Ruskin","city":"Shuidong","zip":3219,"svnr":7054187618},{"street":"Mockingbird","city":"Klwów","zip":7579,"svnr":3604715460},{"street":"Forest Run","city":"Pangawaren","zip":8832,"svnr":3027510266},{"street":"Lakewood","city":"Nagbukel","zip":9359,"svnr":2793659570},{"street":"Autumn Leaf","city":"Itacarambi","zip":1178,"svnr":9193336462},{"street":"Ludington","city":"Kisesa","zip":6251,"svnr":3187921783},{"street":"Forest Dale","city":"Las Lajas","zip":9820,"svnr":8217523348},{"street":"Harper","city":"Santo Rosario","zip":4412,"svnr":2807337211},{"street":"Sauthoff","city":"La Esperanza","zip":9281,"svnr":5429041899},{"street":"Ruskin","city":"Shuidong","zip":3219,"svnr":5215132101},{"street":"Manufacturers","city":"Beicang","zip":4721,"svnr":1519766610},{"street":"Forest Run","city":"Pangawaren","zip":8832,"svnr":9770165728},{"street":"Lakewood","city":"Nagbukel","zip":9359,"svnr":9815211679},{"street":"Autumn Leaf","city":"Itacarambi","zip":1178,"svnr":7274727641},{"street":"Forest Dale","city":"Las Lajas","zip":9820,"svnr":8211789101},{"street":"Harper","city":"Santo Rosario","zip":4412,"svnr":5595719225},{"street":"Sauthoff","city":"La Esperanza","zip":9281,"svnr":4048022402},{"street":"Ruskin","city":"Shuidong","zip":3219,"svnr":7164521369},{"street":"Mockingbird","city":"Klwów","zip":7579,"svnr":4569616599},{"street":"Manufacturers","city":"Beicang","zip":4721,"svnr":3727257101},{"street":"Forest Run","city":"Pangawaren","zip":8832,"svnr":9250903942},{"street":"Lakewood","city":"Nagbukel","zip":9359,"svnr":5054477688},{"street":"Autumn Leaf","city":"Itacarambi","zip":1178,"svnr":6059244281},{"street":"Ludington","city":"Kisesa","zip":6251,"svnr":4958827026},{"street":"Forest Dale","city":"Las Lajas","zip":9820,"svnr":6282005078},{"street":"Harper","city":"Santo Rosario","zip":4412,"svnr":1885274112},{"street":"Sauthoff","city":"La Esperanza","zip":9281,"svnr":8120939121},{"street":"Ruskin","city":"Shuidong","zip":3219,"svnr":8379492792},{"street":"Mockingbird","city":"Klwów","zip":7579,"svnr":4820233954},{"street":"Manufacturers","city":"Beicang","zip":4721,"svnr":3428811638},{"street":"Forest Run","city":"Pangawaren","zip":8832,"svnr":9017542487},{"street":"Lakewood","city":"Nagbukel","zip":9359,"svnr":8488663130},{"street":"Autumn Leaf","city":"Itacarambi","zip":1178,"svnr":6166949383},{"street":"Ludington","city":"Kisesa","zip":6251,"svnr":5128990956},{"street":"Forest Dale","city":"Las Lajas","zip":9820,"svnr":7797747625},{"street":"Harper","city":"Santo Rosario","zip":4412,"svnr":6463292652},{"street":"Sauthoff","city":"La Esperanza","zip":9281,"svnr":7678348643},{"street":"Ruskin","city":"Shuidong","zip":3219,"svnr":1711136723},{"street":"Mockingbird","city":"Klwów","zip":7579,"svnr":9894468657},{"street":"Forest Run","city":"Pangawaren","zip":8832,"svnr":7364475003},{"street":"Lakewood","city":"Nagbukel","zip":9359,"svnr":9983982450},{"street":"Autumn Leaf","city":"Itacarambi","zip":1178,"svnr":7641506231},{"street":"Ludington","city":"Kisesa","zip":6251,"svnr":3542562022},{"street":"Forest Dale","city":"Las Lajas","zip":9820,"svnr":5621879072},{"street":"Harper","city":"Santo Rosario","zip":4412,"svnr":3264740786},{"street":"Sauthoff","city":"La Esperanza","zip":9281,"svnr":5858515856},{"street":"Ruskin","city":"Shuidong","zip":3219,"svnr":3016318386},{"street":"Mockingbird","city":"Klwów","zip":7579,"svnr":2465455240},{"street":"Manufacturers","city":"Beicang","zip":4721,"svnr":4649094525},{"street":"Forest Run","city":"Pangawaren","zip":8832,"svnr":6664854641},{"street":"Lakewood","city":"Nagbukel","zip":9359,"svnr":6963595157},{"street":"Autumn Leaf","city":"Itacarambi","zip":1178,"svnr":2356392095},{"street":"Ludington","city":"Kisesa","zip":6251,"svnr":5141172486},{"street":"Forest Dale","city":"Las Lajas","zip":9820,"svnr":6901537291},{"street":"Harper","city":"Santo Rosario","zip":4412,"svnr":2150423683},{"street":"Sauthoff","city":"La Esperanza","zip":9281,"svnr":2460489896},{"street":"Ruskin","city":"Shuidong","zip":3219,"svnr":4927600223},{"street":"Mockingbird","city":"Klwów","zip":7579,"svnr":9647170515},{"street":"Manufacturers","city":"Beicang","zip":4721,"svnr":7912384686},{"street":"Forest Run","city":"Pangawaren","zip":8832,"svnr":8469642228},{"street":"Lakewood","city":"Nagbukel","zip":9359,"svnr":3187921783},{"street":"Autumn Leaf","city":"Itacarambi","zip":1178,"svnr":8580768473},{"street":"Ludington","city":"Kisesa","zip":6251,"svnr":1279825153},{"street":"Forest Dale","city":"Las Lajas","zip":9820,"svnr":2356392095},{"street":"Harper","city":"Santo Rosario","zip":4412,"svnr":5243064477},{"street":"Sauthoff","city":"La Esperanza","zip":9281,"svnr":4216349426},{"street":"Ruskin","city":"Shuidong","zip":3219,"svnr":1539291422},{"street":"Mockingbird","city":"Klwów","zip":7579,"svnr":1487404731},{"street":"Manufacturers","city":"Beicang","zip":4721,"svnr":6249013308},{"street":"Forest Run","city":"Pangawaren","zip":8832,"svnr":7036682617},{"street":"Lakewood","city":"Nagbukel","zip":9359,"svnr":3070237554},{"street":"Autumn Leaf","city":"Itacarambi","zip":1178,"svnr":8630716972},{"street":"Ludington","city":"Kisesa","zip":6251,"svnr":4517801414},{"street":"Forest Dale","city":"Las Lajas","zip":9820,"svnr":8427451379},{"street":"Harper","city":"Santo Rosario","zip":4412,"svnr":2463458075},{"street":"Sauthoff","city":"La Esperanza","zip":9281,"svnr":8820272356},{"street":"Ruskin","city":"Shuidong","zip":3219,"svnr":6674072808},{"street":"Mockingbird","city":"Klwów","zip":7579,"svnr":5804141129},{"street":"Manufacturers","city":"Beicang","zip":4721,"svnr":9714743434},{"street":"Forest Run","city":"Pangawaren","zip":8832,"svnr":8078766982},{"street":"Lakewood","city":"Nagbukel","zip":9359,"svnr":4378504500},{"street":"Autumn Leaf","city":"Itacarambi","zip":1178,"svnr":1417301946},{"street":"Ludington","city":"Kisesa","zip":6251,"svnr":3792710177},{"street":"Forest Dale","city":"Las Lajas","zip":9820,"svnr":6748789426},{"street":"Harper","city":"Santo Rosario","zip":4412,"svnr":9927230957},{"street":"Sauthoff","city":"La Esperanza","zip":9281,"svnr":5436521972},{"street":"Ruskin","city":"Shuidong","zip":3219,"svnr":8807785497},{"street":"Mockingbird","city":"Klwów","zip":7579,"svnr":9649873585},{"street":"Manufacturers","city":"Beicang","zip":4721,"svnr":5249430988},{"street":"Forest Run","city":"Pangawaren","zip":8832,"svnr":4725828680},{"street":"Autumn Leaf","city":"Itacarambi","zip":1178,"svnr":3727257101},{"street":"Ludington","city":"Kisesa","zip":6251,"svnr":8565889579},{"street":"Forest Dale","city":"Las Lajas","zip":9820,"svnr":7362650421},{"street":"Harper","city":"Santo Rosario","zip":4412,"svnr":2726807641},{"street":"Sauthoff","city":"La Esperanza","zip":9281,"svnr":8488663130},{"street":"Ruskin","city":"Shuidong","zip":3219,"svnr":4094117900},{"street":"Mockingbird","city":"Klwów","zip":7579,"svnr":4511287242},{"street":"Forest Run","city":"Pangawaren","zip":8832,"svnr":4101311216},{"street":"Lakewood","city":"Nagbukel","zip":9359,"svnr":9630503771},{"street":"Autumn Leaf","city":"Itacarambi","zip":1178,"svnr":8537071985},{"street":"Ludington","city":"Kisesa","zip":6251,"svnr":4912867705},{"street":"Forest Dale","city":"Las Lajas","zip":9820,"svnr":1502297382},{"street":"Harper","city":"Santo Rosario","zip":4412,"svnr":6029933153},{"street":"Sauthoff","city":"La Esperanza","zip":9281,"svnr":4691134478},{"street":"Ruskin","city":"Shuidong","zip":3219,"svnr":9668938311},{"street":"Mockingbird","city":"Klwów","zip":7579,"svnr":3737377876},{"street":"Forest Run","city":"Pangawaren","zip":8832,"svnr":1279825153},{"street":"Lakewood","city":"Nagbukel","zip":9359,"svnr":7201161275},{"street":"Autumn Leaf","city":"Itacarambi","zip":1178,"svnr":9493985843},{"street":"Ludington","city":"Kisesa","zip":6251,"svnr":1005600707},{"street":"Forest Dale","city":"Las Lajas","zip":9820,"svnr":5639021055},{"street":"Sauthoff","city":"La Esperanza","zip":9281,"svnr":3171571932},{"street":"Ruskin","city":"Shuidong","zip":3219,"svnr":1116241069},{"street":"Mockingbird","city":"Klwów","zip":7579,"svnr":4229116431},{"street":"Manufacturers","city":"Beicang","zip":4721,"svnr":4941508849},{"street":"Forest Run","city":"Pangawaren","zip":8832,"svnr":5665788140},{"street":"Lakewood","city":"Nagbukel","zip":9359,"svnr":5965187782},{"street":"Autumn Leaf","city":"Itacarambi","zip":1178,"svnr":7239763093},{"street":"Ludington","city":"Kisesa","zip":6251,"svnr":6007158577},{"street":"Forest Dale","city":"Las Lajas","zip":9820,"svnr":8340024150},{"street":"Harper","city":"Santo Rosario","zip":4412,"svnr":2487914323},{"street":"Sauthoff","city":"La Esperanza","zip":9281,"svnr":4437940602},{"street":"Mockingbird","city":"Klwów","zip":7579,"svnr":4052581378},{"street":"Manufacturers","city":"Beicang","zip":4721,"svnr":4682070693},{"street":"Forest Run","city":"Pangawaren","zip":8832,"svnr":9009980731},{"street":"Lakewood","city":"Nagbukel","zip":9359,"svnr":3074951206},{"street":"Autumn Leaf","city":"Itacarambi","zip":1178,"svnr":8072174229},{"street":"Ludington","city":"Kisesa","zip":6251,"svnr":6425045392},{"street":"Forest Dale","city":"Las Lajas","zip":9820,"svnr":1512163883},{"street":"Harper","city":"Santo Rosario","zip":4412,"svnr":7727424076},{"street":"Sauthoff","city":"La Esperanza","zip":9281,"svnr":1185303848},{"street":"Ruskin","city":"Shuidong","zip":3219,"svnr":9668330967},{"street":"Mockingbird","city":"Klwów","zip":7579,"svnr":5272095221},{"street":"Manufacturers","city":"Beicang","zip":4721,"svnr":8516507652},{"street":"Forest Run","city":"Pangawaren","zip":8832,"svnr":9924443499},{"street":"Lakewood","city":"Nagbukel","zip":9359,"svnr":7964715779},{"street":"Autumn Leaf","city":"Itacarambi","zip":1178,"svnr":4142647548},{"street":"Ludington","city":"Kisesa","zip":6251,"svnr":7761846624},{"street":"Harper","city":"Santo Rosario","zip":4412,"svnr":1733949370},{"street":"Sauthoff","city":"La Esperanza","zip":9281,"svnr":9815211679},{"street":"Ruskin","city":"Shuidong","zip":3219,"svnr":1798895557},{"street":"Mockingbird","city":"Klwów","zip":7579,"svnr":2354982168},{"street":"Manufacturers","city":"Beicang","zip":4721,"svnr":1675638324},{"street":"Forest Run","city":"Pangawaren","zip":8832,"svnr":2891296931},{"street":"Lakewood","city":"Nagbukel","zip":9359,"svnr":7555770796},{"street":"Autumn Leaf","city":"Itacarambi","zip":1178,"svnr":3604715460},{"street":"Ludington","city":"Kisesa","zip":6251,"svnr":9625892987},{"street":"Forest Dale","city":"Las Lajas","zip":9820,"svnr":2467777372},{"street":"Harper","city":"Santo Rosario","zip":4412,"svnr":8474641705},{"street":"Sauthoff","city":"La Esperanza","zip":9281,"svnr":4538185599},{"street":"Ruskin","city":"Shuidong","zip":3219,"svnr":5141227813},{"street":"Mockingbird","city":"Klwów","zip":7579,"svnr":3763533987},{"street":"Manufacturers","city":"Beicang","zip":4721,"svnr":1991659361},{"street":"Forest Run","city":"Pangawaren","zip":8832,"svnr":4538185599},{"street":"Lakewood","city":"Nagbukel","zip":9359,"svnr":7224811721},{"street":"Autumn Leaf","city":"Itacarambi","zip":1178,"svnr":1729676769},{"street":"Ludington","city":"Kisesa","zip":6251,"svnr":7058600130},{"street":"Forest Dale","city":"Las Lajas","zip":9820,"svnr":8035288912},{"street":"Sauthoff","city":"La Esperanza","zip":9281,"svnr":3833338618},{"street":"Ruskin","city":"Shuidong","zip":3219,"svnr":4190323208},{"street":"Mockingbird","city":"Klwów","zip":7579,"svnr":1456189213},{"street":"Forest Run","city":"Pangawaren","zip":8832,"svnr":1675638324},{"street":"Lakewood","city":"Nagbukel","zip":9359,"svnr":2443148823},{"street":"Autumn Leaf","city":"Itacarambi","zip":1178,"svnr":6135540863},{"street":"Ludington","city":"Kisesa","zip":6251,"svnr":7054187618},{"street":"Forest Dale","city":"Las Lajas","zip":9820,"svnr":8183942720},{"street":"Harper","city":"Santo Rosario","zip":4412,"svnr":1635956395},{"street":"Sauthoff","city":"La Esperanza","zip":9281,"svnr":3590817198},{"street":"Ruskin","city":"Shuidong","zip":3219,"svnr":9630503771},{"street":"Mockingbird","city":"Klwów","zip":7579,"svnr":3037969896},{"street":"Manufacturers","city":"Beicang","zip":4721,"svnr":6414553407},{"street":"Forest Run","city":"Pangawaren","zip":8832,"svnr":4389609080},{"street":"Lakewood","city":"Nagbukel","zip":9359,"svnr":8926188608},{"street":"Autumn Leaf","city":"Itacarambi","zip":1178,"svnr":7839156155},{"street":"Forest Dale","city":"Las Lajas","zip":9820,"svnr":7074063441},{"street":"Harper","city":"Santo Rosario","zip":4412,"svnr":5244146548},{"street":"Sauthoff","city":"La Esperanza","zip":9281,"svnr":9739313756},{"street":"Ruskin","city":"Shuidong","zip":3219,"svnr":8580768473},{"street":"Mockingbird","city":"Klwów","zip":7579,"svnr":7014654617},{"street":"Manufacturers","city":"Beicang","zip":4721,"svnr":4063336918},{"street":"Forest Run","city":"Pangawaren","zip":8832,"svnr":5689852006},{"street":"Lakewood","city":"Nagbukel","zip":9359,"svnr":8632461235},{"street":"Autumn Leaf","city":"Itacarambi","zip":1178,"svnr":7491165957},{"street":"Ludington","city":"Kisesa","zip":6251,"svnr":7917114752},{"street":"Forest Dale","city":"Las Lajas","zip":9820,"svnr":7239763093},{"street":"Harper","city":"Santo Rosario","zip":4412,"svnr":9185273717},{"street":"Sauthoff","city":"La Esperanza","zip":9281,"svnr":5215132101},{"street":"Ruskin","city":"Shuidong","zip":3219,"svnr":1082730050},{"street":"Mockingbird","city":"Klwów","zip":7579,"svnr":1711136723},{"street":"Manufacturers","city":"Beicang","zip":4721,"svnr":7280935374},{"street":"Forest Run","city":"Pangawaren","zip":8832,"svnr":7491165957},{"street":"Autumn Leaf","city":"Itacarambi","zip":1178,"svnr":4144263365},{"street":"Ludington","city":"Kisesa","zip":6251,"svnr":7727424076},{"street":"Forest Dale","city":"Las Lajas","zip":9820,"svnr":3902852716},{"street":"Harper","city":"Santo Rosario","zip":4412,"svnr":9720824677},{"street":"Sauthoff","city":"La Esperanza","zip":9281,"svnr":2639687207},{"street":"Ruskin","city":"Shuidong","zip":3219,"svnr":3303288416},{"street":"Mockingbird","city":"Klwów","zip":7579,"svnr":4185725878},{"street":"Manufacturers","city":"Beicang","zip":4721,"svnr":5887467054},{"street":"Forest Run","city":"Pangawaren","zip":8832,"svnr":6511372092},{"street":"Lakewood","city":"Nagbukel","zip":9359,"svnr":1502297382},{"street":"Ludington","city":"Kisesa","zip":6251,"svnr":8957936226},{"street":"Forest Dale","city":"Las Lajas","zip":9820,"svnr":2627089746},{"street":"Harper","city":"Santo Rosario","zip":4412,"svnr":5032863918},{"street":"Sauthoff","city":"La Esperanza","zip":9281,"svnr":2738101667},{"street":"Mockingbird","city":"Klwów","zip":7579,"svnr":6138507797},{"street":"Manufacturers","city":"Beicang","zip":4721,"svnr":7088750799},{"street":"Forest Run","city":"Pangawaren","zip":8832,"svnr":4836271659},{"street":"Lakewood","city":"Nagbukel","zip":9359,"svnr":4052581378},{"street":"Autumn Leaf","city":"Itacarambi","zip":1178,"svnr":3636348593},{"street":"Forest Dale","city":"Las Lajas","zip":9820,"svnr":1996698438},{"street":"Harper","city":"Santo Rosario","zip":4412,"svnr":1981682358},{"street":"Sauthoff","city":"La Esperanza","zip":9281,"svnr":6800862679},{"street":"Ruskin","city":"Shuidong","zip":3219,"svnr":8404758544},{"street":"Mockingbird","city":"Klwów","zip":7579,"svnr":8305187647},{"street":"Manufacturers","city":"Beicang","zip":4721,"svnr":4658393120},{"street":"Forest Run","city":"Pangawaren","zip":8832,"svnr":8708550728},{"street":"Lakewood","city":"Nagbukel","zip":9359,"svnr":8565889579},{"street":"Autumn Leaf","city":"Itacarambi","zip":1178,"svnr":6901537291},{"street":"Ludington","city":"Kisesa","zip":6251,"svnr":9072953073},{"street":"Forest Dale","city":"Las Lajas","zip":9820,"svnr":6177202319},{"street":"Harper","city":"Santo Rosario","zip":4412,"svnr":8784187762},{"street":"Sauthoff","city":"La Esperanza","zip":9281,"svnr":8081470981},{"street":"Ruskin","city":"Shuidong","zip":3219,"svnr":9161073868},{"street":"Mockingbird","city":"Klwów","zip":7579,"svnr":8594128765},{"street":"Manufacturers","city":"Beicang","zip":4721,"svnr":8488663130},{"street":"Forest Run","city":"Pangawaren","zip":8832,"svnr":6321198796},{"street":"Lakewood","city":"Nagbukel","zip":9359,"svnr":6975489202},{"street":"Ludington","city":"Kisesa","zip":6251,"svnr":6963595157},{"street":"Forest Dale","city":"Las Lajas","zip":9820,"svnr":7502065351},{"street":"Harper","city":"Santo Rosario","zip":4412,"svnr":1840712566},{"street":"Sauthoff","city":"La Esperanza","zip":9281,"svnr":7842447237},{"street":"Ruskin","city":"Shuidong","zip":3219,"svnr":8183942720},{"street":"Mockingbird","city":"Klwów","zip":7579,"svnr":8379492792},{"street":"Manufacturers","city":"Beicang","zip":4721,"svnr":4973513791},{"street":"Forest Run","city":"Pangawaren","zip":8832,"svnr":6889185055},{"street":"Lakewood","city":"Nagbukel","zip":9359,"svnr":9668330967},{"street":"Autumn Leaf","city":"Itacarambi","zip":1178,"svnr":4074551187},{"street":"Ludington","city":"Kisesa","zip":6251,"svnr":3614575863},{"street":"Forest Dale","city":"Las Lajas","zip":9820,"svnr":1153002887},{"street":"Harper","city":"Santo Rosario","zip":4412,"svnr":3466833815},{"street":"Sauthoff","city":"La Esperanza","zip":9281,"svnr":3782529615},{"street":"Ruskin","city":"Shuidong","zip":3219,"svnr":4725828680},{"street":"Mockingbird","city":"Klwów","zip":7579,"svnr":6527247440},{"street":"Manufacturers","city":"Beicang","zip":4721,"svnr":5785277506},{"street":"Forest Run","city":"Pangawaren","zip":8832,"svnr":9707546460},{"street":"Lakewood","city":"Nagbukel","zip":9359,"svnr":1840712566},{"street":"Autumn Leaf","city":"Itacarambi","zip":1178,"svnr":7012203631},{"street":"Ludington","city":"Kisesa","zip":6251,"svnr":8784187762},{"street":"Forest Dale","city":"Las Lajas","zip":9820,"svnr":7224811721},{"street":"Sauthoff","city":"La Esperanza","zip":9281,"svnr":4190323208},{"street":"Ruskin","city":"Shuidong","zip":3219,"svnr":3557040112},{"street":"Manufacturers","city":"Beicang","zip":4721,"svnr":3477364446},{"street":"Lakewood","city":"Nagbukel","zip":9359,"svnr":9193149741},{"street":"Autumn Leaf","city":"Itacarambi","zip":1178,"svnr":6030731848},{"street":"Ludington","city":"Kisesa","zip":6251,"svnr":6030731848},{"street":"Forest Dale","city":"Las Lajas","zip":9820,"svnr":6417686955},{"street":"Harper","city":"Santo Rosario","zip":4412,"svnr":3268759403},{"street":"Sauthoff","city":"La Esperanza","zip":9281,"svnr":8944864901},{"street":"Ruskin","city":"Shuidong","zip":3219,"svnr":9324900062},{"street":"Mockingbird","city":"Klwów","zip":7579,"svnr":8745561370},{"street":"Manufacturers","city":"Beicang","zip":4721,"svnr":5895777954},{"street":"Forest Run","city":"Pangawaren","zip":8832,"svnr":7814301842},{"street":"Lakewood","city":"Nagbukel","zip":9359,"svnr":7278410330},{"street":"Autumn Leaf","city":"Itacarambi","zip":1178,"svnr":2477724279},{"street":"Ludington","city":"Kisesa","zip":6251,"svnr":3833338618},{"street":"Forest Dale","city":"Las Lajas","zip":9820,"svnr":3682196449},{"street":"Sauthoff","city":"La Esperanza","zip":9281,"svnr":5032863918},{"street":"Mockingbird","city":"Klwów","zip":7579,"svnr":4568591142},{"street":"Forest Run","city":"Pangawaren","zip":8832,"svnr":1909485290},{"street":"Lakewood","city":"Nagbukel","zip":9359,"svnr":1097931680},{"street":"Autumn Leaf","city":"Itacarambi","zip":1178,"svnr":2283676772},{"street":"Ludington","city":"Kisesa","zip":6251,"svnr":8328439185},{"street":"Forest Dale","city":"Las Lajas","zip":9820,"svnr":9577103644},{"street":"Harper","city":"Santo Rosario","zip":4412,"svnr":3341784325},{"street":"Sauthoff","city":"La Esperanza","zip":9281,"svnr":7410694560},{"street":"Ruskin","city":"Shuidong","zip":3219,"svnr":9942554804},{"street":"Mockingbird","city":"Klwów","zip":7579,"svnr":3610625659},{"street":"Manufacturers","city":"Beicang","zip":4721,"svnr":6801978924},{"street":"Forest Run","city":"Pangawaren","zip":8832,"svnr":9522624825},{"street":"Lakewood","city":"Nagbukel","zip":9359,"svnr":7863952329},{"street":"Autumn Leaf","city":"Itacarambi","zip":1178,"svnr":3442065671},{"street":"Forest Dale","city":"Las Lajas","zip":9820,"svnr":9579663775},{"street":"Harper","city":"Santo Rosario","zip":4412,"svnr":6200380167},{"street":"Sauthoff","city":"La Esperanza","zip":9281,"svnr":9770165728},{"street":"Ruskin","city":"Shuidong","zip":3219,"svnr":8632880551},{"street":"Mockingbird","city":"Klwów","zip":7579,"svnr":7275145710},{"street":"Manufacturers","city":"Beicang","zip":4721,"svnr":7917114752},{"street":"Forest Run","city":"Pangawaren","zip":8832,"svnr":4353573558},{"street":"Lakewood","city":"Nagbukel","zip":9359,"svnr":7262939591},{"street":"Autumn Leaf","city":"Itacarambi","zip":1178,"svnr":7466639450},{"street":"Ludington","city":"Kisesa","zip":6251,"svnr":9177139746},{"street":"Forest Dale","city":"Las Lajas","zip":9820,"svnr":3887835460},{"street":"Harper","city":"Santo Rosario","zip":4412,"svnr":1276474318},{"street":"Sauthoff","city":"La Esperanza","zip":9281,"svnr":7700538802},{"street":"Ruskin","city":"Shuidong","zip":3219,"svnr":6419040035},{"street":"Manufacturers","city":"Beicang","zip":4721,"svnr":1299079811},{"street":"Forest Run","city":"Pangawaren","zip":8832,"svnr":9359009187},{"street":"Autumn Leaf","city":"Itacarambi","zip":1178,"svnr":2972745107},{"street":"Ludington","city":"Kisesa","zip":6251,"svnr":3752242906},{"street":"Forest Dale","city":"Las Lajas","zip":9820,"svnr":4646022279},{"street":"Harper","city":"Santo Rosario","zip":4412,"svnr":1886655070},{"street":"Sauthoff","city":"La Esperanza","zip":9281,"svnr":1996742375},{"street":"Ruskin","city":"Shuidong","zip":3219,"svnr":9815211679},{"street":"Mockingbird","city":"Klwów","zip":7579,"svnr":5422261384},{"street":"Manufacturers","city":"Beicang","zip":4721,"svnr":6901537291},{"street":"Autumn Leaf","city":"Itacarambi","zip":1178,"svnr":5883701980},{"street":"Ludington","city":"Kisesa","zip":6251,"svnr":7803427619},{"street":"Forest Dale","city":"Las Lajas","zip":9820,"svnr":3477364446},{"street":"Harper","city":"Santo Rosario","zip":4412,"svnr":6366681116},{"street":"Sauthoff","city":"La Esperanza","zip":9281,"svnr":7882398225},{"street":"Ruskin","city":"Shuidong","zip":3219,"svnr":2089600256},{"street":"Mockingbird","city":"Klwów","zip":7579,"svnr":4153949836},{"street":"Manufacturers","city":"Beicang","zip":4721,"svnr":4147015565},{"street":"Forest Run","city":"Pangawaren","zip":8832,"svnr":7761846624},{"street":"Lakewood","city":"Nagbukel","zip":9359,"svnr":2106113937},{"street":"Autumn Leaf","city":"Itacarambi","zip":1178,"svnr":6591715571},{"street":"Ludington","city":"Kisesa","zip":6251,"svnr":3811549938},{"street":"Forest Dale","city":"Las Lajas","zip":9820,"svnr":5116575796},{"street":"Harper","city":"Santo Rosario","zip":4412,"svnr":9774163127},{"street":"Ruskin","city":"Shuidong","zip":3219,"svnr":4578398335},{"street":"Mockingbird","city":"Klwów","zip":7579,"svnr":5215132101},{"street":"Forest Run","city":"Pangawaren","zip":8832,"svnr":6928829415},{"street":"Lakewood","city":"Nagbukel","zip":9359,"svnr":4485474593},{"street":"Autumn Leaf","city":"Itacarambi","zip":1178,"svnr":1195174894},{"street":"Ludington","city":"Kisesa","zip":6251,"svnr":3468150923},{"street":"Forest Dale","city":"Las Lajas","zip":9820,"svnr":1056599258},{"street":"Harper","city":"Santo Rosario","zip":4412,"svnr":1512163883},{"street":"Sauthoff","city":"La Esperanza","zip":9281,"svnr":6975489202},{"street":"Ruskin","city":"Shuidong","zip":3219,"svnr":6920632560},{"street":"Mockingbird","city":"Klwów","zip":7579,"svnr":4067750387},{"street":"Manufacturers","city":"Beicang","zip":4721,"svnr":2403820745},{"street":"Forest Run","city":"Pangawaren","zip":8832,"svnr":1672400477},{"street":"Lakewood","city":"Nagbukel","zip":9359,"svnr":2779564870},{"street":"Harper","city":"Santo Rosario","zip":4412,"svnr":5667261343},{"street":"Sauthoff","city":"La Esperanza","zip":9281,"svnr":9219592074},{"street":"Ruskin","city":"Shuidong","zip":3219,"svnr":1474926407},{"street":"Mockingbird","city":"Klwów","zip":7579,"svnr":8452738215},{"street":"Manufacturers","city":"Beicang","zip":4721,"svnr":8211789101},{"street":"Forest Run","city":"Pangawaren","zip":8832,"svnr":2779564870},{"street":"Lakewood","city":"Nagbukel","zip":9359,"svnr":1195174894},{"street":"Autumn Leaf","city":"Itacarambi","zip":1178,"svnr":4834209887},{"street":"Ludington","city":"Kisesa","zip":6251,"svnr":8756475084},{"street":"Forest Dale","city":"Las Lajas","zip":9820,"svnr":5240645647},{"street":"Harper","city":"Santo Rosario","zip":4412,"svnr":3811549938},{"street":"Sauthoff","city":"La Esperanza","zip":9281,"svnr":3029765962},{"street":"Ruskin","city":"Shuidong","zip":3219,"svnr":2962401879},{"street":"Mockingbird","city":"Klwów","zip":7579,"svnr":1981682358},{"street":"Manufacturers","city":"Beicang","zip":4721,"svnr":9983982450},{"street":"Forest Run","city":"Pangawaren","zip":8832,"svnr":6414553407},{"street":"Lakewood","city":"Nagbukel","zip":9359,"svnr":7842447237},{"street":"Autumn Leaf","city":"Itacarambi","zip":1178,"svnr":8313918196},{"street":"Ludington","city":"Kisesa","zip":6251,"svnr":5252701574},{"street":"Forest Dale","city":"Las Lajas","zip":9820,"svnr":3831156679},{"street":"Harper","city":"Santo Rosario","zip":4412,"svnr":6980336277},{"street":"Sauthoff","city":"La Esperanza","zip":9281,"svnr":3347657335},{"street":"Ruskin","city":"Shuidong","zip":3219,"svnr":1056080306},{"street":"Mockingbird","city":"Klwów","zip":7579,"svnr":2666736461},{"street":"Manufacturers","city":"Beicang","zip":4721,"svnr":1279825153},{"street":"Forest Run","city":"Pangawaren","zip":8832,"svnr":9072953073},{"street":"Lakewood","city":"Nagbukel","zip":9359,"svnr":8424056772},{"street":"Autumn Leaf","city":"Itacarambi","zip":1178,"svnr":1480529929},{"street":"Ludington","city":"Kisesa","zip":6251,"svnr":5689609985},{"street":"Forest Dale","city":"Las Lajas","zip":9820,"svnr":9724031647},{"street":"Harper","city":"Santo Rosario","zip":4412,"svnr":8944864901},{"street":"Sauthoff","city":"La Esperanza","zip":9281,"svnr":6980336277},{"street":"Ruskin","city":"Shuidong","zip":3219,"svnr":6393075682},{"street":"Mockingbird","city":"Klwów","zip":7579,"svnr":8724523295},{"street":"Manufacturers","city":"Beicang","zip":4721,"svnr":3176197934},{"street":"Forest Run","city":"Pangawaren","zip":8832,"svnr":3833338618},{"street":"Lakewood","city":"Nagbukel","zip":9359,"svnr":1551404586},{"street":"Ludington","city":"Kisesa","zip":6251,"svnr":8086310009},{"street":"Forest Dale","city":"Las Lajas","zip":9820,"svnr":2335153773},{"street":"Harper","city":"Santo Rosario","zip":4412,"svnr":8390861504},{"street":"Sauthoff","city":"La Esperanza","zip":9281,"svnr":2779564870},{"street":"Ruskin","city":"Shuidong","zip":3219,"svnr":5895777954},{"street":"Mockingbird","city":"Klwów","zip":7579,"svnr":9595085368},{"street":"Manufacturers","city":"Beicang","zip":4721,"svnr":6271163383},{"street":"Forest Run","city":"Pangawaren","zip":8832,"svnr":6177202319},{"street":"Lakewood","city":"Nagbukel","zip":9359,"svnr":1221983542},{"street":"Autumn Leaf","city":"Itacarambi","zip":1178,"svnr":3428811638},{"street":"Ludington","city":"Kisesa","zip":6251,"svnr":3766352788},{"street":"Harper","city":"Santo Rosario","zip":4412,"svnr":2002722668},{"street":"Sauthoff","city":"La Esperanza","zip":9281,"svnr":3999322804},{"street":"Ruskin","city":"Shuidong","zip":3219,"svnr":7877545440},{"street":"Mockingbird","city":"Klwów","zip":7579,"svnr":2477724279},{"street":"Manufacturers","city":"Beicang","zip":4721,"svnr":7452384328},{"street":"Forest Run","city":"Pangawaren","zip":8832,"svnr":1715751449},{"street":"Lakewood","city":"Nagbukel","zip":9359,"svnr":8575315922},{"street":"Autumn Leaf","city":"Itacarambi","zip":1178,"svnr":1508596194},{"street":"Ludington","city":"Kisesa","zip":6251,"svnr":9219716584},{"street":"Forest Dale","city":"Las Lajas","zip":9820,"svnr":6431818708},{"street":"Sauthoff","city":"La Esperanza","zip":9281,"svnr":2477724279},{"street":"Ruskin","city":"Shuidong","zip":3219,"svnr":4520502556},{"street":"Mockingbird","city":"Klwów","zip":7579,"svnr":5973825972},{"street":"Manufacturers","city":"Beicang","zip":4721,"svnr":8575315922},{"street":"Forest Run","city":"Pangawaren","zip":8832,"svnr":5424240701},{"street":"Autumn Leaf","city":"Itacarambi","zip":1178,"svnr":4037566826},{"street":"Ludington","city":"Kisesa","zip":6251,"svnr":8035288912},{"street":"Forest Dale","city":"Las Lajas","zip":9820,"svnr":6131056079},{"street":"Harper","city":"Santo Rosario","zip":4412,"svnr":1000835662},{"street":"Sauthoff","city":"La Esperanza","zip":9281,"svnr":7607252404},{"street":"Ruskin","city":"Shuidong","zip":3219,"svnr":5674233710},{"street":"Mockingbird","city":"Klwów","zip":7579,"svnr":9027390693},{"street":"Forest Run","city":"Pangawaren","zip":8832,"svnr":2369597398},{"street":"Lakewood","city":"Nagbukel","zip":9359,"svnr":2572138667},{"street":"Autumn Leaf","city":"Itacarambi","zip":1178,"svnr":7917114752},{"street":"Ludington","city":"Kisesa","zip":6251,"svnr":5333073988},{"street":"Forest Dale","city":"Las Lajas","zip":9820,"svnr":9465950855},{"street":"Harper","city":"Santo Rosario","zip":4412,"svnr":1269444208},{"street":"Sauthoff","city":"La Esperanza","zip":9281,"svnr":1929970726},{"street":"Ruskin","city":"Shuidong","zip":3219,"svnr":8784187762},{"street":"Mockingbird","city":"Klwów","zip":7579,"svnr":3029080145},{"street":"Manufacturers","city":"Beicang","zip":4721,"svnr":4576497904},{"street":"Forest Run","city":"Pangawaren","zip":8832,"svnr":7443682045},{"street":"Lakewood","city":"Nagbukel","zip":9359,"svnr":3343359106},{"street":"Autumn Leaf","city":"Itacarambi","zip":1178,"svnr":6645265365},{"street":"Ludington","city":"Kisesa","zip":6251,"svnr":6501612068},{"street":"Forest Dale","city":"Las Lajas","zip":9820,"svnr":6444660678},{"street":"Harper","city":"Santo Rosario","zip":4412,"svnr":7188650794},{"street":"Sauthoff","city":"La Esperanza","zip":9281,"svnr":3942956078},{"street":"Ruskin","city":"Shuidong","zip":3219,"svnr":6045184900},{"street":"Manufacturers","city":"Beicang","zip":4721,"svnr":5955943783},{"street":"Lakewood","city":"Nagbukel","zip":9359,"svnr":1592877654},{"street":"Autumn Leaf","city":"Itacarambi","zip":1178,"svnr":2106113937},{"street":"Ludington","city":"Kisesa","zip":6251,"svnr":6046744062},{"street":"Forest Dale","city":"Las Lajas","zip":9820,"svnr":5837822298},{"street":"Harper","city":"Santo Rosario","zip":4412,"svnr":5621879072},{"street":"Ruskin","city":"Shuidong","zip":3219,"svnr":9921869825},{"street":"Mockingbird","city":"Klwów","zip":7579,"svnr":5417831065},{"street":"Manufacturers","city":"Beicang","zip":4721,"svnr":4797263265},{"street":"Forest Run","city":"Pangawaren","zip":8832,"svnr":4061453602},{"street":"Lakewood","city":"Nagbukel","zip":9359,"svnr":7209342797},{"street":"Autumn Leaf","city":"Itacarambi","zip":1178,"svnr":4973513791},{"street":"Ludington","city":"Kisesa","zip":6251,"svnr":7877545440},{"street":"Forest Dale","city":"Las Lajas","zip":9820,"svnr":6163675538},{"street":"Harper","city":"Santo Rosario","zip":4412,"svnr":4970305326},{"street":"Sauthoff","city":"La Esperanza","zip":9281,"svnr":8431034487},{"street":"Ruskin","city":"Shuidong","zip":3219,"svnr":2726807641},{"street":"Mockingbird","city":"Klwów","zip":7579,"svnr":6045184900},{"street":"Manufacturers","city":"Beicang","zip":4721,"svnr":4661891800},{"street":"Lakewood","city":"Nagbukel","zip":9359,"svnr":6004318684},{"street":"Autumn Leaf","city":"Itacarambi","zip":1178,"svnr":1243433583},{"street":"Ludington","city":"Kisesa","zip":6251,"svnr":9942554804},{"street":"Forest Dale","city":"Las Lajas","zip":9820,"svnr":6029933153},{"street":"Harper","city":"Santo Rosario","zip":4412,"svnr":8925627737},{"street":"Sauthoff","city":"La Esperanza","zip":9281,"svnr":4682070693},{"street":"Ruskin","city":"Shuidong","zip":3219,"svnr":2755655932},{"street":"Mockingbird","city":"Klwów","zip":7579,"svnr":8146602218},{"street":"Manufacturers","city":"Beicang","zip":4721,"svnr":4260305718},{"street":"Forest Run","city":"Pangawaren","zip":8832,"svnr":5185854462},{"street":"Lakewood","city":"Nagbukel","zip":9359,"svnr":2277415045},{"street":"Autumn Leaf","city":"Itacarambi","zip":1178,"svnr":8708550728},{"street":"Ludington","city":"Kisesa","zip":6251,"svnr":2984168681},{"street":"Forest Dale","city":"Las Lajas","zip":9820,"svnr":9942554804},{"street":"Harper","city":"Santo Rosario","zip":4412,"svnr":6667045486},{"street":"Sauthoff","city":"La Esperanza","zip":9281,"svnr":5511620766},{"street":"Ruskin","city":"Shuidong","zip":3219,"svnr":9002058275},{"street":"Mockingbird","city":"Klwów","zip":7579,"svnr":1269444208},{"street":"Manufacturers","city":"Beicang","zip":4721,"svnr":1005600707},{"street":"Lakewood","city":"Nagbukel","zip":9359,"svnr":6290414048},{"street":"Autumn Leaf","city":"Itacarambi","zip":1178,"svnr":5272095221},{"street":"Ludington","city":"Kisesa","zip":6251,"svnr":5229650634},{"street":"Forest Dale","city":"Las Lajas","zip":9820,"svnr":3491343920},{"street":"Sauthoff","city":"La Esperanza","zip":9281,"svnr":3027510266},{"street":"Ruskin","city":"Shuidong","zip":3219,"svnr":3844141633},{"street":"Mockingbird","city":"Klwów","zip":7579,"svnr":3887835460},{"street":"Manufacturers","city":"Beicang","zip":4721,"svnr":2180218699},{"street":"Forest Run","city":"Pangawaren","zip":8832,"svnr":2150423683},{"street":"Lakewood","city":"Nagbukel","zip":9359,"svnr":8452738215},{"street":"Autumn Leaf","city":"Itacarambi","zip":1178,"svnr":7400269042},{"street":"Ludington","city":"Kisesa","zip":6251,"svnr":6720981066},{"street":"Forest Dale","city":"Las Lajas","zip":9820,"svnr":6014185652},{"street":"Harper","city":"Santo Rosario","zip":4412,"svnr":3754363428},{"street":"Sauthoff","city":"La Esperanza","zip":9281,"svnr":7056411304},{"street":"Ruskin","city":"Shuidong","zip":3219,"svnr":3069705100},{"street":"Mockingbird","city":"Klwów","zip":7579,"svnr":3953810966},{"street":"Manufacturers","city":"Beicang","zip":4721,"svnr":1828378686},{"street":"Forest Run","city":"Pangawaren","zip":8832,"svnr":1221983542},{"street":"Lakewood","city":"Nagbukel","zip":9359,"svnr":1798895557},{"street":"Forest Dale","city":"Las Lajas","zip":9820,"svnr":8394807428},{"street":"Harper","city":"Santo Rosario","zip":4412,"svnr":3798949471},{"street":"Sauthoff","city":"La Esperanza","zip":9281,"svnr":4269284048},{"street":"Ruskin","city":"Shuidong","zip":3219,"svnr":1996698438},{"street":"Mockingbird","city":"Klwów","zip":7579,"svnr":9579663775},{"street":"Forest Run","city":"Pangawaren","zip":8832,"svnr":6891517092},{"street":"Lakewood","city":"Nagbukel","zip":9359,"svnr":1929970726},{"street":"Autumn Leaf","city":"Itacarambi","zip":1178,"svnr":6348010578},{"street":"Ludington","city":"Kisesa","zip":6251,"svnr":6393075682},{"street":"Forest Dale","city":"Las Lajas","zip":9820,"svnr":2283676772},{"street":"Harper","city":"Santo Rosario","zip":4412,"svnr":6290414048},{"street":"Sauthoff","city":"La Esperanza","zip":9281,"svnr":9585479694},{"street":"Ruskin","city":"Shuidong","zip":3219,"svnr":8432782580},{"street":"Mockingbird","city":"Klwów","zip":7579,"svnr":5926525794},{"street":"Manufacturers","city":"Beicang","zip":4721,"svnr":9493985843},{"street":"Lakewood","city":"Nagbukel","zip":9359,"svnr":5729885355},{"street":"Autumn Leaf","city":"Itacarambi","zip":1178,"svnr":2726807641},{"street":"Ludington","city":"Kisesa","zip":6251,"svnr":7116414894},{"street":"Forest Dale","city":"Las Lajas","zip":9820,"svnr":8558564293},{"street":"Harper","city":"Santo Rosario","zip":4412,"svnr":6059244281},{"street":"Sauthoff","city":"La Esperanza","zip":9281,"svnr":1179496603},{"street":"Ruskin","city":"Shuidong","zip":3219,"svnr":7012203631},{"street":"Mockingbird","city":"Klwów","zip":7579,"svnr":9921869825},{"street":"Manufacturers","city":"Beicang","zip":4721,"svnr":5350752458},{"street":"Lakewood","city":"Nagbukel","zip":9359,"svnr":2738101667},{"street":"Autumn Leaf","city":"Itacarambi","zip":1178,"svnr":8379492792},{"street":"Ludington","city":"Kisesa","zip":6251,"svnr":8580768473},{"street":"Forest Dale","city":"Las Lajas","zip":9820,"svnr":8814195720},{"street":"Harper","city":"Santo Rosario","zip":4412,"svnr":1763166853},{"street":"Sauthoff","city":"La Esperanza","zip":9281,"svnr":8616091024},{"street":"Ruskin","city":"Shuidong","zip":3219,"svnr":9335095713},{"street":"Mockingbird","city":"Klwów","zip":7579,"svnr":6007158577},{"street":"Lakewood","city":"Nagbukel","zip":9359,"svnr":2902934744},{"street":"Autumn Leaf","city":"Itacarambi","zip":1178,"svnr":6282005078},{"street":"Ludington","city":"Kisesa","zip":6251,"svnr":7164521369},{"street":"Forest Dale","city":"Las Lajas","zip":9820,"svnr":2249990890},{"street":"Harper","city":"Santo Rosario","zip":4412,"svnr":1474926407},{"street":"Sauthoff","city":"La Esperanza","zip":9281,"svnr":7641506231},{"street":"Ruskin","city":"Shuidong","zip":3219,"svnr":9720824677},{"street":"Mockingbird","city":"Klwów","zip":7579,"svnr":6251253132},{"street":"Forest Run","city":"Pangawaren","zip":8832,"svnr":8895325790},{"street":"Lakewood","city":"Nagbukel","zip":9359,"svnr":6051296787},{"street":"Autumn Leaf","city":"Itacarambi","zip":1178,"svnr":1510914571},{"street":"Ludington","city":"Kisesa","zip":6251,"svnr":4058773050},{"street":"Forest Dale","city":"Las Lajas","zip":9820,"svnr":1099547534},{"street":"Harper","city":"Santo Rosario","zip":4412,"svnr":9193149741},{"street":"Sauthoff","city":"La Esperanza","zip":9281,"svnr":7467648408},{"street":"Mockingbird","city":"Klwów","zip":7579,"svnr":3131687474},{"street":"Manufacturers","city":"Beicang","zip":4721,"svnr":3633131317},{"street":"Forest Run","city":"Pangawaren","zip":8832,"svnr":6431818708},{"street":"Lakewood","city":"Nagbukel","zip":9359,"svnr":5828129062},{"street":"Autumn Leaf","city":"Itacarambi","zip":1178,"svnr":4561116662},{"street":"Ludington","city":"Kisesa","zip":6251,"svnr":5121388804},{"street":"Forest Dale","city":"Las Lajas","zip":9820,"svnr":7193413635},{"street":"Harper","city":"Santo Rosario","zip":4412,"svnr":9115601687},{"street":"Sauthoff","city":"La Esperanza","zip":9281,"svnr":8557474489},{"street":"Ruskin","city":"Shuidong","zip":3219,"svnr":6319442779},{"street":"Mockingbird","city":"Klwów","zip":7579,"svnr":4793223845},{"street":"Manufacturers","city":"Beicang","zip":4721,"svnr":7185479884},{"street":"Forest Run","city":"Pangawaren","zip":8832,"svnr":2089600256},{"street":"Lakewood","city":"Nagbukel","zip":9359,"svnr":9421534700},{"street":"Autumn Leaf","city":"Itacarambi","zip":1178,"svnr":3288029802},{"street":"Ludington","city":"Kisesa","zip":6251,"svnr":2277415045},{"street":"Forest Dale","city":"Las Lajas","zip":9820,"svnr":5422476778},{"street":"Harper","city":"Santo Rosario","zip":4412,"svnr":1436670717},{"street":"Sauthoff","city":"La Esperanza","zip":9281,"svnr":1389017967},{"street":"Ruskin","city":"Shuidong","zip":3219,"svnr":8072174229},{"street":"Mockingbird","city":"Klwów","zip":7579,"svnr":9009980731},{"street":"Manufacturers","city":"Beicang","zip":4721,"svnr":1000055316},{"street":"Lakewood","city":"Nagbukel","zip":9359,"svnr":4244370113},{"street":"Autumn Leaf","city":"Itacarambi","zip":1178,"svnr":8837928796},{"street":"Ludington","city":"Kisesa","zip":6251,"svnr":1967083469},{"street":"Forest Dale","city":"Las Lajas","zip":9820,"svnr":4772104885},{"street":"Harper","city":"Santo Rosario","zip":4412,"svnr":7722626944},{"street":"Sauthoff","city":"La Esperanza","zip":9281,"svnr":7010286214},{"street":"Ruskin","city":"Shuidong","zip":3219,"svnr":2465455240},{"street":"Mockingbird","city":"Klwów","zip":7579,"svnr":9731030921},{"street":"Manufacturers","city":"Beicang","zip":4721,"svnr":1056599258},{"street":"Forest Run","city":"Pangawaren","zip":8832,"svnr":1828378686},{"street":"Lakewood","city":"Nagbukel","zip":9359,"svnr":1508596194},{"street":"Autumn Leaf","city":"Itacarambi","zip":1178,"svnr":9720824677},{"street":"Ludington","city":"Kisesa","zip":6251,"svnr":2898934923},{"street":"Forest Dale","city":"Las Lajas","zip":9820,"svnr":5595719225},{"street":"Harper","city":"Santo Rosario","zip":4412,"svnr":5464593035},{"street":"Sauthoff","city":"La Esperanza","zip":9281,"svnr":1056080306},{"street":"Ruskin","city":"Shuidong","zip":3219,"svnr":1973925955},{"street":"Mockingbird","city":"Klwów","zip":7579,"svnr":8035288912},{"street":"Manufacturers","city":"Beicang","zip":4721,"svnr":1512163883},{"street":"Forest Run","city":"Pangawaren","zip":8832,"svnr":3806057693},{"street":"Lakewood","city":"Nagbukel","zip":9359,"svnr":9119166846},{"street":"Autumn Leaf","city":"Itacarambi","zip":1178,"svnr":9457750470},{"street":"Ludington","city":"Kisesa","zip":6251,"svnr":5317033095},{"street":"Forest Dale","city":"Las Lajas","zip":9820,"svnr":2898934923},{"street":"Harper","city":"Santo Rosario","zip":4412,"svnr":1974646656},{"street":"Sauthoff","city":"La Esperanza","zip":9281,"svnr":8340024150},{"street":"Ruskin","city":"Shuidong","zip":3219,"svnr":4877349891},{"street":"Mockingbird","city":"Klwów","zip":7579,"svnr":8895163268},{"street":"Manufacturers","city":"Beicang","zip":4721,"svnr":6166949383},{"street":"Forest Run","city":"Pangawaren","zip":8832,"svnr":3186869332},{"street":"Lakewood","city":"Nagbukel","zip":9359,"svnr":8072174229},{"street":"Autumn Leaf","city":"Itacarambi","zip":1178,"svnr":7205405306},{"street":"Ludington","city":"Kisesa","zip":6251,"svnr":3029765962},{"street":"Forest Dale","city":"Las Lajas","zip":9820,"svnr":7842447237},{"street":"Harper","city":"Santo Rosario","zip":4412,"svnr":7007220741},{"street":"Sauthoff","city":"La Esperanza","zip":9281,"svnr":9728114155},{"street":"Ruskin","city":"Shuidong","zip":3219,"svnr":1502297382},{"street":"Mockingbird","city":"Klwów","zip":7579,"svnr":4269284048},{"street":"Manufacturers","city":"Beicang","zip":4721,"svnr":9825174633},{"street":"Forest Run","city":"Pangawaren","zip":8832,"svnr":1456189213},{"street":"Lakewood","city":"Nagbukel","zip":9359,"svnr":5785277506},{"street":"Autumn Leaf","city":"Itacarambi","zip":1178,"svnr":6891517092},{"street":"Ludington","city":"Kisesa","zip":6251,"svnr":9579663775},{"street":"Forest Dale","city":"Las Lajas","zip":9820,"svnr":8306722264},{"street":"Harper","city":"Santo Rosario","zip":4412,"svnr":2709771697},{"street":"Sauthoff","city":"La Esperanza","zip":9281,"svnr":4980639698},{"street":"Ruskin","city":"Shuidong","zip":3219,"svnr":6374365813},{"street":"Mockingbird","city":"Klwów","zip":7579,"svnr":9736718704},{"street":"Manufacturers","city":"Beicang","zip":4721,"svnr":7209342797},{"street":"Forest Run","city":"Pangawaren","zip":8832,"svnr":6444660678},{"street":"Lakewood","city":"Nagbukel","zip":9359,"svnr":2053347856},{"street":"Autumn Leaf","city":"Itacarambi","zip":1178,"svnr":6766882338},{"street":"Ludington","city":"Kisesa","zip":6251,"svnr":1465086439},{"street":"Forest Dale","city":"Las Lajas","zip":9820,"svnr":2168234286},{"street":"Harper","city":"Santo Rosario","zip":4412,"svnr":7477120440},{"street":"Sauthoff","city":"La Esperanza","zip":9281,"svnr":9894468657},{"street":"Ruskin","city":"Shuidong","zip":3219,"svnr":7179441576},{"street":"Mockingbird","city":"Klwów","zip":7579,"svnr":7116414894},{"street":"Manufacturers","city":"Beicang","zip":4721,"svnr":1592877654},{"street":"Lakewood","city":"Nagbukel","zip":9359,"svnr":9827130882},{"street":"Autumn Leaf","city":"Itacarambi","zip":1178,"svnr":9812175948},{"street":"Ludington","city":"Kisesa","zip":6251,"svnr":4603002693},{"street":"Harper","city":"Santo Rosario","zip":4412,"svnr":4161975668},{"street":"Sauthoff","city":"La Esperanza","zip":9281,"svnr":6431818708},{"street":"Ruskin","city":"Shuidong","zip":3219,"svnr":2793659570},{"street":"Mockingbird","city":"Klwów","zip":7579,"svnr":4944286726},{"street":"Manufacturers","city":"Beicang","zip":4721,"svnr":4018397593},{"street":"Forest Run","city":"Pangawaren","zip":8832,"svnr":4058773050},{"street":"Lakewood","city":"Nagbukel","zip":9359,"svnr":8357019868},{"street":"Autumn Leaf","city":"Itacarambi","zip":1178,"svnr":2126303632},{"street":"Ludington","city":"Kisesa","zip":6251,"svnr":3125806051},{"street":"Harper","city":"Santo Rosario","zip":4412,"svnr":6166949383},{"street":"Sauthoff","city":"La Esperanza","zip":9281,"svnr":2631372301},{"street":"Ruskin","city":"Shuidong","zip":3219,"svnr":7178360187},{"street":"Mockingbird","city":"Klwów","zip":7579,"svnr":2369597398},{"street":"Manufacturers","city":"Beicang","zip":4721,"svnr":4111380581},{"street":"Lakewood","city":"Nagbukel","zip":9359,"svnr":7569837735},{"street":"Ludington","city":"Kisesa","zip":6251,"svnr":4067750387},{"street":"Forest Dale","city":"Las Lajas","zip":9820,"svnr":3303288416},{"street":"Harper","city":"Santo Rosario","zip":4412,"svnr":9219716584},{"street":"Mockingbird","city":"Klwów","zip":7579,"svnr":4383583309},{"street":"Manufacturers","city":"Beicang","zip":4721,"svnr":1981682358},{"street":"Forest Run","city":"Pangawaren","zip":8832,"svnr":8913448793},{"street":"Lakewood","city":"Nagbukel","zip":9359,"svnr":9091297661},{"street":"Autumn Leaf","city":"Itacarambi","zip":1178,"svnr":3913740511},{"street":"Ludington","city":"Kisesa","zip":6251,"svnr":8537071985},{"street":"Harper","city":"Santo Rosario","zip":4412,"svnr":6393075682},{"street":"Sauthoff","city":"La Esperanza","zip":9281,"svnr":3131687474},{"street":"Ruskin","city":"Shuidong","zip":3219,"svnr":5066643991},{"street":"Mockingbird","city":"Klwów","zip":7579,"svnr":8575315922},{"street":"Manufacturers","city":"Beicang","zip":4721,"svnr":8895163268},{"street":"Autumn Leaf","city":"Itacarambi","zip":1178,"svnr":1566931872},{"street":"Forest Dale","city":"Las Lajas","zip":9820,"svnr":4613179826},{"street":"Harper","city":"Santo Rosario","zip":4412,"svnr":3739200092},{"street":"Sauthoff","city":"La Esperanza","zip":9281,"svnr":7797747625},{"street":"Mockingbird","city":"Klwów","zip":7579,"svnr":6163675538},{"street":"Manufacturers","city":"Beicang","zip":4721,"svnr":5317033095},{"street":"Forest Run","city":"Pangawaren","zip":8832,"svnr":4973513791},{"street":"Lakewood","city":"Nagbukel","zip":9359,"svnr":7192752132},{"street":"Autumn Leaf","city":"Itacarambi","zip":1178,"svnr":9625892987},{"street":"Ludington","city":"Kisesa","zip":6251,"svnr":4244370113},{"street":"Forest Dale","city":"Las Lajas","zip":9820,"svnr":7477120440},{"street":"Harper","city":"Santo Rosario","zip":4412,"svnr":6668790416},{"street":"Sauthoff","city":"La Esperanza","zip":9281,"svnr":4353573558},{"street":"Ruskin","city":"Shuidong","zip":3219,"svnr":2216435068},{"street":"Mockingbird","city":"Klwów","zip":7579,"svnr":7887904503},{"street":"Manufacturers","city":"Beicang","zip":4721,"svnr":7125332639},{"street":"Forest Run","city":"Pangawaren","zip":8832,"svnr":8913795808},{"street":"Autumn Leaf","city":"Itacarambi","zip":1178,"svnr":4216349426},{"street":"Harper","city":"Santo Rosario","zip":4412,"svnr":2984168681},{"street":"Sauthoff","city":"La Esperanza","zip":9281,"svnr":2303035003},{"street":"Ruskin","city":"Shuidong","zip":3219,"svnr":7964715779},{"street":"Mockingbird","city":"Klwów","zip":7579,"svnr":5469995084},{"street":"Manufacturers","city":"Beicang","zip":4721,"svnr":6183430973},{"street":"Forest Run","city":"Pangawaren","zip":8832,"svnr":2378180514},{"street":"Lakewood","city":"Nagbukel","zip":9359,"svnr":7204354312},{"street":"Autumn Leaf","city":"Itacarambi","zip":1178,"svnr":9131451867},{"street":"Forest Dale","city":"Las Lajas","zip":9820,"svnr":9774163127},{"street":"Harper","city":"Santo Rosario","zip":4412,"svnr":9017542487},{"street":"Sauthoff","city":"La Esperanza","zip":9281,"svnr":2249990890},{"street":"Ruskin","city":"Shuidong","zip":3219,"svnr":7491165957},{"street":"Mockingbird","city":"Klwów","zip":7579,"svnr":6963595157},{"street":"Manufacturers","city":"Beicang","zip":4721,"svnr":3131687474},{"street":"Forest Run","city":"Pangawaren","zip":8832,"svnr":9045560100},{"street":"Lakewood","city":"Nagbukel","zip":9359,"svnr":7088750799},{"street":"Autumn Leaf","city":"Itacarambi","zip":1178,"svnr":3107978698},{"street":"Ludington","city":"Kisesa","zip":6251,"svnr":7912384686},{"street":"Forest Dale","city":"Las Lajas","zip":9820,"svnr":3085754979},{"street":"Harper","city":"Santo Rosario","zip":4412,"svnr":2277415045},{"street":"Sauthoff","city":"La Esperanza","zip":9281,"svnr":4153949836},{"street":"Ruskin","city":"Shuidong","zip":3219,"svnr":8516507652},{"street":"Mockingbird","city":"Klwów","zip":7579,"svnr":6980336277},{"street":"Manufacturers","city":"Beicang","zip":4721,"svnr":2126303632},{"street":"Lakewood","city":"Nagbukel","zip":9359,"svnr":1563758101},{"street":"Autumn Leaf","city":"Itacarambi","zip":1178,"svnr":4383583309},{"street":"Ludington","city":"Kisesa","zip":6251,"svnr":5000022041},{"street":"Forest Dale","city":"Las Lajas","zip":9820,"svnr":4208479562},{"street":"Harper","city":"Santo Rosario","zip":4412,"svnr":6135540863},{"street":"Sauthoff","city":"La Esperanza","zip":9281,"svnr":3151309066},{"street":"Ruskin","city":"Shuidong","zip":3219,"svnr":8390861504},{"street":"Mockingbird","city":"Klwów","zip":7579,"svnr":6166949383},{"street":"Manufacturers","city":"Beicang","zip":4721,"svnr":1156392036},{"street":"Forest Run","city":"Pangawaren","zip":8832,"svnr":1391492874},{"street":"Lakewood","city":"Nagbukel","zip":9359,"svnr":2937739981},{"street":"Ludington","city":"Kisesa","zip":6251,"svnr":8978035776},{"street":"Sauthoff","city":"La Esperanza","zip":9281,"svnr":6311297504},{"street":"Ruskin","city":"Shuidong","zip":3219,"svnr":2087904122},{"street":"Mockingbird","city":"Klwów","zip":7579,"svnr":1474926407},{"street":"Forest Run","city":"Pangawaren","zip":8832,"svnr":8713846703},{"street":"Lakewood","city":"Nagbukel","zip":9359,"svnr":2147788060},{"street":"Autumn Leaf","city":"Itacarambi","zip":1178,"svnr":3564984026},{"street":"Ludington","city":"Kisesa","zip":6251,"svnr":9983982450},{"street":"Forest Dale","city":"Las Lajas","zip":9820,"svnr":6975489202},{"street":"Harper","city":"Santo Rosario","zip":4412,"svnr":5109614131},{"street":"Sauthoff","city":"La Esperanza","zip":9281,"svnr":9332708523},{"street":"Ruskin","city":"Shuidong","zip":3219,"svnr":3158132104},{"street":"Mockingbird","city":"Klwów","zip":7579,"svnr":7020535734},{"street":"Manufacturers","city":"Beicang","zip":4721,"svnr":2659225812},{"street":"Forest Run","city":"Pangawaren","zip":8832,"svnr":7722626944},{"street":"Ludington","city":"Kisesa","zip":6251,"svnr":8807785497},{"street":"Forest Dale","city":"Las Lajas","zip":9820,"svnr":2053347856},{"street":"Sauthoff","city":"La Esperanza","zip":9281,"svnr":7193413635},{"street":"Ruskin","city":"Shuidong","zip":3219,"svnr":2013480421},{"street":"Mockingbird","city":"Klwów","zip":7579,"svnr":1443992714},{"street":"Manufacturers","city":"Beicang","zip":4721,"svnr":5804141129},{"street":"Forest Run","city":"Pangawaren","zip":8832,"svnr":8357019868},{"street":"Autumn Leaf","city":"Itacarambi","zip":1178,"svnr":5416549518},{"street":"Ludington","city":"Kisesa","zip":6251,"svnr":8557474489},{"street":"Forest Dale","city":"Las Lajas","zip":9820,"svnr":8026934313},{"street":"Sauthoff","city":"La Esperanza","zip":9281,"svnr":2167726917},{"street":"Ruskin","city":"Shuidong","zip":3219,"svnr":9027390693},{"street":"Mockingbird","city":"Klwów","zip":7579,"svnr":1096544099},{"street":"Manufacturers","city":"Beicang","zip":4721,"svnr":3303288416},{"street":"Forest Run","city":"Pangawaren","zip":8832,"svnr":6417686955},{"street":"Lakewood","city":"Nagbukel","zip":9359,"svnr":7280935374},{"street":"Ludington","city":"Kisesa","zip":6251,"svnr":7315766179},{"street":"Forest Dale","city":"Las Lajas","zip":9820,"svnr":3037969896},{"street":"Harper","city":"Santo Rosario","zip":4412,"svnr":4520502556},{"street":"Sauthoff","city":"La Esperanza","zip":9281,"svnr":8580768473},{"street":"Ruskin","city":"Shuidong","zip":3219,"svnr":1571259602},{"street":"Mockingbird","city":"Klwów","zip":7579,"svnr":6998216099},{"street":"Manufacturers","city":"Beicang","zip":4721,"svnr":1195174894},{"street":"Forest Run","city":"Pangawaren","zip":8832,"svnr":4096267226},{"street":"Lakewood","city":"Nagbukel","zip":9359,"svnr":1417301946},{"street":"Autumn Leaf","city":"Itacarambi","zip":1178,"svnr":5223962195},{"street":"Ludington","city":"Kisesa","zip":6251,"svnr":8427451379},{"street":"Forest Dale","city":"Las Lajas","zip":9820,"svnr":1635666512},{"street":"Sauthoff","city":"La Esperanza","zip":9281,"svnr":2376017879},{"street":"Ruskin","city":"Shuidong","zip":3219,"svnr":8557474489},{"street":"Mockingbird","city":"Klwów","zip":7579,"svnr":4980639698},{"street":"Manufacturers","city":"Beicang","zip":4721,"svnr":2937739981},{"street":"Forest Run","city":"Pangawaren","zip":8832,"svnr":2533185062},{"street":"Lakewood","city":"Nagbukel","zip":9359,"svnr":6133713328},{"street":"Ludington","city":"Kisesa","zip":6251,"svnr":7280935374},{"street":"Forest Dale","city":"Las Lajas","zip":9820,"svnr":6560811415},{"street":"Harper","city":"Santo Rosario","zip":4412,"svnr":4824946967},{"street":"Sauthoff","city":"La Esperanza","zip":9281,"svnr":8926188608},{"street":"Ruskin","city":"Shuidong","zip":3219,"svnr":3582629122},{"street":"Mockingbird","city":"Klwów","zip":7579,"svnr":8616091024},{"street":"Manufacturers","city":"Beicang","zip":4721,"svnr":3051729324},{"street":"Forest Run","city":"Pangawaren","zip":8832,"svnr":3742276304},{"street":"Ludington","city":"Kisesa","zip":6251,"svnr":9722987056},{"street":"Forest Dale","city":"Las Lajas","zip":9820,"svnr":8913448793},{"street":"Harper","city":"Santo Rosario","zip":4412,"svnr":9630503771},{"street":"Sauthoff","city":"La Esperanza","zip":9281,"svnr":2720358720},{"street":"Ruskin","city":"Shuidong","zip":3219,"svnr":4142647548},{"street":"Mockingbird","city":"Klwów","zip":7579,"svnr":9050004742},{"street":"Manufacturers","city":"Beicang","zip":4721,"svnr":7629496753},{"street":"Forest Run","city":"Pangawaren","zip":8832,"svnr":3466833815},{"street":"Lakewood","city":"Nagbukel","zip":9359,"svnr":4958827026},{"street":"Autumn Leaf","city":"Itacarambi","zip":1178,"svnr":8255466073},{"street":"Ludington","city":"Kisesa","zip":6251,"svnr":6051296787},{"street":"Forest Dale","city":"Las Lajas","zip":9820,"svnr":4730005323},{"street":"Sauthoff","city":"La Esperanza","zip":9281,"svnr":1675638324},{"street":"Ruskin","city":"Shuidong","zip":3219,"svnr":2517534202},{"street":"Mockingbird","city":"Klwów","zip":7579,"svnr":3051729324},{"street":"Manufacturers","city":"Beicang","zip":4721,"svnr":5873954441},{"street":"Lakewood","city":"Nagbukel","zip":9359,"svnr":2315033508},{"street":"Autumn Leaf","city":"Itacarambi","zip":1178,"svnr":1551404586},{"street":"Ludington","city":"Kisesa","zip":6251,"svnr":5756238271},{"street":"Forest Dale","city":"Las Lajas","zip":9820,"svnr":1929970726},{"street":"Sauthoff","city":"La Esperanza","zip":9281,"svnr":4063336918},{"street":"Ruskin","city":"Shuidong","zip":3219,"svnr":3218410558},{"street":"Mockingbird","city":"Klwów","zip":7579,"svnr":1299079811},{"street":"Manufacturers","city":"Beicang","zip":4721,"svnr":7621993915},{"street":"Forest Run","city":"Pangawaren","zip":8832,"svnr":4094117900},{"street":"Lakewood","city":"Nagbukel","zip":9359,"svnr":4855616815},{"street":"Autumn Leaf","city":"Itacarambi","zip":1178,"svnr":7280935374},{"street":"Ludington","city":"Kisesa","zip":6251,"svnr":1378377498},{"street":"Forest Dale","city":"Las Lajas","zip":9820,"svnr":7678348643},{"street":"Harper","city":"Santo Rosario","zip":4412,"svnr":4829848895},{"street":"Sauthoff","city":"La Esperanza","zip":9281,"svnr":5243064477},{"street":"Ruskin","city":"Shuidong","zip":3219,"svnr":3491343920},{"street":"Mockingbird","city":"Klwów","zip":7579,"svnr":5054477688},{"street":"Manufacturers","city":"Beicang","zip":4721,"svnr":4829848895},{"street":"Forest Run","city":"Pangawaren","zip":8832,"svnr":5109614131},{"street":"Lakewood","city":"Nagbukel","zip":9359,"svnr":9912616695},{"street":"Ludington","city":"Kisesa","zip":6251,"svnr":1156392036},{"street":"Forest Dale","city":"Las Lajas","zip":9820,"svnr":8758724908},{"street":"Harper","city":"Santo Rosario","zip":4412,"svnr":4037566826},{"street":"Ruskin","city":"Shuidong","zip":3219,"svnr":8913448793},{"street":"Mockingbird","city":"Klwów","zip":7579,"svnr":4804809435},{"street":"Manufacturers","city":"Beicang","zip":4721,"svnr":1000835662},{"street":"Forest Run","city":"Pangawaren","zip":8832,"svnr":1563758101},{"street":"Lakewood","city":"Nagbukel","zip":9359,"svnr":3065975848},{"street":"Autumn Leaf","city":"Itacarambi","zip":1178,"svnr":8758724908},{"street":"Ludington","city":"Kisesa","zip":6251,"svnr":2694477705},{"street":"Forest Dale","city":"Las Lajas","zip":9820,"svnr":2677576572},{"street":"Harper","city":"Santo Rosario","zip":4412,"svnr":7932381743},{"street":"Sauthoff","city":"La Esperanza","zip":9281,"svnr":7278410330},{"street":"Ruskin","city":"Shuidong","zip":3219,"svnr":6251253132},{"street":"Mockingbird","city":"Klwów","zip":7579,"svnr":2284604093},{"street":"Manufacturers","city":"Beicang","zip":4721,"svnr":1545228081},{"street":"Forest Run","city":"Pangawaren","zip":8832,"svnr":6730641128},{"street":"Autumn Leaf","city":"Itacarambi","zip":1178,"svnr":6271163383},{"street":"Ludington","city":"Kisesa","zip":6251,"svnr":7178360187},{"street":"Forest Dale","city":"Las Lajas","zip":9820,"svnr":9668938311},{"street":"Harper","city":"Santo Rosario","zip":4412,"svnr":9324900062},{"street":"Ruskin","city":"Shuidong","zip":3219,"svnr":9892213192},{"street":"Mockingbird","city":"Klwów","zip":7579,"svnr":4576497904},{"street":"Manufacturers","city":"Beicang","zip":4721,"svnr":2249990890},{"street":"Forest Run","city":"Pangawaren","zip":8832,"svnr":3854703382},{"street":"Lakewood","city":"Nagbukel","zip":9359,"svnr":8981079499},{"street":"Autumn Leaf","city":"Itacarambi","zip":1178,"svnr":2807337211},{"street":"Ludington","city":"Kisesa","zip":6251,"svnr":5156324004},{"street":"Forest Dale","city":"Las Lajas","zip":9820,"svnr":8092828375},{"street":"Harper","city":"Santo Rosario","zip":4412,"svnr":8814195720},{"street":"Sauthoff","city":"La Esperanza","zip":9281,"svnr":8504114154},{"street":"Ruskin","city":"Shuidong","zip":3219,"svnr":1276474318},{"street":"Manufacturers","city":"Beicang","zip":4721,"svnr":1487404731},{"street":"Forest Run","city":"Pangawaren","zip":8832,"svnr":5223962195},{"street":"Lakewood","city":"Nagbukel","zip":9359,"svnr":1111141522},{"street":"Autumn Leaf","city":"Itacarambi","zip":1178,"svnr":9038507715},{"street":"Ludington","city":"Kisesa","zip":6251,"svnr":1342407829},{"street":"Forest Dale","city":"Las Lajas","zip":9820,"svnr":1672400477},{"street":"Harper","city":"Santo Rosario","zip":4412,"svnr":7319534472},{"street":"Sauthoff","city":"La Esperanza","zip":9281,"svnr":9712049919},{"street":"Ruskin","city":"Shuidong","zip":3219,"svnr":8895325790},{"street":"Forest Run","city":"Pangawaren","zip":8832,"svnr":1757721053},{"street":"Lakewood","city":"Nagbukel","zip":9359,"svnr":9045560100},{"street":"Autumn Leaf","city":"Itacarambi","zip":1178,"svnr":7201161275},{"street":"Ludington","city":"Kisesa","zip":6251,"svnr":7466639450},{"street":"Forest Dale","city":"Las Lajas","zip":9820,"svnr":9739313756},{"street":"Harper","city":"Santo Rosario","zip":4412,"svnr":9842749039},{"street":"Sauthoff","city":"La Esperanza","zip":9281,"svnr":4711450095},{"street":"Ruskin","city":"Shuidong","zip":3219,"svnr":4216349426},{"street":"Mockingbird","city":"Klwów","zip":7579,"svnr":6560811415},{"street":"Manufacturers","city":"Beicang","zip":4721,"svnr":6012976144},{"street":"Forest Run","city":"Pangawaren","zip":8832,"svnr":5983278802},{"street":"Lakewood","city":"Nagbukel","zip":9359,"svnr":9219592074},{"street":"Autumn Leaf","city":"Itacarambi","zip":1178,"svnr":7837080549},{"street":"Ludington","city":"Kisesa","zip":6251,"svnr":8160278856},{"street":"Forest Dale","city":"Las Lajas","zip":9820,"svnr":3590817198},{"street":"Harper","city":"Santo Rosario","zip":4412,"svnr":7754710996},{"street":"Sauthoff","city":"La Esperanza","zip":9281,"svnr":8886225985},{"street":"Ruskin","city":"Shuidong","zip":3219,"svnr":4994379891},{"street":"Mockingbird","city":"Klwów","zip":7579,"svnr":9522624825},{"street":"Manufacturers","city":"Beicang","zip":4721,"svnr":5341697543},{"street":"Lakewood","city":"Nagbukel","zip":9359,"svnr":7992011829},{"street":"Autumn Leaf","city":"Itacarambi","zip":1178,"svnr":1367120677},{"street":"Ludington","city":"Kisesa","zip":6251,"svnr":6414553407},{"street":"Forest Dale","city":"Las Lajas","zip":9820,"svnr":6041007350},{"street":"Harper","city":"Santo Rosario","zip":4412,"svnr":3027510266},{"street":"Sauthoff","city":"La Esperanza","zip":9281,"svnr":5582214725},{"street":"Ruskin","city":"Shuidong","zip":3219,"svnr":4517801414},{"street":"Mockingbird","city":"Klwów","zip":7579,"svnr":5223962195},{"street":"Manufacturers","city":"Beicang","zip":4721,"svnr":3995530168},{"street":"Forest Run","city":"Pangawaren","zip":8832,"svnr":2013480421},{"street":"Lakewood","city":"Nagbukel","zip":9359,"svnr":6599794964},{"street":"Autumn Leaf","city":"Itacarambi","zip":1178,"svnr":3330886019},{"street":"Ludington","city":"Kisesa","zip":6251,"svnr":1551404586},{"street":"Forest Dale","city":"Las Lajas","zip":9820,"svnr":7882398225},{"street":"Harper","city":"Santo Rosario","zip":4412,"svnr":9894468657},{"street":"Sauthoff","city":"La Esperanza","zip":9281,"svnr":7569837735},{"street":"Mockingbird","city":"Klwów","zip":7579,"svnr":1690397545},{"street":"Manufacturers","city":"Beicang","zip":4721,"svnr":2378180514},{"street":"Forest Run","city":"Pangawaren","zip":8832,"svnr":7362650421},{"street":"Lakewood","city":"Nagbukel","zip":9359,"svnr":4375326489},{"street":"Ludington","city":"Kisesa","zip":6251,"svnr":6163675538},{"street":"Forest Dale","city":"Las Lajas","zip":9820,"svnr":6004318684},{"street":"Harper","city":"Santo Rosario","zip":4412,"svnr":2381320197},{"street":"Sauthoff","city":"La Esperanza","zip":9281,"svnr":3132261476},{"street":"Ruskin","city":"Shuidong","zip":3219,"svnr":5553321323},{"street":"Mockingbird","city":"Klwów","zip":7579,"svnr":7188650794},{"street":"Manufacturers","city":"Beicang","zip":4721,"svnr":3942956078},{"street":"Forest Run","city":"Pangawaren","zip":8832,"svnr":7659115790},{"street":"Lakewood","city":"Nagbukel","zip":9359,"svnr":3995530168},{"street":"Autumn Leaf","city":"Itacarambi","zip":1178,"svnr":9595085368},{"street":"Harper","city":"Santo Rosario","zip":4412,"svnr":7125332639},{"street":"Ruskin","city":"Shuidong","zip":3219,"svnr":5417831065},{"street":"Mockingbird","city":"Klwów","zip":7579,"svnr":9479828035},{"street":"Manufacturers","city":"Beicang","zip":4721,"svnr":2465455240},{"street":"Forest Run","city":"Pangawaren","zip":8832,"svnr":5784746362},{"street":"Autumn Leaf","city":"Itacarambi","zip":1178,"svnr":4836271659},{"street":"Ludington","city":"Kisesa","zip":6251,"svnr":8992437325},{"street":"Forest Dale","city":"Las Lajas","zip":9820,"svnr":6842825247},{"street":"Harper","city":"Santo Rosario","zip":4412,"svnr":8306722264},{"street":"Sauthoff","city":"La Esperanza","zip":9281,"svnr":2443148823},{"street":"Ruskin","city":"Shuidong","zip":3219,"svnr":1510914571},{"street":"Mockingbird","city":"Klwów","zip":7579,"svnr":4603002693},{"street":"Manufacturers","city":"Beicang","zip":4721,"svnr":5121388804},{"street":"Forest Run","city":"Pangawaren","zip":8832,"svnr":8820272356},{"street":"Lakewood","city":"Nagbukel","zip":9359,"svnr":8625765531},{"street":"Ludington","city":"Kisesa","zip":6251,"svnr":4834209887},{"street":"Forest Dale","city":"Las Lajas","zip":9820,"svnr":5623530908},{"street":"Harper","city":"Santo Rosario","zip":4412,"svnr":5887467054},{"street":"Sauthoff","city":"La Esperanza","zip":9281,"svnr":8105311783},{"street":"Ruskin","city":"Shuidong","zip":3219,"svnr":6135540863},{"street":"Mockingbird","city":"Klwów","zip":7579,"svnr":1672400477},{"street":"Manufacturers","city":"Beicang","zip":4721,"svnr":3158132104},{"street":"Forest Run","city":"Pangawaren","zip":8832,"svnr":4642267850},{"street":"Lakewood","city":"Nagbukel","zip":9359,"svnr":8630716972},{"street":"Autumn Leaf","city":"Itacarambi","zip":1178,"svnr":5436521972},{"street":"Ludington","city":"Kisesa","zip":6251,"svnr":5115085646},{"street":"Forest Dale","city":"Las Lajas","zip":9820,"svnr":9843979901},{"street":"Harper","city":"Santo Rosario","zip":4412,"svnr":9703591061},{"street":"Sauthoff","city":"La Esperanza","zip":9281,"svnr":5249430988},{"street":"Ruskin","city":"Shuidong","zip":3219,"svnr":9812175948},{"street":"Mockingbird","city":"Klwów","zip":7579,"svnr":6766882338},{"street":"Manufacturers","city":"Beicang","zip":4721,"svnr":4820233954},{"street":"Forest Run","city":"Pangawaren","zip":8832,"svnr":4520502556},{"street":"Lakewood","city":"Nagbukel","zip":9359,"svnr":4061453602},{"street":"Autumn Leaf","city":"Itacarambi","zip":1178,"svnr":9495220029},{"street":"Ludington","city":"Kisesa","zip":6251,"svnr":7544439159},{"street":"Forest Dale","city":"Las Lajas","zip":9820,"svnr":2647910357},{"street":"Harper","city":"Santo Rosario","zip":4412,"svnr":4569616599},{"street":"Sauthoff","city":"La Esperanza","zip":9281,"svnr":8305187647},{"street":"Manufacturers","city":"Beicang","zip":4721,"svnr":1246158269},{"street":"Forest Run","city":"Pangawaren","zip":8832,"svnr":8892117789},{"street":"Autumn Leaf","city":"Itacarambi","zip":1178,"svnr":9036503848},{"street":"Ludington","city":"Kisesa","zip":6251,"svnr":8485671917},{"street":"Forest Dale","city":"Las Lajas","zip":9820,"svnr":7178360187},{"street":"Ruskin","city":"Shuidong","zip":3219,"svnr":1480529929},{"street":"Mockingbird","city":"Klwów","zip":7579,"svnr":8883152981},{"street":"Manufacturers","city":"Beicang","zip":4721,"svnr":4437940602},{"street":"Forest Run","city":"Pangawaren","zip":8832,"svnr":6205657433},{"street":"Lakewood","city":"Nagbukel","zip":9359,"svnr":4074551187},{"street":"Harper","city":"Santo Rosario","zip":4412,"svnr":1097931680},{"street":"Sauthoff","city":"La Esperanza","zip":9281,"svnr":3540508726},{"street":"Mockingbird","city":"Klwów","zip":7579,"svnr":9728114155},{"street":"Manufacturers","city":"Beicang","zip":4721,"svnr":3875395394},{"street":"Forest Run","city":"Pangawaren","zip":8832,"svnr":3240336358},{"street":"Lakewood","city":"Nagbukel","zip":9359,"svnr":3347657335},{"street":"Ludington","city":"Kisesa","zip":6251,"svnr":7511774690},{"street":"Forest Dale","city":"Las Lajas","zip":9820,"svnr":9131451867},{"street":"Harper","city":"Santo Rosario","zip":4412,"svnr":5394025772},{"street":"Sauthoff","city":"La Esperanza","zip":9281,"svnr":9072953073},{"street":"Ruskin","city":"Shuidong","zip":3219,"svnr":2195937482},{"street":"Mockingbird","city":"Klwów","zip":7579,"svnr":7629496753},{"street":"Manufacturers","city":"Beicang","zip":4721,"svnr":5272095221},{"street":"Forest Run","city":"Pangawaren","zip":8832,"svnr":5472902117},{"street":"Lakewood","city":"Nagbukel","zip":9359,"svnr":6163675538},{"street":"Autumn Leaf","city":"Itacarambi","zip":1178,"svnr":7364475003},{"street":"Ludington","city":"Kisesa","zip":6251,"svnr":2259351851},{"street":"Forest Dale","city":"Las Lajas","zip":9820,"svnr":4832134138},{"street":"Harper","city":"Santo Rosario","zip":4412,"svnr":9278505788},{"street":"Ruskin","city":"Shuidong","zip":3219,"svnr":5584906944},{"street":"Mockingbird","city":"Klwów","zip":7579,"svnr":5828129062},{"street":"Manufacturers","city":"Beicang","zip":4721,"svnr":6059244281},{"street":"Forest Run","city":"Pangawaren","zip":8832,"svnr":2709513717},{"street":"Lakewood","city":"Nagbukel","zip":9359,"svnr":6668790416},{"street":"Autumn Leaf","city":"Itacarambi","zip":1178,"svnr":9583047443},{"street":"Ludington","city":"Kisesa","zip":6251,"svnr":7117603755},{"street":"Forest Dale","city":"Las Lajas","zip":9820,"svnr":2738101667},{"street":"Harper","city":"Santo Rosario","zip":4412,"svnr":1563758101},{"street":"Sauthoff","city":"La Esperanza","zip":9281,"svnr":7074063441},{"street":"Ruskin","city":"Shuidong","zip":3219,"svnr":8948268632},{"street":"Mockingbird","city":"Klwów","zip":7579,"svnr":2126303632},{"street":"Manufacturers","city":"Beicang","zip":4721,"svnr":1929970726},{"street":"Forest Run","city":"Pangawaren","zip":8832,"svnr":2335153773},{"street":"Lakewood","city":"Nagbukel","zip":9359,"svnr":5128990956},{"street":"Autumn Leaf","city":"Itacarambi","zip":1178,"svnr":3806057693},{"street":"Ludington","city":"Kisesa","zip":6251,"svnr":2627089746},{"street":"Forest Dale","city":"Las Lajas","zip":9820,"svnr":9115601687},{"street":"Harper","city":"Santo Rosario","zip":4412,"svnr":5141024805},{"street":"Sauthoff","city":"La Esperanza","zip":9281,"svnr":9193336462},{"street":"Ruskin","city":"Shuidong","zip":3219,"svnr":2259351851},{"street":"Mockingbird","city":"Klwów","zip":7579,"svnr":9036503848},{"street":"Manufacturers","city":"Beicang","zip":4721,"svnr":9050004742},{"street":"Forest Run","city":"Pangawaren","zip":8832,"svnr":2461085963},{"street":"Lakewood","city":"Nagbukel","zip":9359,"svnr":8925627737},{"street":"Autumn Leaf","city":"Itacarambi","zip":1178,"svnr":8741465415},{"street":"Ludington","city":"Kisesa","zip":6251,"svnr":7254621841},{"street":"Forest Dale","city":"Las Lajas","zip":9820,"svnr":6292443819},{"street":"Harper","city":"Santo Rosario","zip":4412,"svnr":8883152981},{"street":"Sauthoff","city":"La Esperanza","zip":9281,"svnr":4658393120},{"street":"Ruskin","city":"Shuidong","zip":3219,"svnr":3125806051},{"street":"Mockingbird","city":"Klwów","zip":7579,"svnr":6500381058},{"street":"Manufacturers","city":"Beicang","zip":4721,"svnr":5815016599},{"street":"Autumn Leaf","city":"Itacarambi","zip":1178,"svnr":9709168953},{"street":"Ludington","city":"Kisesa","zip":6251,"svnr":7986121689},{"street":"Forest Dale","city":"Las Lajas","zip":9820,"svnr":4425429705},{"street":"Harper","city":"Santo Rosario","zip":4412,"svnr":3397318458},{"street":"Sauthoff","city":"La Esperanza","zip":9281,"svnr":6200380167},{"street":"Ruskin","city":"Shuidong","zip":3219,"svnr":5639021055},{"street":"Mockingbird","city":"Klwów","zip":7579,"svnr":8270200072},{"street":"Manufacturers","city":"Beicang","zip":4721,"svnr":5141172486},{"street":"Forest Run","city":"Pangawaren","zip":8832,"svnr":3449550984},{"street":"Ludington","city":"Kisesa","zip":6251,"svnr":4216349426},{"street":"Forest Dale","city":"Las Lajas","zip":9820,"svnr":5965187782},{"street":"Harper","city":"Santo Rosario","zip":4412,"svnr":3387781767},{"street":"Sauthoff","city":"La Esperanza","zip":9281,"svnr":4768638109},{"street":"Ruskin","city":"Shuidong","zip":3219,"svnr":8026934313},{"street":"Mockingbird","city":"Klwów","zip":7579,"svnr":1770030897},{"street":"Manufacturers","city":"Beicang","zip":4721,"svnr":5464593035},{"street":"Forest Run","city":"Pangawaren","zip":8832,"svnr":6124585223},{"street":"Lakewood","city":"Nagbukel","zip":9359,"svnr":8481255595},{"street":"Autumn Leaf","city":"Itacarambi","zip":1178,"svnr":6374365813},{"street":"Ludington","city":"Kisesa","zip":6251,"svnr":5394025772},{"street":"Forest Dale","city":"Las Lajas","zip":9820,"svnr":1127137836},{"street":"Harper","city":"Santo Rosario","zip":4412,"svnr":4768638109},{"street":"Ruskin","city":"Shuidong","zip":3219,"svnr":4048022402},{"street":"Manufacturers","city":"Beicang","zip":4721,"svnr":9240476130},{"street":"Forest Run","city":"Pangawaren","zip":8832,"svnr":1465086439},{"street":"Lakewood","city":"Nagbukel","zip":9359,"svnr":3051729324},{"street":"Autumn Leaf","city":"Itacarambi","zip":1178,"svnr":1111141522},{"street":"Forest Dale","city":"Las Lajas","zip":9820,"svnr":1757721053},{"street":"Harper","city":"Santo Rosario","zip":4412,"svnr":4468884784},{"street":"Sauthoff","city":"La Esperanza","zip":9281,"svnr":3037969896},{"street":"Ruskin","city":"Shuidong","zip":3219,"svnr":5472902117},{"street":"Mockingbird","city":"Klwów","zip":7579,"svnr":6962668238},{"street":"Manufacturers","city":"Beicang","zip":4721,"svnr":6842825247},{"street":"Forest Run","city":"Pangawaren","zip":8832,"svnr":1156392036},{"street":"Lakewood","city":"Nagbukel","zip":9359,"svnr":9982813250},{"street":"Autumn Leaf","city":"Itacarambi","zip":1178,"svnr":1996742375},{"street":"Ludington","city":"Kisesa","zip":6251,"svnr":6645265365},{"street":"Forest Dale","city":"Las Lajas","zip":9820,"svnr":1974646656},{"street":"Harper","city":"Santo Rosario","zip":4412,"svnr":2902934744},{"street":"Sauthoff","city":"La Esperanza","zip":9281,"svnr":1612496692},{"street":"Ruskin","city":"Shuidong","zip":3219,"svnr":1391492874},{"street":"Mockingbird","city":"Klwów","zip":7579,"svnr":2829435839},{"street":"Manufacturers","city":"Beicang","zip":4721,"svnr":5213788807},{"street":"Forest Run","city":"Pangawaren","zip":8832,"svnr":3636348593},{"street":"Lakewood","city":"Nagbukel","zip":9359,"svnr":5429041899},{"street":"Autumn Leaf","city":"Itacarambi","zip":1178,"svnr":8807785497},{"street":"Ludington","city":"Kisesa","zip":6251,"svnr":5629176501},{"street":"Harper","city":"Santo Rosario","zip":4412,"svnr":8147262965},{"street":"Sauthoff","city":"La Esperanza","zip":9281,"svnr":4468884784},{"street":"Ruskin","city":"Shuidong","zip":3219,"svnr":7086985787},{"street":"Mockingbird","city":"Klwów","zip":7579,"svnr":4061453602},{"street":"Manufacturers","city":"Beicang","zip":4721,"svnr":8565889579},{"street":"Forest Run","city":"Pangawaren","zip":8832,"svnr":1612496692},{"street":"Lakewood","city":"Nagbukel","zip":9359,"svnr":9457750470},{"street":"Autumn Leaf","city":"Itacarambi","zip":1178,"svnr":5873954441},{"street":"Ludington","city":"Kisesa","zip":6251,"svnr":9161073868},{"street":"Forest Dale","city":"Las Lajas","zip":9820,"svnr":9017542487},{"street":"Harper","city":"Santo Rosario","zip":4412,"svnr":3070237554},{"street":"Sauthoff","city":"La Esperanza","zip":9281,"svnr":4335071151},{"street":"Ruskin","city":"Shuidong","zip":3219,"svnr":9464333622},{"street":"Mockingbird","city":"Klwów","zip":7579,"svnr":4877349891},{"street":"Manufacturers","city":"Beicang","zip":4721,"svnr":3268759403},{"street":"Forest Run","city":"Pangawaren","zip":8832,"svnr":8097155367},{"street":"Lakewood","city":"Nagbukel","zip":9359,"svnr":3773806912},{"street":"Autumn Leaf","city":"Itacarambi","zip":1178,"svnr":1276474318},{"street":"Forest Dale","city":"Las Lajas","zip":9820,"svnr":9971942177},{"street":"Harper","city":"Santo Rosario","zip":4412,"svnr":6124585223},{"street":"Sauthoff","city":"La Esperanza","zip":9281,"svnr":6005184763},{"street":"Ruskin","city":"Shuidong","zip":3219,"svnr":6998216099},{"street":"Mockingbird","city":"Klwów","zip":7579,"svnr":6241380075},{"street":"Manufacturers","city":"Beicang","zip":4721,"svnr":9332708523},{"street":"Forest Run","city":"Pangawaren","zip":8832,"svnr":4392308122},{"street":"Lakewood","city":"Nagbukel","zip":9359,"svnr":2403820745},{"street":"Autumn Leaf","city":"Itacarambi","zip":1178,"svnr":4342793611},{"street":"Ludington","city":"Kisesa","zip":6251,"svnr":1973925955},{"street":"Forest Dale","city":"Las Lajas","zip":9820,"svnr":7814301842},{"street":"Sauthoff","city":"La Esperanza","zip":9281,"svnr":4829848895},{"street":"Ruskin","city":"Shuidong","zip":3219,"svnr":7319534472},{"street":"Mockingbird","city":"Klwów","zip":7579,"svnr":3052927211},{"street":"Manufacturers","city":"Beicang","zip":4721,"svnr":5141227813},{"street":"Forest Run","city":"Pangawaren","zip":8832,"svnr":5054477688},{"street":"Lakewood","city":"Nagbukel","zip":9359,"svnr":5297521906},{"street":"Autumn Leaf","city":"Itacarambi","zip":1178,"svnr":1093850606},{"street":"Ludington","city":"Kisesa","zip":6251,"svnr":2093492502},{"street":"Forest Dale","city":"Las Lajas","zip":9820,"svnr":3341784325},{"street":"Sauthoff","city":"La Esperanza","zip":9281,"svnr":5324616173},{"street":"Ruskin","city":"Shuidong","zip":3219,"svnr":1566931872},{"street":"Mockingbird","city":"Klwów","zip":7579,"svnr":7797747625},{"street":"Manufacturers","city":"Beicang","zip":4721,"svnr":9812175948},{"street":"Forest Run","city":"Pangawaren","zip":8832,"svnr":1798895557},{"street":"Lakewood","city":"Nagbukel","zip":9359,"svnr":5141024805},{"street":"Autumn Leaf","city":"Itacarambi","zip":1178,"svnr":3797689863},{"street":"Ludington","city":"Kisesa","zip":6251,"svnr":7839156155},{"street":"Forest Dale","city":"Las Lajas","zip":9820,"svnr":9933070078},{"street":"Harper","city":"Santo Rosario","zip":4412,"svnr":1460078582},{"street":"Sauthoff","city":"La Esperanza","zip":9281,"svnr":5955943783},{"street":"Mockingbird","city":"Klwów","zip":7579,"svnr":7834555550},{"street":"Manufacturers","city":"Beicang","zip":4721,"svnr":8160278856},{"street":"Forest Run","city":"Pangawaren","zip":8832,"svnr":5350752458},{"street":"Lakewood","city":"Nagbukel","zip":9359,"svnr":8807785497},{"street":"Autumn Leaf","city":"Itacarambi","zip":1178,"svnr":3610625659},{"street":"Ludington","city":"Kisesa","zip":6251,"svnr":2779564870},{"street":"Forest Dale","city":"Las Lajas","zip":9820,"svnr":9927230957},{"street":"Harper","city":"Santo Rosario","zip":4412,"svnr":1770030897},{"street":"Sauthoff","city":"La Esperanza","zip":9281,"svnr":5554101389},{"street":"Ruskin","city":"Shuidong","zip":3219,"svnr":3739200092},{"street":"Mockingbird","city":"Klwów","zip":7579,"svnr":7010286214},{"street":"Manufacturers","city":"Beicang","zip":4721,"svnr":8270200072},{"street":"Forest Run","city":"Pangawaren","zip":8832,"svnr":5815016599},{"street":"Autumn Leaf","city":"Itacarambi","zip":1178,"svnr":1005600707},{"street":"Ludington","city":"Kisesa","zip":6251,"svnr":7992011829},{"street":"Forest Dale","city":"Las Lajas","zip":9820,"svnr":6831225377},{"street":"Harper","city":"Santo Rosario","zip":4412,"svnr":8432782580},{"street":"Sauthoff","city":"La Esperanza","zip":9281,"svnr":3946075959},{"street":"Ruskin","city":"Shuidong","zip":3219,"svnr":4161975668},{"street":"Manufacturers","city":"Beicang","zip":4721,"svnr":7007220741},{"street":"Forest Run","city":"Pangawaren","zip":8832,"svnr":3792710177},{"street":"Autumn Leaf","city":"Itacarambi","zip":1178,"svnr":7932817636},{"street":"Forest Dale","city":"Las Lajas","zip":9820,"svnr":1508211535},{"street":"Harper","city":"Santo Rosario","zip":4412,"svnr":6664854641},{"street":"Sauthoff","city":"La Esperanza","zip":9281,"svnr":4578398335},{"street":"Mockingbird","city":"Klwów","zip":7579,"svnr":1640685106},{"street":"Manufacturers","city":"Beicang","zip":4721,"svnr":9774163127},{"street":"Forest Run","city":"Pangawaren","zip":8832,"svnr":2303035003},{"street":"Lakewood","city":"Nagbukel","zip":9359,"svnr":4392308122},{"street":"Autumn Leaf","city":"Itacarambi","zip":1178,"svnr":8404758544},{"street":"Ludington","city":"Kisesa","zip":6251,"svnr":7573062320},{"street":"Forest Dale","city":"Las Lajas","zip":9820,"svnr":7179441576},{"street":"Sauthoff","city":"La Esperanza","zip":9281,"svnr":1195174894},{"street":"Ruskin","city":"Shuidong","zip":3219,"svnr":9045560100},{"street":"Mockingbird","city":"Klwów","zip":7579,"svnr":3132261476},{"street":"Manufacturers","city":"Beicang","zip":4721,"svnr":4389609080},{"street":"Forest Run","city":"Pangawaren","zip":8832,"svnr":5981721511},{"street":"Autumn Leaf","city":"Itacarambi","zip":1178,"svnr":1903346587},{"street":"Ludington","city":"Kisesa","zip":6251,"svnr":9115601687},{"street":"Forest Dale","city":"Las Lajas","zip":9820,"svnr":5249430988},{"street":"Harper","city":"Santo Rosario","zip":4412,"svnr":7336551179},{"street":"Sauthoff","city":"La Esperanza","zip":9281,"svnr":5252701574},{"street":"Ruskin","city":"Shuidong","zip":3219,"svnr":5141172486},{"street":"Mockingbird","city":"Klwów","zip":7579,"svnr":9722987056},{"street":"Manufacturers","city":"Beicang","zip":4721,"svnr":3782529615},{"street":"Forest Run","city":"Pangawaren","zip":8832,"svnr":8424056772},{"street":"Lakewood","city":"Nagbukel","zip":9359,"svnr":8260304854},{"street":"Autumn Leaf","city":"Itacarambi","zip":1178,"svnr":6014185652},{"street":"Ludington","city":"Kisesa","zip":6251,"svnr":1344694924},{"street":"Forest Dale","city":"Las Lajas","zip":9820,"svnr":8562456544},{"street":"Harper","city":"Santo Rosario","zip":4412,"svnr":7797747625},{"street":"Sauthoff","city":"La Esperanza","zip":9281,"svnr":7834555550},{"street":"Ruskin","city":"Shuidong","zip":3219,"svnr":4074551187},{"street":"Mockingbird","city":"Klwów","zip":7579,"svnr":2902934744},{"street":"Manufacturers","city":"Beicang","zip":4721,"svnr":5185854462},{"street":"Forest Run","city":"Pangawaren","zip":8832,"svnr":3997274857},{"street":"Lakewood","city":"Nagbukel","zip":9359,"svnr":8270200072},{"street":"Autumn Leaf","city":"Itacarambi","zip":1178,"svnr":3031763725},{"street":"Ludington","city":"Kisesa","zip":6251,"svnr":5887467054},{"street":"Forest Dale","city":"Las Lajas","zip":9820,"svnr":7204354312},{"street":"Harper","city":"Santo Rosario","zip":4412,"svnr":7814301842},{"street":"Sauthoff","city":"La Esperanza","zip":9281,"svnr":6425045392},{"street":"Ruskin","city":"Shuidong","zip":3219,"svnr":2840349388},{"street":"Manufacturers","city":"Beicang","zip":4721,"svnr":2631372301},{"street":"Forest Run","city":"Pangawaren","zip":8832,"svnr":6138507797},{"street":"Autumn Leaf","city":"Itacarambi","zip":1178,"svnr":1571259602},{"street":"Ludington","city":"Kisesa","zip":6251,"svnr":9630503771},{"street":"Forest Dale","city":"Las Lajas","zip":9820,"svnr":8432782580},{"street":"Sauthoff","city":"La Esperanza","zip":9281,"svnr":5854974701},{"street":"Ruskin","city":"Shuidong","zip":3219,"svnr":7535587535},{"street":"Manufacturers","city":"Beicang","zip":4721,"svnr":8886225985},{"street":"Lakewood","city":"Nagbukel","zip":9359,"svnr":3029080145},{"street":"Autumn Leaf","city":"Itacarambi","zip":1178,"svnr":2381320197},{"street":"Ludington","city":"Kisesa","zip":6251,"svnr":2459174820},{"street":"Forest Dale","city":"Las Lajas","zip":9820,"svnr":8181704842},{"street":"Harper","city":"Santo Rosario","zip":4412,"svnr":5109250715},{"street":"Ruskin","city":"Shuidong","zip":3219,"svnr":4298294430},{"street":"Mockingbird","city":"Klwów","zip":7579,"svnr":4298294430},{"street":"Manufacturers","city":"Beicang","zip":4721,"svnr":7193413635},{"street":"Lakewood","city":"Nagbukel","zip":9359,"svnr":8011317395},{"street":"Autumn Leaf","city":"Itacarambi","zip":1178,"svnr":4081964737},{"street":"Ludington","city":"Kisesa","zip":6251,"svnr":7319534472},{"street":"Harper","city":"Santo Rosario","zip":4412,"svnr":8452738215},{"street":"Ruskin","city":"Shuidong","zip":3219,"svnr":6946784707},{"street":"Mockingbird","city":"Klwów","zip":7579,"svnr":9712049919},{"street":"Manufacturers","city":"Beicang","zip":4721,"svnr":5529385830},{"street":"Forest Run","city":"Pangawaren","zip":8832,"svnr":5621879072},{"street":"Lakewood","city":"Nagbukel","zip":9359,"svnr":7979005123},{"street":"Autumn Leaf","city":"Itacarambi","zip":1178,"svnr":1269444208},{"street":"Ludington","city":"Kisesa","zip":6251,"svnr":8481255595},{"street":"Forest Dale","city":"Las Lajas","zip":9820,"svnr":1989095682},{"street":"Harper","city":"Santo Rosario","zip":4412,"svnr":8504114154},{"street":"Sauthoff","city":"La Esperanza","zip":9281,"svnr":1592877654},{"street":"Ruskin","city":"Shuidong","zip":3219,"svnr":3953810966},{"street":"Manufacturers","city":"Beicang","zip":4721,"svnr":9479828035},{"street":"Forest Run","city":"Pangawaren","zip":8832,"svnr":1545228081},{"street":"Lakewood","city":"Nagbukel","zip":9359,"svnr":2659393922},{"street":"Autumn Leaf","city":"Itacarambi","zip":1178,"svnr":9585479694},{"street":"Ludington","city":"Kisesa","zip":6251,"svnr":3773806912},{"street":"Forest Dale","city":"Las Lajas","zip":9820,"svnr":8913795808},{"street":"Harper","city":"Santo Rosario","zip":4412,"svnr":5141227813},{"street":"Sauthoff","city":"La Esperanza","zip":9281,"svnr":6103681609},{"street":"Ruskin","city":"Shuidong","zip":3219,"svnr":2487914323},{"street":"Mockingbird","city":"Klwów","zip":7579,"svnr":2181906831},{"street":"Manufacturers","city":"Beicang","zip":4721,"svnr":4944286726},{"street":"Lakewood","city":"Nagbukel","zip":9359,"svnr":1880877036},{"street":"Autumn Leaf","city":"Itacarambi","zip":1178,"svnr":5082518518},{"street":"Forest Dale","city":"Las Lajas","zip":9820,"svnr":4079073964},{"street":"Sauthoff","city":"La Esperanza","zip":9281,"svnr":9495220029},{"street":"Ruskin","city":"Shuidong","zip":3219,"svnr":5121388804},{"street":"Mockingbird","city":"Klwów","zip":7579,"svnr":9278093706},{"street":"Forest Run","city":"Pangawaren","zip":8832,"svnr":6005184763},{"street":"Lakewood","city":"Nagbukel","zip":9359,"svnr":8913448793},{"street":"Autumn Leaf","city":"Itacarambi","zip":1178,"svnr":8374705949},{"street":"Forest Dale","city":"Las Lajas","zip":9820,"svnr":7475024330},{"street":"Harper","city":"Santo Rosario","zip":4412,"svnr":2195937482},{"street":"Sauthoff","city":"La Esperanza","zip":9281,"svnr":8957936226},{"street":"Ruskin","city":"Shuidong","zip":3219,"svnr":2053347856},{"street":"Mockingbird","city":"Klwów","zip":7579,"svnr":5240645647},{"street":"Manufacturers","city":"Beicang","zip":4721,"svnr":5989897789},{"street":"Lakewood","city":"Nagbukel","zip":9359,"svnr":2562743209},{"street":"Autumn Leaf","city":"Itacarambi","zip":1178,"svnr":8632880551},{"street":"Ludington","city":"Kisesa","zip":6251,"svnr":2866242366},{"street":"Forest Dale","city":"Las Lajas","zip":9820,"svnr":6366681116},{"street":"Harper","city":"Santo Rosario","zip":4412,"svnr":3582629122},{"street":"Sauthoff","city":"La Esperanza","zip":9281,"svnr":2517534202},{"street":"Mockingbird","city":"Klwów","zip":7579,"svnr":6177870349},{"street":"Manufacturers","city":"Beicang","zip":4721,"svnr":1798895557},{"street":"Lakewood","city":"Nagbukel","zip":9359,"svnr":3468152324},{"street":"Ludington","city":"Kisesa","zip":6251,"svnr":3094706324},{"street":"Harper","city":"Santo Rosario","zip":4412,"svnr":6348010578},{"street":"Sauthoff","city":"La Esperanza","zip":9281,"svnr":9933070078},{"street":"Ruskin","city":"Shuidong","zip":3219,"svnr":8995658212},{"street":"Manufacturers","city":"Beicang","zip":4721,"svnr":8745561370},{"street":"Forest Run","city":"Pangawaren","zip":8832,"svnr":1246158269},{"street":"Lakewood","city":"Nagbukel","zip":9359,"svnr":1711136723},{"street":"Autumn Leaf","city":"Itacarambi","zip":1178,"svnr":2931002164},{"street":"Ludington","city":"Kisesa","zip":6251,"svnr":6135298190},{"street":"Forest Dale","city":"Las Lajas","zip":9820,"svnr":9052273611},{"street":"Harper","city":"Santo Rosario","zip":4412,"svnr":8750330706},{"street":"Sauthoff","city":"La Esperanza","zip":9281,"svnr":4142647548},{"street":"Ruskin","city":"Shuidong","zip":3219,"svnr":7466734245},{"street":"Manufacturers","city":"Beicang","zip":4721,"svnr":5926525794},{"street":"Forest Run","city":"Pangawaren","zip":8832,"svnr":1672951916},{"street":"Lakewood","city":"Nagbukel","zip":9359,"svnr":8995658212},{"street":"Autumn Leaf","city":"Itacarambi","zip":1178,"svnr":6321198796},{"street":"Ludington","city":"Kisesa","zip":6251,"svnr":1675638324},{"street":"Forest Dale","city":"Las Lajas","zip":9820,"svnr":2180218699},{"street":"Harper","city":"Santo Rosario","zip":4412,"svnr":6041007350},{"street":"Sauthoff","city":"La Esperanza","zip":9281,"svnr":7319534472},{"street":"Mockingbird","city":"Klwów","zip":7579,"svnr":6419040035},{"street":"Manufacturers","city":"Beicang","zip":4721,"svnr":6444660678},{"street":"Forest Run","city":"Pangawaren","zip":8832,"svnr":8217523348},{"street":"Lakewood","city":"Nagbukel","zip":9359,"svnr":5639021055},{"street":"Autumn Leaf","city":"Itacarambi","zip":1178,"svnr":6298831467},{"street":"Ludington","city":"Kisesa","zip":6251,"svnr":4307500927},{"street":"Forest Dale","city":"Las Lajas","zip":9820,"svnr":3582629122},{"street":"Harper","city":"Santo Rosario","zip":4412,"svnr":6014185652},{"street":"Sauthoff","city":"La Esperanza","zip":9281,"svnr":9119166846},{"street":"Ruskin","city":"Shuidong","zip":3219,"svnr":2613051397},{"street":"Mockingbird","city":"Klwów","zip":7579,"svnr":3468150923},{"street":"Manufacturers","city":"Beicang","zip":4721,"svnr":8944864901},{"street":"Forest Run","city":"Pangawaren","zip":8832,"svnr":8948268632},{"street":"Lakewood","city":"Nagbukel","zip":9359,"svnr":4898308377},{"street":"Autumn Leaf","city":"Itacarambi","zip":1178,"svnr":5244146548},{"street":"Ludington","city":"Kisesa","zip":6251,"svnr":8041282085},{"street":"Forest Dale","city":"Las Lajas","zip":9820,"svnr":5554101389},{"street":"Sauthoff","city":"La Esperanza","zip":9281,"svnr":9537472672},{"street":"Ruskin","city":"Shuidong","zip":3219,"svnr":3633131317},{"street":"Manufacturers","city":"Beicang","zip":4721,"svnr":9052273611},{"street":"Autumn Leaf","city":"Itacarambi","zip":1178,"svnr":3754363428},{"street":"Ludington","city":"Kisesa","zip":6251,"svnr":9731030921},{"street":"Harper","city":"Santo Rosario","zip":4412,"svnr":5054477688},{"street":"Sauthoff","city":"La Esperanza","zip":9281,"svnr":1974646656},{"street":"Ruskin","city":"Shuidong","zip":3219,"svnr":4664382303},{"street":"Mockingbird","city":"Klwów","zip":7579,"svnr":4244370113},{"street":"Manufacturers","city":"Beicang","zip":4721,"svnr":1672951916},{"street":"Forest Run","city":"Pangawaren","zip":8832,"svnr":7224811721},{"street":"Lakewood","city":"Nagbukel","zip":9359,"svnr":6396026187},{"street":"Autumn Leaf","city":"Itacarambi","zip":1178,"svnr":9464333622},{"street":"Ludington","city":"Kisesa","zip":6251,"svnr":2216435068},{"street":"Forest Dale","city":"Las Lajas","zip":9820,"svnr":1733949370},{"street":"Harper","city":"Santo Rosario","zip":4412,"svnr":8625765531},{"street":"Sauthoff","city":"La Esperanza","zip":9281,"svnr":4649094525},{"street":"Ruskin","city":"Shuidong","zip":3219,"svnr":8756475084},{"street":"Mockingbird","city":"Klwów","zip":7579,"svnr":8892117789},{"street":"Forest Run","city":"Pangawaren","zip":8832,"svnr":7164521369},{"street":"Lakewood","city":"Nagbukel","zip":9359,"svnr":3875395394},{"street":"Autumn Leaf","city":"Itacarambi","zip":1178,"svnr":1886655070},{"street":"Forest Dale","city":"Las Lajas","zip":9820,"svnr":6889185055},{"street":"Harper","city":"Santo Rosario","zip":4412,"svnr":8558564293},{"street":"Sauthoff","city":"La Esperanza","zip":9281,"svnr":7364475003},{"street":"Ruskin","city":"Shuidong","zip":3219,"svnr":2796731938},{"street":"Mockingbird","city":"Klwów","zip":7579,"svnr":6842825247},{"street":"Manufacturers","city":"Beicang","zip":4721,"svnr":3739200092},{"street":"Forest Run","city":"Pangawaren","zip":8832,"svnr":8146602218},{"street":"Autumn Leaf","city":"Itacarambi","zip":1178,"svnr":8469642228},{"street":"Ludington","city":"Kisesa","zip":6251,"svnr":8948268632},{"street":"Forest Dale","city":"Las Lajas","zip":9820,"svnr":9647170515},{"street":"Harper","city":"Santo Rosario","zip":4412,"svnr":5965187782},{"street":"Sauthoff","city":"La Esperanza","zip":9281,"svnr":2659393922},{"street":"Ruskin","city":"Shuidong","zip":3219,"svnr":1635666512},{"street":"Mockingbird","city":"Klwów","zip":7579,"svnr":2677576572},{"street":"Manufacturers","city":"Beicang","zip":4721,"svnr":5069726345},{"street":"Lakewood","city":"Nagbukel","zip":9359,"svnr":4094117900},{"street":"Autumn Leaf","city":"Itacarambi","zip":1178,"svnr":4208479562},{"street":"Ludington","city":"Kisesa","zip":6251,"svnr":2517534202},{"street":"Forest Dale","city":"Las Lajas","zip":9820,"svnr":5916936888},{"street":"Harper","city":"Santo Rosario","zip":4412,"svnr":7107784034},{"street":"Sauthoff","city":"La Esperanza","zip":9281,"svnr":5898009912},{"street":"Ruskin","city":"Shuidong","zip":3219,"svnr":6467888694},{"street":"Mockingbird","city":"Klwów","zip":7579,"svnr":7932817636},{"street":"Manufacturers","city":"Beicang","zip":4721,"svnr":4994379891},{"street":"Forest Run","city":"Pangawaren","zip":8832,"svnr":2385506131},{"street":"Lakewood","city":"Nagbukel","zip":9359,"svnr":9736718704},{"street":"Autumn Leaf","city":"Itacarambi","zip":1178,"svnr":5727732652},{"street":"Ludington","city":"Kisesa","zip":6251,"svnr":4832134138},{"street":"Forest Dale","city":"Las Lajas","zip":9820,"svnr":7803427619},{"street":"Harper","city":"Santo Rosario","zip":4412,"svnr":1456189213},{"street":"Ruskin","city":"Shuidong","zip":3219,"svnr":7932381743},{"street":"Mockingbird","city":"Klwów","zip":7579,"svnr":7641506231},{"street":"Lakewood","city":"Nagbukel","zip":9359,"svnr":6500381058},{"street":"Autumn Leaf","city":"Itacarambi","zip":1178,"svnr":8511990291},{"street":"Ludington","city":"Kisesa","zip":6251,"svnr":2796731938},{"street":"Forest Dale","city":"Las Lajas","zip":9820,"svnr":4850349152},{"street":"Sauthoff","city":"La Esperanza","zip":9281,"svnr":2089600256},{"street":"Ruskin","city":"Shuidong","zip":3219,"svnr":4111380581},{"street":"Manufacturers","city":"Beicang","zip":4721,"svnr":7116414894},{"street":"Forest Run","city":"Pangawaren","zip":8832,"svnr":3752242906},{"street":"Lakewood","city":"Nagbukel","zip":9359,"svnr":4561116662},{"street":"Autumn Leaf","city":"Itacarambi","zip":1178,"svnr":9219592074},{"street":"Ludington","city":"Kisesa","zip":6251,"svnr":8120939121},{"street":"Forest Dale","city":"Las Lajas","zip":9820,"svnr":3614575863},{"street":"Harper","city":"Santo Rosario","zip":4412,"svnr":7535587535},{"street":"Sauthoff","city":"La Esperanza","zip":9281,"svnr":2195598899},{"street":"Mockingbird","city":"Klwów","zip":7579,"svnr":4018397593},{"street":"Manufacturers","city":"Beicang","zip":4721,"svnr":1690397545},{"street":"Forest Run","city":"Pangawaren","zip":8832,"svnr":5394025772},{"street":"Lakewood","city":"Nagbukel","zip":9359,"svnr":8147262965},{"street":"Autumn Leaf","city":"Itacarambi","zip":1178,"svnr":6720981066},{"street":"Ludington","city":"Kisesa","zip":6251,"svnr":4824946967},{"street":"Forest Dale","city":"Las Lajas","zip":9820,"svnr":8149518554},{"street":"Harper","city":"Santo Rosario","zip":4412,"svnr":9789599882},{"street":"Ruskin","city":"Shuidong","zip":3219,"svnr":8424365646},{"street":"Mockingbird","city":"Klwów","zip":7579,"svnr":3766352788},{"street":"Manufacturers","city":"Beicang","zip":4721,"svnr":9495220029},{"street":"Forest Run","city":"Pangawaren","zip":8832,"svnr":5601845619},{"street":"Lakewood","city":"Nagbukel","zip":9359,"svnr":8724523295},{"street":"Autumn Leaf","city":"Itacarambi","zip":1178,"svnr":9907006856},{"street":"Ludington","city":"Kisesa","zip":6251,"svnr":8594128765},{"street":"Forest Dale","city":"Las Lajas","zip":9820,"svnr":8926188608},{"street":"Harper","city":"Santo Rosario","zip":4412,"svnr":5601845619},{"street":"Ruskin","city":"Shuidong","zip":3219,"svnr":6186208581},{"street":"Manufacturers","city":"Beicang","zip":4721,"svnr":2002722668},{"street":"Forest Run","city":"Pangawaren","zip":8832,"svnr":3037969896},{"street":"Autumn Leaf","city":"Itacarambi","zip":1178,"svnr":1508211535},{"street":"Ludington","city":"Kisesa","zip":6251,"svnr":9843979901},{"street":"Forest Dale","city":"Las Lajas","zip":9820,"svnr":9736718704},{"street":"Harper","city":"Santo Rosario","zip":4412,"svnr":7074063441},{"street":"Ruskin","city":"Shuidong","zip":3219,"svnr":6205657433},{"street":"Mockingbird","city":"Klwów","zip":7579,"svnr":4642267850},{"street":"Manufacturers","city":"Beicang","zip":4721,"svnr":3380902342},{"street":"Forest Run","city":"Pangawaren","zip":8832,"svnr":2866242366},{"street":"Lakewood","city":"Nagbukel","zip":9359,"svnr":5470485646},{"street":"Autumn Leaf","city":"Itacarambi","zip":1178,"svnr":9728114155},{"street":"Ludington","city":"Kisesa","zip":6251,"svnr":3633131317},{"street":"Forest Dale","city":"Las Lajas","zip":9820,"svnr":6283849324},{"street":"Harper","city":"Santo Rosario","zip":4412,"svnr":3330886019},{"street":"Sauthoff","city":"La Esperanza","zip":9281,"svnr":3029080145},{"street":"Ruskin","city":"Shuidong","zip":3219,"svnr":2738101667},{"street":"Mockingbird","city":"Klwów","zip":7579,"svnr":1967083469},{"street":"Manufacturers","city":"Beicang","zip":4721,"svnr":3074951206},{"street":"Forest Run","city":"Pangawaren","zip":8832,"svnr":5333073988},{"street":"Lakewood","city":"Nagbukel","zip":9359,"svnr":4804809435},{"street":"Autumn Leaf","city":"Itacarambi","zip":1178,"svnr":6560811415},{"street":"Ludington","city":"Kisesa","zip":6251,"svnr":2631372301},{"street":"Forest Dale","city":"Las Lajas","zip":9820,"svnr":5213788807},{"street":"Sauthoff","city":"La Esperanza","zip":9281,"svnr":6889185055},{"street":"Mockingbird","city":"Klwów","zip":7579,"svnr":5999309970},{"street":"Manufacturers","city":"Beicang","zip":4721,"svnr":7466639450},{"street":"Forest Run","city":"Pangawaren","zip":8832,"svnr":7086985787},{"street":"Lakewood","city":"Nagbukel","zip":9359,"svnr":5417654583},{"street":"Forest Dale","city":"Las Lajas","zip":9820,"svnr":8820272356},{"street":"Harper","city":"Santo Rosario","zip":4412,"svnr":7020535734},{"street":"Sauthoff","city":"La Esperanza","zip":9281,"svnr":1000055316},{"street":"Ruskin","city":"Shuidong","zip":3219,"svnr":6177870349},{"street":"Manufacturers","city":"Beicang","zip":4721,"svnr":7336551179},{"street":"Forest Run","city":"Pangawaren","zip":8832,"svnr":5804141129},{"street":"Autumn Leaf","city":"Itacarambi","zip":1178,"svnr":3737377876},{"street":"Ludington","city":"Kisesa","zip":6251,"svnr":6045184900},{"street":"Forest Dale","city":"Las Lajas","zip":9820,"svnr":5689609985},{"street":"Harper","city":"Santo Rosario","zip":4412,"svnr":6998177364},{"street":"Sauthoff","city":"La Esperanza","zip":9281,"svnr":4730005323},{"street":"Ruskin","city":"Shuidong","zip":3219,"svnr":4995095508},{"street":"Mockingbird","city":"Klwów","zip":7579,"svnr":5895777954},{"street":"Manufacturers","city":"Beicang","zip":4721,"svnr":8557474489},{"street":"Forest Run","city":"Pangawaren","zip":8832,"svnr":6177870349},{"street":"Lakewood","city":"Nagbukel","zip":9359,"svnr":1539291422},{"street":"Autumn Leaf","city":"Itacarambi","zip":1178,"svnr":2315033508},{"street":"Forest Dale","city":"Las Lajas","zip":9820,"svnr":6003283680},{"street":"Harper","city":"Santo Rosario","zip":4412,"svnr":3158132104},{"street":"Sauthoff","city":"La Esperanza","zip":9281,"svnr":1474926407},{"street":"Ruskin","city":"Shuidong","zip":3219,"svnr":7879747183},{"street":"Mockingbird","city":"Klwów","zip":7579,"svnr":6005184763},{"street":"Manufacturers","city":"Beicang","zip":4721,"svnr":3069705100},{"street":"Autumn Leaf","city":"Itacarambi","zip":1178,"svnr":3094706324},{"street":"Harper","city":"Santo Rosario","zip":4412,"svnr":6265103528},{"street":"Sauthoff","city":"La Esperanza","zip":9281,"svnr":1519766610},{"street":"Manufacturers","city":"Beicang","zip":4721,"svnr":4927600223},{"street":"Forest Run","city":"Pangawaren","zip":8832,"svnr":9219716584},{"street":"Autumn Leaf","city":"Itacarambi","zip":1178,"svnr":7932381743},{"street":"Forest Dale","city":"Las Lajas","zip":9820,"svnr":2443148823},{"street":"Sauthoff","city":"La Esperanza","zip":9281,"svnr":6283849324},{"street":"Ruskin","city":"Shuidong","zip":3219,"svnr":2150423683},{"street":"Mockingbird","city":"Klwów","zip":7579,"svnr":1733949370},{"street":"Manufacturers","city":"Beicang","zip":4721,"svnr":5914718834},{"street":"Forest Run","city":"Pangawaren","zip":8832,"svnr":1020850280},{"street":"Lakewood","city":"Nagbukel","zip":9359,"svnr":2400817603},{"street":"Ludington","city":"Kisesa","zip":6251,"svnr":4944286726},{"street":"Forest Dale","city":"Las Lajas","zip":9820,"svnr":1246158269},{"street":"Harper","city":"Santo Rosario","zip":4412,"svnr":6604455476},{"street":"Ruskin","city":"Shuidong","zip":3219,"svnr":7569837735},{"street":"Manufacturers","city":"Beicang","zip":4721,"svnr":6007158577},{"street":"Forest Run","city":"Pangawaren","zip":8832,"svnr":5032863918},{"street":"Lakewood","city":"Nagbukel","zip":9359,"svnr":1344694924},{"street":"Autumn Leaf","city":"Itacarambi","zip":1178,"svnr":5511620766},{"street":"Ludington","city":"Kisesa","zip":6251,"svnr":1672951916},{"street":"Forest Dale","city":"Las Lajas","zip":9820,"svnr":7992011829},{"street":"Harper","city":"Santo Rosario","zip":4412,"svnr":7400269042},{"street":"Sauthoff","city":"La Esperanza","zip":9281,"svnr":2533185062},{"street":"Ruskin","city":"Shuidong","zip":3219,"svnr":9843979901},{"street":"Mockingbird","city":"Klwów","zip":7579,"svnr":9187847721},{"street":"Manufacturers","city":"Beicang","zip":4721,"svnr":2356392095},{"street":"Forest Run","city":"Pangawaren","zip":8832,"svnr":1480529929},{"street":"Autumn Leaf","city":"Itacarambi","zip":1178,"svnr":8011317395},{"street":"Ludington","city":"Kisesa","zip":6251,"svnr":7477120440},{"street":"Forest Dale","city":"Las Lajas","zip":9820,"svnr":4980639698},{"street":"Sauthoff","city":"La Esperanza","zip":9281,"svnr":7254621841},{"street":"Mockingbird","city":"Klwów","zip":7579,"svnr":1389017967},{"street":"Manufacturers","city":"Beicang","zip":4721,"svnr":9709168953},{"street":"Forest Run","city":"Pangawaren","zip":8832,"svnr":4147015565},{"street":"Lakewood","city":"Nagbukel","zip":9359,"svnr":4711450095},{"street":"Autumn Leaf","city":"Itacarambi","zip":1178,"svnr":6131056079},{"street":"Ludington","city":"Kisesa","zip":6251,"svnr":2666736461},{"street":"Forest Dale","city":"Las Lajas","zip":9820,"svnr":2089600256},{"street":"Harper","city":"Santo Rosario","zip":4412,"svnr":3016318386},{"street":"Sauthoff","city":"La Esperanza","zip":9281,"svnr":7315766179},{"street":"Ruskin","city":"Shuidong","zip":3219,"svnr":5511620766},{"street":"Mockingbird","city":"Klwów","zip":7579,"svnr":6778997430},{"street":"Manufacturers","city":"Beicang","zip":4721,"svnr":4111007771},{"street":"Lakewood","city":"Nagbukel","zip":9359,"svnr":9892213192},{"street":"Autumn Leaf","city":"Itacarambi","zip":1178,"svnr":8564968176},{"street":"Ludington","city":"Kisesa","zip":6251,"svnr":9335095713},{"street":"Forest Dale","city":"Las Lajas","zip":9820,"svnr":3953810966},{"street":"Harper","city":"Santo Rosario","zip":4412,"svnr":7692775044},{"street":"Sauthoff","city":"La Esperanza","zip":9281,"svnr":1757721053},{"street":"Ruskin","city":"Shuidong","zip":3219,"svnr":6602785910},{"street":"Mockingbird","city":"Klwów","zip":7579,"svnr":8562243895},{"street":"Manufacturers","city":"Beicang","zip":4721,"svnr":6667119108},{"street":"Lakewood","city":"Nagbukel","zip":9359,"svnr":5422476778},{"street":"Autumn Leaf","city":"Itacarambi","zip":1178,"svnr":7728394731},{"street":"Ludington","city":"Kisesa","zip":6251,"svnr":9009980731},{"street":"Forest Dale","city":"Las Lajas","zip":9820,"svnr":2709513717},{"street":"Harper","city":"Santo Rosario","zip":4412,"svnr":6271769933},{"street":"Sauthoff","city":"La Esperanza","zip":9281,"svnr":7036682617},{"street":"Ruskin","city":"Shuidong","zip":3219,"svnr":2180218699},{"street":"Mockingbird","city":"Klwów","zip":7579,"svnr":4210392161},{"street":"Manufacturers","city":"Beicang","zip":4721,"svnr":3941128795},{"street":"Forest Run","city":"Pangawaren","zip":8832,"svnr":6135298190},{"street":"Autumn Leaf","city":"Itacarambi","zip":1178,"svnr":2002765873},{"street":"Ludington","city":"Kisesa","zip":6251,"svnr":7274727641},{"street":"Forest Dale","city":"Las Lajas","zip":9820,"svnr":4561116662},{"street":"Harper","city":"Santo Rosario","zip":4412,"svnr":2335153773},{"street":"Mockingbird","city":"Klwów","zip":7579,"svnr":2180218699},{"street":"Manufacturers","city":"Beicang","zip":4721,"svnr":7204354312},{"street":"Autumn Leaf","city":"Itacarambi","zip":1178,"svnr":4094117900},{"street":"Harper","city":"Santo Rosario","zip":4412,"svnr":9457750470},{"street":"Sauthoff","city":"La Esperanza","zip":9281,"svnr":5904240064},{"street":"Mockingbird","city":"Klwów","zip":7579,"svnr":4111007771},{"street":"Manufacturers","city":"Beicang","zip":4721,"svnr":8925627737},{"street":"Forest Run","city":"Pangawaren","zip":8832,"svnr":2659393922},{"street":"Autumn Leaf","city":"Itacarambi","zip":1178,"svnr":4161975668},{"street":"Ludington","city":"Kisesa","zip":6251,"svnr":1635666512},{"street":"Forest Dale","city":"Las Lajas","zip":9820,"svnr":5000022041},{"street":"Harper","city":"Santo Rosario","zip":4412,"svnr":2002765873},{"street":"Sauthoff","city":"La Esperanza","zip":9281,"svnr":2397088614},{"street":"Ruskin","city":"Shuidong","zip":3219,"svnr":8562456544},{"street":"Manufacturers","city":"Beicang","zip":4721,"svnr":2400817603},{"street":"Forest Run","city":"Pangawaren","zip":8832,"svnr":9154972050},{"street":"Lakewood","city":"Nagbukel","zip":9359,"svnr":6614545013},{"street":"Autumn Leaf","city":"Itacarambi","zip":1178,"svnr":4079073964},{"street":"Ludington","city":"Kisesa","zip":6251,"svnr":5895777954},{"street":"Forest Dale","city":"Las Lajas","zip":9820,"svnr":1753906497},{"street":"Harper","city":"Santo Rosario","zip":4412,"svnr":9493985843},{"street":"Ruskin","city":"Shuidong","zip":3219,"svnr":4210392161},{"street":"Mockingbird","city":"Klwów","zip":7579,"svnr":6396026187},{"street":"Manufacturers","city":"Beicang","zip":4721,"svnr":8432782580},{"street":"Forest Run","city":"Pangawaren","zip":8832,"svnr":6470889219},{"street":"Ludington","city":"Kisesa","zip":6251,"svnr":4941508849},{"street":"Forest Dale","city":"Las Lajas","zip":9820,"svnr":2461085963},{"street":"Sauthoff","city":"La Esperanza","zip":9281,"svnr":5815016599},{"street":"Ruskin","city":"Shuidong","zip":3219,"svnr":7315766179},{"street":"Mockingbird","city":"Klwów","zip":7579,"svnr":2709771697},{"street":"Manufacturers","city":"Beicang","zip":4721,"svnr":2005819197},{"street":"Forest Run","city":"Pangawaren","zip":8832,"svnr":9774163127},{"street":"Lakewood","city":"Nagbukel","zip":9359,"svnr":3999322804},{"street":"Autumn Leaf","city":"Itacarambi","zip":1178,"svnr":1060498290},{"street":"Ludington","city":"Kisesa","zip":6251,"svnr":6835245292},{"street":"Forest Dale","city":"Las Lajas","zip":9820,"svnr":5066643991},{"street":"Harper","city":"Santo Rosario","zip":4412,"svnr":9834415569},{"street":"Sauthoff","city":"La Esperanza","zip":9281,"svnr":2447278371},{"street":"Ruskin","city":"Shuidong","zip":3219,"svnr":1417301946},{"street":"Manufacturers","city":"Beicang","zip":4721,"svnr":6041007350},{"street":"Forest Run","city":"Pangawaren","zip":8832,"svnr":5756238271},{"street":"Lakewood","city":"Nagbukel","zip":9359,"svnr":8328439185},{"street":"Autumn Leaf","city":"Itacarambi","zip":1178,"svnr":6133713328},{"street":"Ludington","city":"Kisesa","zip":6251,"svnr":6604455476},{"street":"Forest Dale","city":"Las Lajas","zip":9820,"svnr":9728114155},{"street":"Harper","city":"Santo Rosario","zip":4412,"svnr":4079073964},{"street":"Sauthoff","city":"La Esperanza","zip":9281,"svnr":5667261343},{"street":"Manufacturers","city":"Beicang","zip":4721,"svnr":8949042914},{"street":"Forest Run","city":"Pangawaren","zip":8832,"svnr":3343359106},{"street":"Lakewood","city":"Nagbukel","zip":9359,"svnr":4768638109},{"street":"Autumn Leaf","city":"Itacarambi","zip":1178,"svnr":7117603755},{"street":"Harper","city":"Santo Rosario","zip":4412,"svnr":1753471566},{"street":"Sauthoff","city":"La Esperanza","zip":9281,"svnr":7573062320},{"street":"Ruskin","city":"Shuidong","zip":3219,"svnr":3380902342},{"street":"Manufacturers","city":"Beicang","zip":4721,"svnr":7201161275},{"street":"Forest Run","city":"Pangawaren","zip":8832,"svnr":9647170515},{"street":"Lakewood","city":"Nagbukel","zip":9359,"svnr":5983278802},{"street":"Autumn Leaf","city":"Itacarambi","zip":1178,"svnr":2709513717},{"street":"Ludington","city":"Kisesa","zip":6251,"svnr":4995095508},{"street":"Forest Dale","city":"Las Lajas","zip":9820,"svnr":6396026187},{"street":"Harper","city":"Santo Rosario","zip":4412,"svnr":5554101389},{"street":"Sauthoff","city":"La Esperanza","zip":9281,"svnr":4079073964},{"street":"Ruskin","city":"Shuidong","zip":3219,"svnr":3052927211},{"street":"Mockingbird","city":"Klwów","zip":7579,"svnr":3421301199},{"street":"Manufacturers","city":"Beicang","zip":4721,"svnr":2796731938},{"street":"Forest Run","city":"Pangawaren","zip":8832,"svnr":8452738215},{"street":"Lakewood","city":"Nagbukel","zip":9359,"svnr":6135298190},{"street":"Forest Dale","city":"Las Lajas","zip":9820,"svnr":8741465415},{"street":"Harper","city":"Santo Rosario","zip":4412,"svnr":5999309970},{"street":"Sauthoff","city":"La Esperanza","zip":9281,"svnr":5629176501},{"street":"Ruskin","city":"Shuidong","zip":3219,"svnr":9009980731},{"street":"Manufacturers","city":"Beicang","zip":4721,"svnr":5469995084},{"street":"Forest Run","city":"Pangawaren","zip":8832,"svnr":3875395394},{"street":"Lakewood","city":"Nagbukel","zip":9359,"svnr":2005819197},{"street":"Ludington","city":"Kisesa","zip":6251,"svnr":6602785910},{"street":"Forest Dale","city":"Las Lajas","zip":9820,"svnr":4375326489},{"street":"Harper","city":"Santo Rosario","zip":4412,"svnr":1344694924},{"street":"Sauthoff","city":"La Esperanza","zip":9281,"svnr":9703591061},{"street":"Ruskin","city":"Shuidong","zip":3219,"svnr":4558422421},{"street":"Mockingbird","city":"Klwów","zip":7579,"svnr":2391401568},{"street":"Forest Run","city":"Pangawaren","zip":8832,"svnr":3764750245},{"street":"Lakewood","city":"Nagbukel","zip":9359,"svnr":7692775044},{"street":"Autumn Leaf","city":"Itacarambi","zip":1178,"svnr":7125332639},{"street":"Ludington","city":"Kisesa","zip":6251,"svnr":2354982168},{"street":"Forest Dale","city":"Las Lajas","zip":9820,"svnr":7544439159},{"street":"Harper","city":"Santo Rosario","zip":4412,"svnr":6674072808},{"street":"Sauthoff","city":"La Esperanza","zip":9281,"svnr":6271769933},{"street":"Ruskin","city":"Shuidong","zip":3219,"svnr":1577642542},{"street":"Manufacturers","city":"Beicang","zip":4721,"svnr":4511287242},{"street":"Lakewood","city":"Nagbukel","zip":9359,"svnr":2461085963},{"street":"Autumn Leaf","city":"Itacarambi","zip":1178,"svnr":8949042914},{"street":"Ludington","city":"Kisesa","zip":6251,"svnr":5828129062},{"street":"Forest Dale","city":"Las Lajas","zip":9820,"svnr":8270200072},{"street":"Sauthoff","city":"La Esperanza","zip":9281,"svnr":5194828264},{"street":"Mockingbird","city":"Klwów","zip":7579,"svnr":2463458075},{"street":"Manufacturers","city":"Beicang","zip":4721,"svnr":7275145710},{"street":"Lakewood","city":"Nagbukel","zip":9359,"svnr":5621879072},{"street":"Ludington","city":"Kisesa","zip":6251,"svnr":6928829415},{"street":"Harper","city":"Santo Rosario","zip":4412,"svnr":8424056772},{"street":"Sauthoff","city":"La Esperanza","zip":9281,"svnr":5000022041},{"street":"Mockingbird","city":"Klwów","zip":7579,"svnr":3449550984},{"street":"Manufacturers","city":"Beicang","zip":4721,"svnr":4067750387},{"street":"Lakewood","city":"Nagbukel","zip":9359,"svnr":4912867705},{"street":"Autumn Leaf","city":"Itacarambi","zip":1178,"svnr":3844141633},{"street":"Ludington","city":"Kisesa","zip":6251,"svnr":5372090301},{"street":"Forest Dale","city":"Las Lajas","zip":9820,"svnr":5252681144},{"street":"Harper","city":"Santo Rosario","zip":4412,"svnr":6920632560},{"street":"Mockingbird","city":"Klwów","zip":7579,"svnr":1246158269},{"street":"Manufacturers","city":"Beicang","zip":4721,"svnr":7056411304},{"street":"Forest Run","city":"Pangawaren","zip":8832,"svnr":3347657335},{"street":"Lakewood","city":"Nagbukel","zip":9359,"svnr":6470889219},{"street":"Autumn Leaf","city":"Itacarambi","zip":1178,"svnr":1156392036},{"street":"Ludington","city":"Kisesa","zip":6251,"svnr":4836271659},{"street":"Forest Dale","city":"Las Lajas","zip":9820,"svnr":2013480421},{"street":"Sauthoff","city":"La Esperanza","zip":9281,"svnr":9002058275},{"street":"Mockingbird","city":"Klwów","zip":7579,"svnr":9720824677}]